,storename,address,loncationdetail,lon,lat,city,province,district,township,geometry
0,北京星泰中心,北京市朝阳区酒仙桥路甲16号星泰中心A1-02,"116.490200,39.971870",116.4902,39.97187,北京市,北京市,朝阳区,将台镇,POINT (116.4902 39.97187)
1,后街商业广场,昆山市虹祺路243号后街商业广场C5幢楼一楼部分商铺。,"120.920690,31.411805",120.92069,31.411805,苏州市,江苏省,昆山市,玉山镇,POINT (120.92069 31.411805)
2,哈尔滨国际餐厅,哈尔滨西大直街4号567漫天地二层,"126.643240,45.756718",126.64324,45.756718,哈尔滨市,黑龙江省,南岗区,花园街道,POINT (126.64324 45.756718)
3,海那城百联奥特莱斯,济南市槐荫区美里路555号10号楼一层商铺,"116.913773,36.716513",116.913773,36.716513,济南市,山东省,槐荫区,美里湖街道,POINT (116.913773 36.716513)
4,扬州三盛店,扬州市邗江中路358号三盛国际广场5号楼1 - 4号商铺。,"119.397392,32.380924",119.397392,32.380924,扬州市,江苏省,邗江区,邗上街道,POINT (119.397392 32.380924)
5,北京龙冠置业店,北京市昌平区龙冠置业大厦A座一层A103,"116.319789,40.074331",116.319789,40.074331,北京市,北京市,昌平区,龙泽园街道,POINT (116.319789 40.074331)
6,余姚高铁南路,余姚市城区站南路199-249号余姚高铁商业广场东交1#一层1-109/1-110号商铺。,"121.168749,30.096659",121.168749,30.096659,宁波市,浙江省,余姚市,凤山街道,POINT (121.168749 30.096659)
7,北京慕田峪,北京市怀柔区渤海镇慕田峪旅游区,"116.467207,40.415310",116.467207,40.41531,北京市,北京市,怀柔区,渤海镇,POINT (116.467207 40.41531)
8,无锡海岸城店,无锡滨湖区立信大道168号海岸城39 - 101第119 - 120号商铺。,"120.302850,31.488663",120.30285,31.488663,无锡市,江苏省,滨湖区,太湖街道,POINT (120.30285 31.488663)
9,北京世界之花,北京市大兴区旧宫镇久敬庄路世界之花假日广场3F-B-07,"116.422140,39.819832",116.42214,39.819832,北京市,北京市,大兴区,旧宫镇,POINT (116.42214 39.819832)
10,荆州人信汇店,湖北省荆州市沙市区北京路人信汇1单元1层2号,"112.248290,30.308880",112.24829,30.30888,荆州市,湖北省,沙市区,崇文街道,POINT (112.24829 30.30888)
11,北京合生麒麟社,北京市朝阳区望京阜安西路11号楼CF101.102.103,"116.477866,39.997650",116.477866,39.99765,北京市,北京市,朝阳区,望京街道,POINT (116.477866 39.99765)
12,南通万达店,港闸区长平路9号万达广场1032号商铺。,"120.834277,32.036337",120.834277,32.036337,南通市,江苏省,港闸区,永兴街道,POINT (120.834277 32.036337)
13,常熟美城店,常熟市海虞北路35号美城购物中心一楼1018部分/1019部分/1037商铺及海虞北路39号一楼101部分商铺。,"120.754618,31.672835",120.754618,31.672835,苏州市,江苏省,常熟市,虞山街道,POINT (120.754618 31.672835)
14,重庆恒大中渝,重庆市渝北区红锦大道100 号都会首站二、三期T6 号楼,"106.521840,29.598630",106.52184,29.59863,重庆市,重庆市,渝北区,龙溪街道,POINT (106.52184 29.59863)
15,保定信誉楼餐厅,河北省保定市莲池区七一中路455号,"115.512260,38.878231",115.51226,38.878231,保定市,河北省,莲池区,中华路街道,POINT (115.51226 38.878231)
16,齐齐哈尔万达店,黑龙江省齐齐哈尔市建华区新江路1号（万达广场内1层1036-2035号）,"123.948942,47.367745",123.948942,47.367745,齐齐哈尔市,黑龙江省,建华区,文化街道,POINT (123.948942 47.367745)
17,温州路之遥奥特莱斯,浙江省温州乐清市北白象镇温州大桥工业区北环南路 1 号 13-130 至 13-139、13-225 至 13-229 号,"120.811557,28.020114",120.811557,28.020114,温州市,浙江省,乐清市,北白象镇,POINT (120.811557 28.020114)
18,武汉天河国际机场,湖北省武汉市黄陂区天河国际机场T3航站楼2层B区到达2A-32-1铺,"114.217958,30.771511",114.217958,30.771511,武汉市,湖北省,黄陂区,天河街道,POINT (114.217958 30.771511)
19,石家庄勒泰餐厅,河北省石家庄市长安区中山东路39号勒泰中心裙楼F2-64A、64B商铺,"114.505839,38.045380",114.505839,38.04538,石家庄市,河北省,长安区,中山东路街道,POINT (114.505839 38.04538)
20,上海宝山永辉,宝山区东林路201-10号商铺,"121.492583,31.407503",121.492583,31.407503,上海市,上海市,宝山区,友谊路街道,POINT (121.492583 31.407503)
21,北京马家堡新荟城,北京市丰台区角门19号院1、2号楼新荟城购物中心1层16号,"116.378258,39.836661",116.378258,39.836661,北京市,北京市,丰台区,马家堡街道,POINT (116.378258 39.836661)
22,青岛嘉年华餐厅,青岛市经济技术开发区嘉年华澳乐购U区U1-1,"120.171390,35.933129",120.17139,35.933129,青岛市,山东省,黄岛区,灵山卫街道,POINT (120.17139 35.933129)
23,沈阳万科明天店,沈阳市浑南新区新隆街1-26号明天广场101,"123.457608,41.722585",123.457608,41.722585,沈阳市,辽宁省,浑南区,五三街道,POINT (123.457608 41.722585)
24,福州火车北站,福州市晋安区华林路 502 号福州站北站房商业夹层 JC -02 号,"119.319544,26.112029",119.319544,26.112029,福州市,福建省,晋安区,茶园街道,POINT (119.319544 26.112029)
25,中贸广场店,陕西省西安市碑林区长安北路118号中贸广场A座北门一楼永辉超市门前,"108.945751,34.242296",108.945751,34.242296,西安市,陕西省,碑林区,长安路街道,POINT (108.945751 34.242296)
26,武汉大洋百货,武汉市汉阳区龙阳大道36号大洋百货商场B1F/1F楼B1B-31,"114.209203,30.560125",114.209203,30.560125,武汉市,湖北省,汉阳区,永丰街街道,POINT (114.209203 30.560125)
27,太原华宇,山西省太原市府西街与新建路交汇华宇精品商厦底商,"112.550161,37.874060",112.550161,37.87406,太原市,山西省,杏花岭区,三桥街道,POINT (112.550161 37.87406)
28,重庆新天地餐厅,重庆市渝中区瑞天路10号第一层117号店铺,"106.516485,29.548896",106.516485,29.548896,重庆市,重庆市,渝中区,化龙桥街道,POINT (106.516485 29.548896)
29,上海五角场店,上海市政通路189号近淞沪路，万达商业广场特力时尚汇内,"121.514735,31.300337",121.514735,31.300337,上海市,上海市,杨浦区,五角场街道,POINT (121.514735 31.300337)
30,泰州茂业百货店,泰州市南通路386号茂业百货一楼124号商铺。,"119.927069,32.497138",119.927069,32.497138,泰州市,江苏省,海陵区,城东街道,POINT (119.927069 32.497138)
31,南京珠海路未来城,南京市玄武区珠江路498 号未来城B 座地下一层至地上三层,"118.798725,32.047580",118.798725,32.04758,南京市,江苏省,玄武区,梅园新村街道,POINT (118.798725 32.04758)
32,上海金丰路,上海市闵行区运乐路599、595号,"121.282147,31.203705",121.282147,31.203705,上海市,上海市,闵行区,华漕镇,POINT (121.282147 31.203705)
33,西宁海湖万达店,西宁市广场路1号万达广场一层1037号,"101.715828,36.642648",101.715828,36.642648,西宁市,青海省,城西区,彭家寨镇,POINT (101.715828 36.642648)
34,天津百脑汇餐厅,天津市南开区鞍山西道336号天津百脑汇商铺号TJA1Y01和TJA2Y03,"117.157915,39.115481",117.157915,39.115481,天津市,天津市,南开区,万兴街道,POINT (117.157915 39.115481)
35,常州武进万达店,武进区花园街301号1007A商铺。,"119.944330,31.729388",119.94433,31.729388,常州市,江苏省,武进区,湖塘镇,POINT (119.94433 31.729388)
36,北京Plus365,北京市门头沟区冯石环路6号院3号楼华润置地Plus365一层L110,"116.110457,39.910510",116.110457,39.91051,北京市,北京市,门头沟区,永定镇,POINT (116.110457 39.91051)
37,天津津南永旺,天津市津南区辛庄镇深特广场1号楼永旺梦乐城3层360,"117.342412,39.029114",117.342412,39.029114,天津市,天津市,津南区,辛庄镇,POINT (117.342412 39.029114)
38,台州万达店,台州市椒江区开发大道790号万达广场1楼汉堡王餐厅,"121.416000,28.637125",121.416,28.637125,台州市,浙江省,椒江区,白云街道,POINT (121.416 28.637125)
39,北京华彩望京,北京市朝阳区广顺北大街16号院望京华彩商业中心1楼A101商铺,"116.468758,40.010239",116.468758,40.010239,北京市,北京市,朝阳区,东湖街道,POINT (116.468758 40.010239)
40,青岛火车站店,青岛市市南区费县路1号青岛火车站南候车室QDJ-4、QDJ-16号,"120.311605,36.063919",120.311605,36.063919,青岛市,山东省,市南区,中山路街道,POINT (120.311605 36.063919)
41,南京慕斯荟,南京市浦口区江浦街道紫晶龙华广场一楼110号商铺,"118.645958,32.073761",118.645958,32.073761,南京市,江苏省,浦口区,江浦街道,POINT (118.645958 32.073761)
42,欣都龙城,昆明市北京路1079号欣都龙城VCpark1栋L1层1-15-1号商铺,"102.733075,25.079705",102.733075,25.079705,昆明市,云南省,盘龙区,金辰街道,POINT (102.733075 25.079705)
43,太原解放路餐厅,山西省太原市杏花岭区解放路175号1号楼万达广场2003号商铺,"112.561424,37.885246",112.561424,37.885246,太原市,山西省,杏花岭区,巨轮街道,POINT (112.561424 37.885246)
44,威海九龙城店,山东省威海市经区九龙城购物中心一楼,"122.171960,37.421943",122.17196,37.421943,威海市,山东省,环翠区,皇冠街道,POINT (122.17196 37.421943)
45,天津东站餐厅,天津市河东区春华街道天津站交通枢纽后广场轨道换乘中心D区006号,"117.211538,39.137889",117.211538,39.137889,天津市,天津市,河东区,春华街道,POINT (117.211538 39.137889)
46,沈阳豫珑城店,沈阳市沈河区北中街路116号豫珑城商场一楼W119,"123.456471,41.801563",123.456471,41.801563,沈阳市,辽宁省,沈河区,皇城街道,POINT (123.456471 41.801563)
47,广州合生广场店,广州市海珠区叠景路156-170 号L2-05/06A商铺,"113.313840,23.085983",113.31384,23.085983,广州市,广东省,海珠区,凤阳街道,POINT (113.31384 23.085983)
48,长春迅驰广场,吉林省长春市南关区长春市净月区博学路1555号迅驰广场,"125.417076,43.821293",125.417076,43.821293,长春市,吉林省,南关区,净月街道,POINT (125.417076 43.821293)
49,苏州世茂,苏州市姑苏区宝带西路1177号5幢楼（即世茂运河城商业二期3#）512号,"120.599891,31.263513",120.599891,31.263513,苏州市,江苏省,姑苏区,吴门桥街道,POINT (120.599891 31.263513)
50,杭州大华国际店,杭州市西湖区文二路341-3 号。,"120.124410,30.282349",120.12441,30.282349,杭州市,浙江省,西湖区,翠苑街道,POINT (120.12441 30.282349)
51,北京通州罗斯福,北京市通州区翠景北里21号楼京通罗斯福广场,"116.658585,39.889001",116.658585,39.889001,北京市,北京市,通州区,梨园镇,POINT (116.658585 39.889001)
52,南京江苏电视台（北京东路）,南京市玄武区北京东路4号广电城二期商业项目二层206室,"118.785339,32.057875",118.785339,32.057875,南京市,江苏省,玄武区,新街口街道,POINT (118.785339 32.057875)
53,惠州南坛,惠州市南新路30号家华花园A、B栋首层商场F1A001铺位,"114.409513,23.080302",114.409513,23.080302,惠州市,广东省,惠城区,桥西街道,POINT (114.409513 23.080302)
54,南昌鑫凯新城吾悦餐厅,南昌市南昌高新技术产业开发区艾溪湖北路77 号南昌吾悦商业广场1034铺位,"115.972582,28.711488",115.972582,28.711488,南昌市,江西省,青山湖区,艾溪湖管理处,POINT (115.972582 28.711488)
55,济宁贵和店,济宁市任城区金宇路59号贵和购物广场1F-A108,"116.604326,35.431304",116.604326,35.431304,济宁市,山东省,任城区,洸河街道,POINT (116.604326 35.431304)
56,大连圣亚餐厅,辽宁省大连市沙河口区中山路608号大连圣亚海洋世界 鲸Mall一层,"121.571778,38.879243",121.571778,38.879243,大连市,辽宁省,沙河口区,星海湾街道,POINT (121.571778 38.879243)
57,深圳西乡天虹（魅力时代）,广东省深圳市宝安区西乡街道魅力时代花园A-J裙楼负二层的B2001号,"113.863878,22.575378",113.863878,22.575378,深圳市,广东省,宝安区,西乡街道,POINT (113.863878 22.575378)
58,中山皇爵假日广场,广东省中山市坦洲镇新行政中心区坦神北路118号皇爵广场3栋1层27、28、29、30、33卡商铺,"113.462324,22.276407",113.462324,22.276407,中山市,广东省,[],坦洲镇,POINT (113.462324 22.276407)
59,上塘中海锦城,深圳市龙华新区民治街道龙塘社区中海锦城5栋6101-6105号铺,"114.013961,22.636115",114.013961,22.636115,深圳市,广东省,龙华区,民治街道,POINT (114.013961 22.636115)
60,成都青羊万达,成都市青羊区日月大道一段978号万达广场2030-2031A号商铺,"103.971750,30.676587",103.97175,30.676587,成都市,四川省,青羊区,苏坡街道,POINT (103.97175 30.676587)
61,苏州吴江爱琴海,苏州市吴江区松陵镇开平路1298号爱琴海购物公园F1049 B1020  B1021,"120.658244,31.140434",120.658244,31.140434,苏州市,江苏省,吴江区,太湖新城镇,POINT (120.658244 31.140434)
62,南京森林摩尔,玄武区森林摩尔商业街区3号楼108商铺,"118.867136,32.038962",118.867136,32.038962,南京市,江苏省,玄武区,孝陵卫街道,POINT (118.867136 32.038962)
63,济南名泉春晓餐厅,山东省济南市天桥区堤口路南侧纬六路东侧名泉广场E地1楼L1-034,"116.982028,36.675429",116.982028,36.675429,济南市,山东省,天桥区,宝华街道,POINT (116.982028 36.675429)
64,美美百货,新疆乌鲁木齐市沙依巴克区西北路516号1栋1层1,"87.586259,43.819801",87.586259,43.819801,乌鲁木齐市,新疆维吾尔自治区,沙依巴克区,友好南路街道,POINT (87.586259 43.819801)
65,广州马场路店,广州市天河区马场路36号B134、B135-1(自编号）,"113.344021,23.123611",113.344021,23.123611,广州市,广东省,天河区,冼村街道,POINT (113.344021 23.123611)
66,三明开元荟餐厅,三明市梅列区天元国际大酒店天元荟商场1-7号铺汉堡王餐厅,"117.636629,26.265567",117.636629,26.265567,三明市,福建省,梅列区,列东街道,POINT (117.636629 26.265567)
67,上海长宁路,上海市长宁区长宁路88号长宁KING88一层L1-16室,"121.426984,31.228665",121.426984,31.228665,上海市,上海市,长宁区,华阳路街道,POINT (121.426984 31.228665)
68,扬州宝龙城市广场店,扬州市经济开发区扬子江中路9号7号楼1F-052/2F-053号商铺。,"119.417042,32.364678",119.417042,32.364678,扬州市,江苏省,邗江区,扬子津街道,POINT (119.417042 32.364678)
69,成都总府路,成都市锦江区总府路12号茂业百货春熙店2F201号商铺,"104.078610,30.657248",104.07861,30.657248,成都市,四川省,锦江区,春熙路街道,POINT (104.07861 30.657248)
70,杭州滨江宝龙城市广场,浦沿街道滨盛路3867号滨江宝龙城市广场M-F1-014-1。,"120.168331,30.188162",120.168331,30.188162,杭州市,浙江省,滨江区,浦沿街道,POINT (120.168331 30.188162)
71,昆明春融街（昆明花千坊）,云南省昆明市呈贡区春融街779号实力心城花千坊23栋101号商铺,"102.823260,24.881010",102.82326,24.88101,昆明市,云南省,呈贡区,乌龙街道,POINT (102.82326 24.88101)
72,合肥万达茂,滨湖区庐州大道800号合肥万达茂一层1001号商铺,"117.307670,31.781379",117.30767,31.781379,合肥市,安徽省,包河区,骆岗街道,POINT (117.30767 31.781379)
73,上海宝山新业坊,上海市逸仙路1328号新业坊源创园区2号楼103号,"121.484315,31.316055",121.484315,31.316055,上海市,上海市,宝山区,高境镇,POINT (121.484315 31.316055)
74,南昌万达茂汉堡王,江西省南昌市红谷滩新区九龙湖万达茂2037号铺位,"115.786410,28.586650",115.78641,28.58665,南昌市,江西省,新建区,九龙湖管理处,POINT (115.78641 28.58665)
75,苏州中心,苏州中心MALLB1层(A)B1-91号,"120.677614,31.318664",120.677614,31.318664,苏州市,江苏省,苏州工业园区,娄葑街道,POINT (120.677614 31.318664)
76,武汉汉口火车站,湖北省武汉市江汉区汉口火车站地下一层A022号,"114.254845,30.615503",114.254845,30.615503,武汉市,湖北省,江汉区,常青街街道,POINT (114.254845 30.615503)
77,石狮宝岛中路（石狮泰禾广场）,福建省泉州市石狮市宝岛中路泰禾广场10号楼一层L113、L113-1号店铺（商场4号门旁）,"118.646375,24.738303",118.646375,24.738303,泉州市,福建省,石狮市,湖滨街道,POINT (118.646375 24.738303)
78,厦门瑞丰里,厦门市湖里区高新技术园区钟岭路68号瑞丰里一层21号,"118.161386,24.531345",118.161386,24.531345,厦门市,福建省,湖里区,禾山街道,POINT (118.161386 24.531345)
79,长春中东湖西路店,吉林省长春市绿园区湖西路与泰来街交汇中东七彩城一层汉堡王,"125.278405,43.870306",125.278405,43.870306,长春市,吉林省,绿园区,春城街道,POINT (125.278405 43.870306)
80,苏州吴江吾悦,苏州市吴江区松陵镇人民路2188号吾悦广场A幢187号,"120.618069,31.137692",120.618069,31.137692,苏州市,江苏省,吴江区,太湖新城镇,POINT (120.618069 31.137692)
81,内江万达店,内江市东兴区汉安大道万达广场二号门,"105.041543,29.604556",105.041543,29.604556,内江市,四川省,东兴区,西林街道,POINT (105.041543 29.604556)
82,大连明秀山庄餐厅,大连市中山区秀月街370-1汉堡王餐厅,"121.647066,38.874843",121.647066,38.874843,大连市,辽宁省,中山区,桃源街道,POINT (121.647066 38.874843)
83,西安砂之船,西安市浐灞生态区世博大道5001号砂之船奥莱2楼2-B-34/2-B-35号商铺 汉堡王餐厅,"109.044751,34.343999",109.044751,34.343999,西安市,陕西省,灞桥区,灞桥街道,POINT (109.044751 34.343999)
84,深圳COCOPAK店,深圳市福田区民田路东福华三路北星河苏活购物公园202：L2C-002,"114.053833,22.534861",114.053833,22.534861,深圳市,广东省,福田区,福田街道,POINT (114.053833 22.534861)
85,山大路万科,济南市历城区山大路65号成大科技城1层A3-01,"117.055598,36.673659",117.055598,36.673659,济南市,山东省,历下区,[],POINT (117.055598 36.673659)
86,沈阳太阳狮店,沈阳经济开发区十四号路太阳狮星悦荟一层,"123.248598,41.747579",123.248598,41.747579,沈阳市,辽宁省,铁西区,沈阳市经济技术开发区,POINT (123.248598 41.747579)
87,上海浦东新区荣欣,上海市浦东新区金钻路828弄1-9号，金钻路798-806（双），816-818（双），824-826（双），842-850（双）号，恒越荣欣广场商铺号为5号151-157,"121.670904,31.287668",121.670904,31.287668,上海市,上海市,浦东新区,曹路镇,POINT (121.670904 31.287668)
88,天津凯莱赛餐厅,天津市红桥区丁字沽一号路天津凯莱赛商厦一层10号商铺,"117.167918,39.176210",117.167918,39.17621,天津市,天津市,红桥区,丁字沽街道,POINT (117.167918 39.17621)
89,四道口餐厅,海淀区学院南路50号 SDK-Filt 购物中心一层汉堡王,"116.348896,39.957511",116.348896,39.957511,北京市,北京市,海淀区,北太平庄街道,POINT (116.348896 39.957511)
90,珠海大前门,珠海市香洲区前山明珠南路2023号大前门商业广场一层001号,"113.519695,22.253411",113.519695,22.253411,珠海市,广东省,香洲区,前山街道,POINT (113.519695 22.253411)
91,深圳东门百货（深南中路）,深圳市罗湖区东门街道深南中路123号百货广场大厦东大门项目内一层L132号商铺,"114.118766,22.543604",114.118766,22.543604,深圳市,广东省,罗湖区,东门街道,POINT (114.118766 22.543604)
92,重庆龙湖时代天街,"重庆市渝中区时代天街3号门龙湖.时代天街d馆-l1-18,l19号","106.511452,29.536999",106.511452,29.536999,重庆市,重庆市,渝中区,石油路街道,POINT (106.511452 29.536999)
93,天津塘沽万达,天津滨海新区中心商务区大连东道南侧万达广场2036号,"117.684510,39.022825",117.68451,39.022825,天津市,天津市,滨海新区,于家堡街道,POINT (117.68451 39.022825)
94,普宁星河店,广东省普宁市流沙市区环市北路南侧广达北路东侧时代中心星河Coco city一楼L1C-116、117号及夹层L1MC-116、117号商铺,"116.161760,23.315726",116.16176,23.315726,揭阳市,广东省,普宁市,流沙北街道,POINT (116.16176 23.315726)
95,徐州铜山万达店,徐州市铜山区北京北路19号1050号商铺。,"117.187981,34.190100",117.187981,34.1901,徐州市,江苏省,铜山区,铜山街道,POINT (117.187981 34.1901)
96,厦门日圆二里（建发湾悦城）,厦门市湖里区日元二里1号湾悦城购物中心01楼L1-006A号,"118.162458,24.516306",118.162458,24.516306,厦门市,福建省,湖里区,禾山街道,POINT (118.162458 24.516306)
97,重庆天和里,重庆市江北区观音桥步行街10号附2号G层001号商铺,"106.534254,29.573836",106.534254,29.573836,重庆市,重庆市,江北区,观音桥街道,POINT (106.534254 29.573836)
98,太原国际金融中心,太原市南中环长治路口山西国际金融中心,"112.559804,37.792582",112.559804,37.792582,太原市,山西省,小店区,太原高新技术产业开发区,POINT (112.559804 37.792582)
99,云南曲靖万达广场店,曲靖市麒麟区(经开区)学府路与三江大道交叉口万达广场2楼,"103.757882,25.521135",103.757882,25.521135,曲靖市,云南省,麒麟区,西城街道,POINT (103.757882 25.521135)
100,郑州惠济万达,河南省郑州市惠济区文化北路惠济万达广场2号门1楼,"113.635932,34.868429",113.635932,34.868429,郑州市,河南省,惠济区,迎宾路街道,POINT (113.635932 34.868429)
101,苏州合景悠方,江苏省苏州市吴中区木渎镇竹园路与金枫路交汇处金枫路 264 号。,"120.528919,31.272983",120.528919,31.272983,苏州市,江苏省,吴中区,木渎镇,POINT (120.528919 31.272983)
102,嘉定西云楼,上海市嘉定区洪德路266号,"121.248122,31.352626",121.248122,31.352626,上海市,上海市,嘉定区,嘉定工业区,POINT (121.248122 31.352626)
103,长春活力城店,吉林省长春市重庆路与大经路交汇活力城一层汉堡王,"125.334713,43.891165",125.334713,43.891165,长春市,吉林省,南关区,自强街道,POINT (125.334713 43.891165)
104,南京托乐嘉广场（将军大道）,江苏省南京市江宁开发区将军大道9号托乐嘉商业街区109 幢1楼106号、B1楼106号,"118.787262,31.943027",118.787262,31.943027,南京市,江苏省,江宁区,秣陵街道,POINT (118.787262 31.943027)
105,重庆万象汇,重庆市南岸区重庆弹子石华润万象汇第LG层LG56号及第L1层L146号商铺,"106.591196,29.580432",106.591196,29.580432,重庆市,重庆市,南岸区,弹子石街道,POINT (106.591196 29.580432)
106,上海铜川路,上海市普陀区铜川路68号1-20号商铺,"121.419592,31.255553",121.419592,31.255553,上海市,上海市,普陀区,石泉路街道,POINT (121.419592 31.255553)
107,杭州天虹百货,江干区新塘路108号天虹购物中心B座一、二层135、201号商铺。,"120.209843,30.264579",120.209843,30.264579,杭州市,浙江省,江干区,四季青街道,POINT (120.209843 30.264579)
108,荆门银泰城,湖北省荆门市东宝区象山一路6号荆门银泰城1层116、117铺位,"112.201888,31.037856",112.201888,31.037856,荆门市,湖北省,东宝区,龙泉街道,POINT (112.201888 31.037856)
109,上海金桥家乐福,上海市浦东新区碧云路553号家乐福一层9号,"121.581241,31.238856",121.581241,31.238856,上海市,上海市,浦东新区,金桥经济技术开发区,POINT (121.581241 31.238856)
110,厦门T3机场,中国（福建）自由贸易试验区厦门片区厦门高崎国际机场T3候机楼 内三楼国际隔离区T3-E-13,"118.131050,24.533403",118.13105,24.533403,厦门市,福建省,湖里区,殿前街道,POINT (118.13105 24.533403)
111,深圳龙岗万科,深圳市龙岗区龙翔大道7188号龙岗万科广场L3-35铺,"114.243682,22.714337",114.243682,22.714337,深圳市,广东省,龙岗区,龙城街道,POINT (114.243682 22.714337)
112,兰州城关万达店,兰州市城关区天水北路224号万达百货一层1111号,"103.863060,36.063578",103.86306,36.063578,兰州市,甘肃省,城关区,雁北街道,POINT (103.86306 36.063578)
113,天津梅江永旺,天津市 西青区 西青经济技术开发区友谊南路111号A区永旺梦乐城一层165号,"117.219083,39.027045",117.219083,39.027045,天津市,天津市,西青区,西青区开发区,POINT (117.219083 39.027045)
114,南通星光耀店,崇川区工农南路100号南通星光耀广场12幢一层12 - 102 - 1、12 - 102 - 2号商铺。,"120.890203,31.967335",120.890203,31.967335,南通市,江苏省,崇川区,狼山镇街道,POINT (120.890203 31.967335)
115,台州中盛城市广场店,台州市路桥区银座街508号中盛城市广场负一楼汉堡王餐厅,"121.378273,28.579263",121.378273,28.579263,台州市,浙江省,路桥区,路桥街道,POINT (121.378273 28.579263)
116,武汉滨江世茂店,汉阳区鹦鹉洲地区世茂锦绣长江二期沿江商业地下室一层115、140、141、142、143、144号室。,"114.273796,30.538021",114.273796,30.538021,武汉市,湖北省,汉阳区,鹦鹉街街道,POINT (114.273796 30.538021)
117,杭州下沙蒲公英天地,浙江省杭州经济技术开发区阳光华城23幢23-101、23-102、23-111、23-112室,"120.374542,30.306596",120.374542,30.306596,杭州市,浙江省,江干区,白杨街道,POINT (120.374542 30.306596)
118,深圳玖悦雅轩,深圳市宝安区新安街道大浪社区前进一路92号玖悦雅轩-101-07号商铺,"113.904150,22.569845",113.90415,22.569845,深圳市,广东省,宝安区,新安街道,POINT (113.90415 22.569845)
119,杭州东城广场,杭州东城广场地铁东城一楼L101号商铺。,"120.278525,30.311054",120.278525,30.311054,杭州市,浙江省,江干区,九堡街道,POINT (120.278525 30.311054)
120,印象城餐厅,山东省济南市历城区花园路136号印象城地下一层B101号汉堡王,"117.065247,36.684502",117.065247,36.684502,济南市,山东省,历城区,洪家楼街道,POINT (117.065247 36.684502)
121,青岛大融城,青岛市市北区龙城路卓越大融城一层汉堡王餐厅,"120.378750,36.090000",120.37875,36.09,青岛市,山东省,市北区,敦化路街道,POINT (120.37875 36.09)
122,成都武侯万达,四川省成都市武侯区聚龙路988号万达广场,"103.997749,30.621174",103.997749,30.621174,成都市,四川省,武侯区,簇锦街道,POINT (103.997749 30.621174)
123,北京LG大厦,北京市朝阳区建外大街乙12号LG双子座大厦地下一层汉堡王,"116.449311,39.907703",116.449311,39.907703,北京市,北京市,朝阳区,建外街道,POINT (116.449311 39.907703)
124,包头维多利店,内蒙古自治区包头市钢铁大街96号维多利商厦首层,"109.813647,40.657600",109.813647,40.6576,包头市,内蒙古自治区,昆都仑区,白云路街道,POINT (109.813647 40.6576)
125,上海合生汇,上海市杨浦区黄兴路2228号上海合生国际广场的B2层B2-05,"121.516777,31.299359",121.516777,31.299359,上海市,上海市,杨浦区,五角场街道,POINT (121.516777 31.299359)
126,富兴国际,长沙市开福区芙蓉中路一段303 号富兴时代购物中心一层L130 、L232c号,"112.986960,28.213799",112.98696,28.213799,长沙市,湖南省,开福区,清水塘街道,POINT (112.98696 28.213799)
127,徐州月星环球港店,徐州市经济技术开发区徐海路8号1层第L1079-1080A号商铺及4层第L4072号商铺。,"118.352050,34.380070",118.35205,34.38007,徐州市,江苏省,新沂市,新安街道,POINT (118.35205 34.38007)
128,北京西三旗餐厅,北京市海淀区安宁庄后街2-2号B 3-01,"116.330347,40.050972",116.330347,40.050972,北京市,北京市,海淀区,清河街道,POINT (116.330347 40.050972)
129,北京环球贸易中心餐厅,北京市东城区北三环东路36号院环球贸易中心E座1层,"116.410769,39.966410",116.410769,39.96641,北京市,北京市,东城区,和平里街道,POINT (116.410769 39.96641)
130,北京槐房万达,北京市丰台区槐房西路与南苑西路交叉口万达广场2091号商铺,"116.226850,39.905888",116.22685,39.905888,北京市,北京市,石景山区,鲁谷街道,POINT (116.22685 39.905888)
131,苏州绿景佐邻越溪购物中心,苏州市吴中区越溪塔韵路199号1F,"120.595178,31.215618",120.595178,31.215618,苏州市,江苏省,吴中区,越溪街道,POINT (120.595178 31.215618)
132,成都大件路,成都市双流区大件路白家段280 号乐天玛特一层A14 号商铺,"104.007763,30.570217",104.007763,30.570217,成都市,四川省,双流区,西航港街道,POINT (104.007763 30.570217)
133,福州长乐路,福建省福州市长乐路88 号世欧广场A4 地块天虹商场一楼1071、1072、1073号商铺,"119.326996,26.069176",119.326996,26.069176,福州市,福建省,晋安区,象园街道,POINT (119.326996 26.069176)
134,凯德晶萃,上海市黄浦区徐家汇路268号凯德晶萃广场B2层01号。,"121.470456,31.206180",121.470456,31.20618,上海市,上海市,黄浦区,打浦桥街道,POINT (121.470456 31.20618)
135,哈尔滨会展一店,黑龙江哈尔滨南岗区红旗大街301号红博会展购物广场餐饮区,"126.701456,45.754988",126.701456,45.754988,哈尔滨市,黑龙江省,南岗区,新春街道,POINT (126.701456 45.754988)
136,武汉荟聚中心,武汉市硚口区长宜路特一号武汉荟聚中心3层,"114.167887,30.617837",114.167887,30.617837,武汉市,湖北省,硚口区,易家街道,POINT (114.167887 30.617837)
137,深圳德润荣君府,广东省深圳市龙岗区坂田街道马安堂社区布龙路595号德润荣君府4A栋GN25半地下1N22-2 .1N23 . 1N24 .1N25号商铺。,"113.981660,22.671250",113.98166,22.67125,深圳市,广东省,龙华区,大浪街道,POINT (113.98166 22.67125)
138,无锡融创茂店,无锡市滨湖区万达文化旅游城66号1楼1065号商铺,"120.279556,31.451766",120.279556,31.451766,无锡市,江苏省,滨湖区,雪浪街道,POINT (120.279556 31.451766)
139,福州红星餐厅,福州市仓山浦上大道198号红星国际广场1FC03铺,"119.279057,26.040277",119.279057,26.040277,福州市,福建省,仓山区,金山街道,POINT (119.279057 26.040277)
140,北京五道口店,北京市海淀区成府路35号华清嘉园7号楼1楼,"116.333433,39.992376",116.333433,39.992376,北京市,北京市,海淀区,中关村街道,POINT (116.333433 39.992376)
141,上海松江万达,上海市松江区广富林路658弄万达广场1039号商铺,"121.243386,31.058808",121.243386,31.058808,上海市,上海市,松江区,中山街道,POINT (121.243386 31.058808)
142,南昌盈石广场,江西省南昌市西湖区丁公路120号乐盈购物中心3号楼1311号,"115.912747,28.670801",115.912747,28.670801,南昌市,江西省,西湖区,丁公路街道,POINT (115.912747 28.670801)
143,无锡硕放机场,江苏省无锡市新吴区苏南硕放国际机场候机楼ARR - F - 2商铺,"120.433990,31.498795",120.43399,31.498795,无锡市,江苏省,新吴区,硕放街道,POINT (120.43399 31.498795)
144,济南和瑞广场餐厅,济南市历下区和平路与二环东路交叉路口和瑞广场一层汉堡王,"117.071786,36.661258",117.071786,36.661258,济南市,山东省,历下区,甸柳街道,POINT (117.071786 36.661258)
145,宁波印象城店,宁波印象城店鄞州区钱湖北路288号印象城B1层B1 - 01室。,"121.566447,29.833000",121.566447,29.833,宁波市,浙江省,鄞州区,中河街道,POINT (121.566447 29.833)
146,苏州圆融时代广场,苏州N6区域D幢苏州工业园区,"120.727028,31.324679",120.727028,31.324679,苏州市,江苏省,苏州工业园区,斜塘街道,POINT (120.727028 31.324679)
147,南京泰山路,江苏省南京市建邺区河西大街66号河西一号街区,"118.736104,31.989027",118.736104,31.989027,南京市,江苏省,建邺区,建邺区新城科技园,POINT (118.736104 31.989027)
148,成都青白江,四川省成都市青白江区凤凰西六路1号英祥商业广场一楼1121、1122、1123、1125、1156号,"104.261026,30.891414",104.261026,30.891414,成都市,四川省,青白江区,大弯街道,POINT (104.261026 30.891414)
149,南通圆融店,崇川区工农路与青年路交汇处圆融广场地下一层B129 - A号。,"120.885496,32.004084",120.885496,32.004084,南通市,江苏省,崇川区,学田街道,POINT (120.885496 32.004084)
150,武汉江汉路,武汉市江岸区江汉路104号步行街购物中心2楼1号,"114.291226,30.581228",114.291226,30.581228,武汉市,湖北省,江汉区,[],POINT (114.291226 30.581228)
151,兰州西客站汉堡王餐厅,兰州市七里河区兰州西客站出发层商业西夹层,"103.751750,36.067707",103.75175,36.067707,兰州市,甘肃省,七里河区,西站街道,POINT (103.75175 36.067707)
152,天津机场餐厅,天津市东丽区滨海国际机场T2航站楼东侧浮岛CYT2-3,"117.362129,39.131206",117.362129,39.131206,天津市,天津市,东丽区,金桥街道,POINT (117.362129 39.131206)
153,昆明滇池路,昆明市西山区滇池路663号,"102.681237,25.009301",102.681237,25.009301,昆明市,云南省,西山区,福海街道,POINT (102.681237 25.009301)
154,南京新街口2#,白下区汉中路1号南京国际金融中心地下一层,"118.782996,32.040865",118.782996,32.040865,南京市,江苏省,秦淮区,五老村街道,POINT (118.782996 32.040865)
155,东莞潮汇新城店,东莞市东城区东城中路潮汇星城1095-1098、2126号铺,"113.773395,23.025771",113.773395,23.025771,东莞市,广东省,[],东城街道,POINT (113.773395 23.025771)
156,深圳机场T3（四楼出发厅）,深圳市宝安区宝安国际机场T3航站楼4S-01-02号商铺,"113.812965,22.625032",113.812965,22.625032,深圳市,广东省,宝安区,深圳市宝安国际机场,POINT (113.812965 22.625032)
157,沈阳积家店,辽宁省沈阳市沈北新区道义南大街33号积家购物中心1L 北门,"123.400250,41.921130",123.40025,41.92113,沈阳市,辽宁省,沈北新区,道义街道,POINT (123.40025 41.92113)
158,宁波星海广场店,"宁波市海曙区星海广场5号楼1-2,1-9,1-8号。","121.519093,29.894941",121.519093,29.894941,宁波市,浙江省,海曙区,望春街道,POINT (121.519093 29.894941)
159,西安首创奥莱餐厅,西安市高新区细柳街办细柳路首创奥特莱斯一楼F1-B38汉堡王,"108.898716,34.216575",108.898716,34.216575,西安市,陕西省,雁塔区,丈八沟街道,POINT (108.898716 34.216575)
160,杭州良渚永旺梦乐城,杭州市余杭区良渚街道古墩路1888号一层区域 No.T155、156b。,"120.058617,30.360995",120.058617,30.360995,杭州市,浙江省,余杭区,良渚街道,POINT (120.058617 30.360995)
161,东莞汇一城店,东莞市南城区鸿福路200号首层（国际汇一城）CS1-019、CS1-020、BHSCJ-01号,"113.755074,23.007219",113.755074,23.007219,东莞市,广东省,[],南城街道,POINT (113.755074 23.007219)
162,江阴飞马水城,江苏省无锡市江阴市新桥镇新郁中路飞马水城购物中心1118-1119商铺,"120.503823,31.800804",120.503823,31.800804,无锡市,江苏省,江阴市,新桥镇,POINT (120.503823 31.800804)
163,湘潭天虹百货店,湘潭市岳塘区福星中路与双拥北路交汇处天虹百货L1001号商铺,"112.943209,27.849229",112.943209,27.849229,湘潭市,湖南省,岳塘区,红旗街道,POINT (112.943209 27.849229)
164,上海宝山经纬汇,上海市宝山区经地路99弄“紫荆谷+”商业项目9栋第1层11/12号,"121.398544,31.329334",121.398544,31.329334,上海市,上海市,宝山区,大场镇,POINT (121.398544 31.329334)
165,亦庄大族广场店,北京经济技术开发区荣华南路2号院8号楼大族购物中心F2-13汉堡王,"116.517910,39.781743",116.51791,39.781743,北京市,北京市,大兴区,北京经济技术开发区,POINT (116.51791 39.781743)
166,沈阳星摩尔三楼,沈阳市铁西区兴华街北二中路6号沈阳星摩尔购物广场三楼,"123.376379,41.808561",123.376379,41.808561,沈阳市,辽宁省,铁西区,笃工街道,POINT (123.376379 41.808561)
167,宁波银泰店,"宁波银泰店首南街道天童南路1088号环球银泰城店,建筑物1层148铺位。","121.542334,29.797616",121.542334,29.797616,宁波市,浙江省,鄞州区,首南街道,POINT (121.542334 29.797616)
168,威海威高店,山东省威海市环翠区新威路17号威高购物中心一层,"122.123160,37.504649",122.12316,37.504649,威海市,山东省,环翠区,环翠楼街道,POINT (122.12316 37.504649)
169,成都华宇,成都市锦江区上沙河铺街789号华宇广场购物中心LG-012、LG-013、LG-016、LG-017号商铺,"104.121140,30.622160",104.12114,30.62216,成都市,四川省,锦江区,沙河街道,POINT (104.12114 30.62216)
170,武汉金禾时尚,湖北省武汉市洪山区徐东大街191号武汉青扬城市广场商业办公综合楼1层6号,"114.364461,30.576738",114.364461,30.576738,武汉市,湖北省,洪山区,梨园街道,POINT (114.364461 30.576738)
171,天津武清创意米兰餐厅,天津市武清区前进道与泉旺路交口创意米兰购物广场 070#（西入口）,"117.041501,39.366078",117.041501,39.366078,天津市,天津市,武清区,运河西街道,POINT (117.041501 39.366078)
172,厦门SM-2（新生活广场）,厦门市思明区嘉禾路399号SM新生活广场三楼C319,"118.124891,24.500306",118.124891,24.500306,厦门市,福建省,思明区,筼筜街道,POINT (118.124891 24.500306)
173,鞍山新玛特店,辽宁省鞍山市铁东区胜利南路42号D02,"122.996355,41.112078",122.996355,41.112078,鞍山市,辽宁省,铁东区,站前街道,POINT (122.996355 41.112078)
174,南京高淳富克斯,南京市高淳区富克斯流行广场1楼,"118.869955,31.323689",118.869955,31.323689,南京市,江苏省,高淳区,淳溪镇,POINT (118.869955 31.323689)
175,长春吾悦广场餐厅,吉林省长春市绿园区皓月大路新城吾悦广场一楼,"125.272895,43.888809",125.272895,43.888809,长春市,吉林省,绿园区,春城街道,POINT (125.272895 43.888809)
176,临沂豪森店,山东省临沂市兰山区通达路与砚池街交汇处豪森丽都一层,"118.330514,35.070803",118.330514,35.070803,临沂市,山东省,兰山区,兰山街道,POINT (118.330514 35.070803)
177,深圳布吉龙珠商城,深圳市龙岗区龙岗大道102号保兴大厦东林教育龙珠商城L1-106/107铺位,"114.123551,22.602725",114.123551,22.602725,深圳市,广东省,龙岗区,布吉街道,POINT (114.123551 22.602725)
178,北京力宝华联,北京经济技术开发区荣华中路8号院1号楼华联力宝购物中心一层F1-45,"116.501268,39.804705",116.501268,39.804705,北京市,北京市,大兴区,北京经济技术开发区,POINT (116.501268 39.804705)
179,真如星光耀购物中心,上海市曹杨路 1888 弄 4、6-9、11、12、15-18、20号,"121.417930,31.236840",121.41793,31.23684,上海市,上海市,普陀区,长风新村街道,POINT (121.41793 31.23684)
180,惠州环湖三路（惠州方直广场）,惠州市惠城区环湖三路方直广场购物中心一层,"114.429884,23.066086",114.429884,23.066086,惠州市,广东省,惠城区,河南岸街道,POINT (114.429884 23.066086)
181,南京马台街,南京市鼓楼区马台街91号溢佰份购物中心1楼F113、F115号商铺,"118.773798,32.071443",118.773798,32.071443,南京市,江苏省,鼓楼区,湖南路街道,POINT (118.773798 32.071443)
182,南通时尚街,江苏省南通市崇川区环城南路1号汉堡王餐厅,"120.867997,32.013906",120.867997,32.013906,南通市,江苏省,崇川区,和平桥街道,POINT (120.867997 32.013906)
183,郑州健康路天下城,郑州市金水区健康路与优胜北路交叉口向南100米路西街铺,"113.664046,34.769176",113.664046,34.769176,郑州市,河南省,金水区,大石桥街道,POINT (113.664046 34.769176)
184,上海正大,陆家嘴西168号正大广场,"121.499146,31.236729",121.499146,31.236729,上海市,上海市,浦东新区,陆家嘴街道,POINT (121.499146 31.236729)
185,常州龙湖天街,"常州市钟楼区勤业路295号常州龙城天街01-1F-44b,01-1F-45b号房屋","119.934600,31.782558",119.9346,31.782558,常州市,江苏省,钟楼区,五星街道,POINT (119.9346 31.782558)
186,杭州宁成大厦,杭州市市心北路 2000 号归谷大厦 1 层 1F-05 号商铺,"120.268522,30.209273",120.268522,30.209273,杭州市,浙江省,萧山区,宁围街道,POINT (120.268522 30.209273)
187,建业凯旋广场,河南省洛阳市西工区中州中路与玻璃厂路交汇处建业凯旋广场负一层,"112.449295,34.674538",112.449295,34.674538,洛阳市,河南省,西工区,西工街道,POINT (112.449295 34.674538)
188,威海时光城餐厅,山东省威海市高技区宫松岭路威高花园235号L-F115,"122.103440,37.523862",122.10344,37.523862,威海市,山东省,环翠区,怡园街道,POINT (122.10344 37.523862)
189,北京南站地上餐厅,北京市丰台区北京南站高架层南侧,"116.378676,39.864838",116.378676,39.864838,北京市,北京市,丰台区,右安门街道,POINT (116.378676 39.864838)
190,杭州文一西路（西溪首座）,杭州市西湖区文一西路588号西溪首座,"120.081752,30.287633",120.081752,30.287633,杭州市,浙江省,西湖区,蒋村街道,POINT (120.081752 30.287633)
191,渔湾路（珠海海韵城）,珠海市香洲区渔湾路城建海韵城A区一层L1-3，L1-4铺,"113.589625,22.281813",113.589625,22.281813,珠海市,广东省,香洲区,香湾街道,POINT (113.589625 22.281813)
192,北京丰葆路餐厅,北京市丰台区丰葆路88号院1号楼410,"116.292410,39.817663",116.29241,39.817663,北京市,北京市,丰台区,花乡乡,POINT (116.29241 39.817663)
193,天津宝龙城市广场,天津市滨海新区 新港路新华路立交桥南侧宝龙国际中心展示厅1F-070/071/072,"117.674825,39.011931",117.674825,39.011931,天津市,天津市,滨海新区,于家堡街道,POINT (117.674825 39.011931)
194,北京大成路店,北京市丰台区大成路8号翠微百货一层F1-F16汉堡王,"116.265250,39.888414",116.26525,39.888414,北京市,北京市,丰台区,卢沟桥街道,POINT (116.26525 39.888414)
195,呼和浩特亚辰七彩城店,内蒙古呼和浩特市玉泉区公园西路与大学西街交汇处西北角亚辰七彩城一层F1010商铺,"111.663036,40.803507",111.663036,40.803507,呼和浩特市,内蒙古自治区,玉泉区,大南街街道,POINT (111.663036 40.803507)
196,济南开元广场,山东省济南市趵突泉北路1号开元广场一层汉堡王餐厅,"117.016554,36.671286",117.016554,36.671286,济南市,山东省,历下区,泉城路街道,POINT (117.016554 36.671286)
197,青岛水悦城餐厅,青岛市城阳区正阳路177号水悦城购物中心23号楼3号商铺,"120.403496,36.306259",120.403496,36.306259,青岛市,山东省,城阳区,城阳街道,POINT (120.403496 36.306259)
198,天津秀谷广场,天津市滨海新区塘沽津塘公路秀谷商业广场一层,"117.656847,39.031696",117.656847,39.031696,天津市,天津市,滨海新区,杭州道街道,POINT (117.656847 39.031696)
199,定州大世界店,河北省保定市定州市中山路大世界综合体一层,"115.008142,38.503630",115.008142,38.50363,保定市,河北省,定州市,南城区街道,POINT (115.008142 38.50363)
200,杭州萧山万象汇,杭州市萧山区北干街道金城路927号的杭州萧山万象汇购物中心项目B1层B109号商铺,"120.258587,30.180807",120.258587,30.180807,杭州市,浙江省,萧山区,北干街道,POINT (120.258587 30.180807)
201,南京浦口市民中心（天浦路）,南京市浦口区市民中心A栋1楼9号,"118.625826,32.067154",118.625826,32.067154,南京市,江苏省,浦口区,江浦街道,POINT (118.625826 32.067154)
202,郑州二七万达汉堡王,郑州市二七万达广场173-175号,"113.602050,34.747100",113.60205,34.7471,郑州市,河南省,中原区,中原西路街道,POINT (113.60205 34.7471)
203,武汉SOGO,湖北省武汉市解放大道374号SOGO购物广场,"114.274750,30.581720",114.27475,30.58172,武汉市,湖北省,江汉区,万松街街道,POINT (114.27475 30.58172)
204,北京诚盈餐厅,北京市朝阳区来广营西路1号诚盈中心3号楼汉堡王,"116.466010,40.021010",116.46601,40.02101,北京市,北京市,朝阳区,来广营镇,POINT (116.46601 40.02101)
205,君欣广场,上海市杨浦区控江路1777号君欣时代广场一层5号铺位。,"121.514180,31.273465",121.51418,31.273465,上海市,上海市,杨浦区,江浦路街道,POINT (121.51418 31.273465)
206,南京清江苏宁,南京市江东北路清凉门大街苏宁广场1楼,"118.741058,32.045209",118.741058,32.045209,南京市,江苏省,鼓楼区,凤凰街道,POINT (118.741058 32.045209)
207,晋江SM店,晋江市罗山福埔SM国际城市广场地下一层78-80号,"118.567026,24.790885",118.567026,24.790885,泉州市,福建省,晋江市,青阳街道,POINT (118.567026 24.790885)
208,电子世界,深圳福田区华强北街道华强广场B座一层H区H1001-H1002铺位,"114.085610,22.543106",114.08561,22.543106,深圳市,广东省,福田区,华强北街道,POINT (114.08561 22.543106)
209,成都东站2店,成都市成华区东客站高架层GC03号（候车大厅）,"104.140390,30.629493",104.14039,30.629493,成都市,四川省,成华区,保和街道,POINT (104.14039 30.629493)
210,保定万博店,河北省保定市朝阳北大街99号万博广场一二层,"115.469685,38.876422",115.469685,38.876422,保定市,河北省,竞秀区,东风街道,POINT (115.469685 38.876422)
211,天津鲁能,天津市南开区天塔道北侧鲁能城购物中心B1F-A区36号,"117.178751,39.092384",117.178751,39.092384,天津市,天津市,南开区,水上公园街道,POINT (117.178751 39.092384)
212,北京数码大厦,北京市海淀区中关村南大街2号数码大厦B座地下一层汉堡王,"116.323133,39.965467",116.323133,39.965467,北京市,北京市,海淀区,北下关街道,POINT (116.323133 39.965467)
213,中山星宝店,中山市沙溪镇星宝路6号星宝明珠花园32幢首层1号铺,"113.327345,22.525056",113.327345,22.525056,中山市,广东省,[],沙溪镇,POINT (113.327345 22.525056)
214,南京21世纪太阳城,南京市江宁开发区双龙大道1539号21世纪太阳城69幢F1-17号商铺和69幢5楼F5-23号甜品站,"118.823455,31.927798",118.823455,31.927798,南京市,江苏省,江宁区,秣陵街道,POINT (118.823455 31.927798)
215,扬州华懋店,扬州市文昌中路与大学北路交叉口东南角华茂购物中心B区F162、B150 - 1。,"119.426392,32.391931",119.426392,32.391931,扬州市,江苏省,邗江区,双桥街道,POINT (119.426392 32.391931)
216,武汉红坊里,武汉市青山区和平大道八大家红坊里32栋一楼01铺,"114.382270,30.627269",114.38227,30.627269,武汉市,湖北省,青山区,红卫路街道,POINT (114.38227 30.627269)
217,上海罗店上坤上街店,上海市宝山区罗店镇塘西街299号11街坊P1地块上坤上街1号1楼101、102、103、119、120号2楼103号商铺,"121.341813,31.419333",121.341813,31.419333,上海市,上海市,宝山区,罗店镇,POINT (121.341813 31.419333)
218,上海国际时尚中心,上海市杨浦区杨树浦路2866号上海国际时尚中心7号楼708号商铺。,"121.557050,31.271841",121.55705,31.271841,上海市,上海市,杨浦区,定海路街道,POINT (121.55705 31.271841)
219,成都百脑汇,四川省成都市武侯区新南路118号1层1Y01号、2层2Y02号,"104.076469,30.635397",104.076469,30.635397,成都市,四川省,武侯区,望江路街道,POINT (104.076469 30.635397)
220,深圳华强北店,深圳市福田区华强北桑达419栋2层217-226,"114.087753,22.545692",114.087753,22.545692,深圳市,广东省,福田区,华强北街道,POINT (114.087753 22.545692)
221,大连佳兆业,辽宁省大连市中山区天津街佳兆业广场G层汉堡王餐厅,"121.637515,38.922294",121.637515,38.922294,大连市,辽宁省,中山区,青泥洼桥街道,POINT (121.637515 38.922294)
222,嘉善万联城店,嘉善万联城店嘉善县嘉善大道与世纪大道交叉口东南角万联城购物中心东区1楼1003号商铺。,"120.930442,30.818654",120.930442,30.818654,嘉兴市,浙江省,嘉善县,罗星街道,POINT (120.930442 30.818654)
223,武汉南湖时尚城,武汉市东湖新技术开发区南湖大道116号南湖时尚城K4b栋,"114.385937,30.477115",114.385937,30.477115,武汉市,湖北省,洪山区,关东街道,POINT (114.385937 30.477115)
224,苏州平江万达,苏州市人民路3188号万达广场A3一层61号铺位,"120.614133,31.342466",120.614133,31.342466,苏州市,江苏省,姑苏区,苏锦街道,POINT (120.614133 31.342466)
225,保定茂业店,河北省保定市朝阳南大街1号茂业百货一层,"115.469654,38.872982",115.469654,38.872982,保定市,河北省,竞秀区,东风街道,POINT (115.469654 38.872982)
226,新合作广场,河北省石家庄市新华区合作路68号新合作广场A座裙楼一层东北角0-113、114号,"114.463072,38.053780",114.463072,38.05378,石家庄市,河北省,新华区,革新街街道,POINT (114.463072 38.05378)
227,豪富广场餐厅,福建省石狮市八七路曾坑段北侧666号大酒店一楼101、102号铺。,"118.645689,24.722438",118.645689,24.722438,泉州市,福建省,石狮市,湖滨街道,POINT (118.645689 24.722438)
228,杭州金地橙街,杭州市余杭区古墩路与金渡北路交叉口金地广场商业街1 栋1-5、1-6、209、210。,"120.083890,30.339150",120.08389,30.33915,杭州市,浙江省,余杭区,良渚街道,POINT (120.08389 30.33915)
229,南京砂之船,江苏省南京市江宁区秣周东路18号4楼,"118.829645,31.867688",118.829645,31.867688,南京市,江苏省,江宁区,秣陵街道,POINT (118.829645 31.867688)
230,桂林东西巷店,广西桂林市秀峰区解放东路18号E103、E201、E202号,"110.298971,25.273361",110.298971,25.273361,桂林市,广西壮族自治区,秀峰区,秀峰街道,POINT (110.298971 25.273361)
231,长春万豪,吉林省长春市南关区长春洋浦大街靠近吉林大路欧亚万豪购物中心,"125.424969,43.878747",125.424969,43.878747,长春市,吉林省,二道区,东方广场街道,POINT (125.424969 43.878747)
232,重庆金科美邻汇,重庆市渝北区斑竹路19号2幢金科美邻汇购物中心2层08号,"106.475072,29.623811",106.475072,29.623811,重庆市,重庆市,渝北区,大竹林街道,POINT (106.475072 29.623811)
233,常德朗州路餐厅,湖南省常德市武陵区朗州路560号壹号金街一楼,"111.699390,29.040900",111.69939,29.0409,常德市,湖南省,武陵区,丹阳街道,POINT (111.69939 29.0409)
234,北京中航技,北京经济技术开发区荣华南路15号中航技广场1层1-012,"116.518245,39.780674",116.518245,39.780674,北京市,北京市,大兴区,北京经济技术开发区,POINT (116.518245 39.780674)
235,重庆金茂街餐厅,重庆市九龙坡区袁家岗23-1-7号一楼商铺,"106.512512,29.524591",106.512512,29.524591,重庆市,重庆市,九龙坡区,谢家湾街道,POINT (106.512512 29.524591)
236,西安高新金鹰汉堡王,陕西省西安市高新区科技路37号海星广场A座1F1-10103,"108.901892,34.232811",108.901892,34.232811,西安市,陕西省,雁塔区,电子城街道,POINT (108.901892 34.232811)
237,大连人民路,辽宁省大连市中山区人民路12号,"121.647297,38.922813",121.647297,38.922813,大连市,辽宁省,中山区,人民路街道,POINT (121.647297 38.922813)
238,霄云路餐厅,北京市朝阳区霄云路15号1层15-51号,"116.466203,39.960942",116.466203,39.960942,北京市,北京市,朝阳区,太阳宫镇,POINT (116.466203 39.960942)
239,大连福佳餐厅,辽宁省大连市沙河口区西安路99号福佳新天地购物中心二层,"121.587621,38.917227",121.587621,38.917227,大连市,辽宁省,沙河口区,兴工街道,POINT (121.587621 38.917227)
240,徐州新都商业广场,徐州市泉山区淮海西路251 号新都商业广场一层1-101、1-102 号商铺,"117.159616,34.261854",117.159616,34.261854,徐州市,江苏省,泉山区,永安街道,POINT (117.159616 34.261854)
241,昆山中楠广场,昆山中楠广场周氏镇萧林东路5018号都汇广场2号楼一楼03、04、101、102、103、104号商铺。,"120.979714,31.402861",120.979714,31.402861,苏州市,江苏省,昆山市,周市镇,POINT (120.979714 31.402861)
242,淮北永利,安徽省淮北市相山区淮海中路85号永利广场一楼汉堡王,"116.795941,33.972843",116.795941,33.972843,淮北市,安徽省,相山区,西街道,POINT (116.795941 33.972843)
243,武汉维佳体验城,"湖北省武汉市洪山区洪山街北港村维佳体验城1,2楼1-005,2-002号","114.345084,30.545414",114.345084,30.545414,武汉市,湖北省,武昌区,水果湖街街道,POINT (114.345084 30.545414)
244,清扬路茂业天地2层,无锡市清扬路128号茂业天地二楼L-05室。,"120.308549,31.549813",120.308549,31.549813,无锡市,江苏省,梁溪区,扬名街道,POINT (120.308549 31.549813)
245,深圳龙华绿景香颂店,深圳市龙华区布龙路与民治路交汇处佐领香颂购物中心一层N-109、N-L129,"114.036381,22.630664",114.036381,22.630664,深圳市,广东省,龙华区,民治街道,POINT (114.036381 22.630664)
246,无锡苏宁天御广场店,"无锡北塘区青石西路路与凤宾路交汇处苏宁天御商业广场10 号楼111,112,113,115,116,117,118号。","120.285787,31.594731",120.285787,31.594731,无锡市,江苏省,梁溪区,黄巷街道,POINT (120.285787 31.594731)
247,张家港吾悦店,张家港金港大道338号吾悦商业广场20号楼1层147号商铺,"120.542083,31.838068",120.542083,31.838068,苏州市,江苏省,张家港市,张家港经济技术开发区,POINT (120.542083 31.838068)
248,东莞盛南路店,东莞市大朗镇长盛南路10号中央盛景一层101、102、103号,"113.933544,22.933645",113.933544,22.933645,东莞市,广东省,[],大朗镇,POINT (113.933544 22.933645)
249,银川宁阳广场,宁夏银川市西夏区怀远路与文萃街交汇处宁阳文化商业广场一层汉堡王,"106.185928,38.485722",106.185928,38.485722,银川市,宁夏回族自治区,金凤区,满城北街街道,POINT (106.185928 38.485722)
250,无锡梦想城店,无锡惠山经济开发区政和大道北侧、源生路东侧梦享城商业广场一楼101、102、103、104号商铺。,"120.321526,31.678229",120.321526,31.678229,无锡市,江苏省,惠山区,无锡惠山经济开发区,POINT (120.321526 31.678229)
251,深圳北站(缤果空间),深圳市龙华新区民治街道深圳北站交通枢纽东延平台商业区2B-01-A、2B-01-B、2B-02-B号商铺,"114.028428,22.606960",114.028428,22.60696,深圳市,广东省,龙华区,民治街道,POINT (114.028428 22.60696)
252,晋江阳光时代广场,福建省泉州市晋江市青阳街道阳光社区阳光时代广场C幢1层101号、2层201号.201号、203号,"118.591575,24.810832",118.591575,24.810832,泉州市,福建省,晋江市,青阳街道,POINT (118.591575 24.810832)
253,上海龙阳路,上海市浦东新区龙阳路2000号龙阳广场1楼L1-17(110-17)号商铺,"121.556854,31.203120",121.556854,31.20312,上海市,上海市,浦东新区,花木街道,POINT (121.556854 31.20312)
254,天津北宁湾,天津市河北区铁东路街道迎贤道96号宁宇家园8号楼1楼门配3-112、113,"117.208910,39.181110",117.20891,39.18111,天津市,天津市,河北区,铁东路街道,POINT (117.20891 39.18111)
255,深圳金丰城店,深圳市罗湖区深南东路5015号金丰城大厦负07.08,"114.110007,22.541123",114.110007,22.541123,深圳市,广东省,罗湖区,桂园街道,POINT (114.110007 22.541123)
256,江桥MAX未来广场,嘉定区嘉涌路99弄MAX未来广场1F315-316 号商铺,"121.335818,31.269619",121.335818,31.269619,上海市,上海市,嘉定区,江桥镇,POINT (121.335818 31.269619)
257,西宁曹家堡机场,西宁曹家堡机场T2航站楼B-F-1,"101.818488,36.600850",101.818488,36.60085,西宁市,青海省,城东区,八一路街道,POINT (101.818488 36.60085)
258,宁波来福士店,宁波江北区大庆南路99号B1层B148号。,"121.557414,29.883113",121.557414,29.883113,宁波市,浙江省,江北区,中马街道,POINT (121.557414 29.883113)
259,深圳蔡屋围 KK MALL,深圳市罗湖区蔡屋围蔡屋围京基金融中心地下商业-01层01-3108,"114.106547,22.543010",114.106547,22.54301,深圳市,广东省,罗湖区,桂园街道,POINT (114.106547 22.54301)
260,上海宝龙城市广场,上海市嘉定区阿克苏路1095号、1099号S1-1F-1095、M1-1F-1001-1商铺,"121.261053,31.346623",121.261053,31.346623,上海市,上海市,嘉定区,嘉定工业区,POINT (121.261053 31.346623)
261,佛山祖庙铂顿广场店,佛山市禅城区建新路111号A11铂顿城商场首层 1F-035号的商铺,"113.113395,23.026451",113.113395,23.026451,佛山市,广东省,禅城区,祖庙街道,POINT (113.113395 23.026451)
262,泰盛广场,临沂市兰山区解放路与通达路交汇处泰盛广场L4-015,"118.329343,35.067915",118.329343,35.067915,临沂市,山东省,兰山区,兰山街道,POINT (118.329343 35.067915)
263,成都金牛区银海中心,四川省成都市金牛区一环路北四段108号附1号、附2号、附3号、附6号,"104.087060,30.680440",104.08706,30.68044,成都市,四川省,金牛区,驷马桥街道,POINT (104.08706 30.68044)
264,深圳宝安大道,深圳市宝安区宝安大道6259号同泰时代广场L1 层L1-42-43 号铺,"113.804673,22.678862",113.804673,22.678862,深圳市,广东省,宝安区,福海街道,POINT (113.804673 22.678862)
265,北京马连道华睦,北京市西城区马连道南街6号院1号楼华睦大厦A221号一层汉堡王,"116.324610,39.883650",116.32461,39.88365,北京市,北京市,西城区,广安门外街道,POINT (116.32461 39.88365)
266,广州亚洲金融中心,广州市东风西路207号亚洲金融中心一楼L1C,"113.259357,23.132680",113.259357,23.13268,广州市,广东省,越秀区,六榕街道,POINT (113.259357 23.13268)
267,绵阳茂业店,绵阳市涪城区公园路1号茂业百货兴达店1楼113号商铺,"104.750850,31.460910",104.75085,31.46091,绵阳市,四川省,涪城区,城北街道,POINT (104.75085 31.46091)
268,上海美罗城店,上海市徐汇区肇嘉浜路1111号美罗城B1-9,"121.439650,31.192950",121.43965,31.19295,上海市,上海市,徐汇区,徐家汇街道,POINT (121.43965 31.19295)
269,苏州南环汇邻,苏州市姑苏区南环东758号南环汇邻广场四号楼一、二层4A-F101-1、4A-F201-1室,"120.636497,31.281185",120.636497,31.281185,苏州市,江苏省,姑苏区,吴门桥街道,POINT (120.636497 31.281185)
270,上海壹丰广场,上海市虹口区四川北路1363号壹丰广场购物中心层 L1-B04，B04（A）号,"121.483689,31.252543",121.483689,31.252543,上海市,上海市,虹口区,四川北路街道,POINT (121.483689 31.252543)
271,太原万象城餐厅,太原市万柏林区长兴路5号万象城L536号,"112.530270,37.810703",112.53027,37.810703,太原市,山西省,万柏林区,长风西街街道,POINT (112.53027 37.810703)
272,经开龙鼎万达,嘉兴市秀洲区龙凤路与新盛西路交汇处的嘉兴经开万达广场1057-1058号商铺。,"120.717224,30.751428",120.717224,30.751428,嘉兴市,浙江省,南湖区,城南街道,POINT (120.717224 30.751428)
273,上海大华一路,上海市普陀区大华一路2号105、106号商铺,"121.415055,31.269218",121.415055,31.269218,上海市,上海市,宝山区,[],POINT (121.415055 31.269218)
274,杭州珀莱雅美帆广场,杭州市西溪路588 号杭州珀莱雅大厦2 号楼101#102#,"120.089172,30.257214",120.089172,30.257214,杭州市,浙江省,西湖区,留下街道,POINT (120.089172 30.257214)
275,任丘悦都汇,河北省任丘市裕华路与会战道交叉口西北角1-04,"116.099947,38.706414",116.099947,38.706414,沧州市,河北省,任丘市,新华路街道,POINT (116.099947 38.706414)
276,盘锦万达店,辽宁省盘锦市兴隆台区双兴南路71号万达广场一层,"122.076972,41.100782",122.076972,41.100782,盘锦市,辽宁省,兴隆台区,兴盛街道,POINT (122.076972 41.100782)
277,北京首经贸店,北京市丰台区地铁十号线首经贸站B1层A12,"116.319878,39.844259",116.319878,39.844259,北京市,北京市,丰台区,新村街道,POINT (116.319878 39.844259)
278,上海汇暻,上海市瞿溪路988号汇暻生活广场A6栋101/102/110商铺,"121.477189,31.199160",121.477189,31.19916,上海市,上海市,黄浦区,五里桥街道,POINT (121.477189 31.19916)
279,启东新城吾悦广场,江苏省启东市建设南路88号启东新城吾悦1009-2号铺,"121.660751,31.785941",121.660751,31.785941,南通市,江苏省,启东市,汇龙镇,POINT (121.660751 31.785941)
280,江都佳源世纪广场,江苏省扬州市江都区文昌东路369号佳源城市广场L107,"119.575375,32.406109",119.575375,32.406109,扬州市,江苏省,江都区,仙女镇,POINT (119.575375 32.406109)
281,沈阳兴隆大奥莱店,辽宁省沈阳市浑南新区营盘北街5号B座4层,"123.459060,41.741720",123.45906,41.74172,沈阳市,辽宁省,浑南区,五三街道,POINT (123.45906 41.74172)
282,上海海浦万达茂,上海市青浦区淀山湖大道851号万达茂A区A1015a,"121.082811,31.133373",121.082811,31.133373,上海市,上海市,青浦区,盈浦街道,POINT (121.082811 31.133373)
283,淄博银泰城店,山东省淄博市张店区鲁泰大道9号，名尚银泰城内F1002商铺,"118.035523,36.848609",118.035523,36.848609,淄博市,山东省,张店区,四宝山街道,POINT (118.035523 36.848609)
284,三门峡万达,三门峡市湖滨区大岭路与和平路交叉口万达广场1楼1026B,"111.188594,34.784298",111.188594,34.784298,三门峡市,河南省,湖滨区,前进街道,POINT (111.188594 34.784298)
285,常州爱琴海,江苏省常州市东方东路165号爱琴海购物公园奥特莱斯F1015商铺,"120.053615,31.755938",120.053615,31.755938,常州市,江苏省,武进区,潞城街道,POINT (120.053615 31.755938)
286,北京良乡龙湖,北京市房山区政通南路2号院1号楼，龙湖天街A馆B1-07汉堡王,"116.218080,39.761160",116.21808,39.76116,北京市,北京市,房山区,长阳镇,POINT (116.21808 39.76116)
287,济南长清服务区,山东省济南市济荷高速长清服务区西区1楼106号,"116.699485,36.429484",116.699485,36.429484,济南市,山东省,长清区,归德镇,POINT (116.699485 36.429484)
288,昆明吾悦广场（沙河路）,云南省昆明市五华区王筇路与沙河路交叉口新城吾悦广场S1幢一楼1026号商铺,"102.658475,25.090240",102.658475,25.09024,昆明市,云南省,五华区,普吉街道,POINT (102.658475 25.09024)
289,南通虹桥路文峰餐厅,崇川区虹桥路1号文峰城市广场A座1楼A1005 - A1006号商铺。,"120.884404,31.997423",120.884404,31.997423,南通市,江苏省,崇川区,文峰街道,POINT (120.884404 31.997423)
290,晋江世茂御龙湾,福建省泉州市晋江市梅岭街道双龙西路82号御隆中心M2栋1楼113号店铺,"118.563888,24.828789",118.563888,24.828789,泉州市,福建省,晋江市,梅岭街道,POINT (118.563888 24.828789)
291,重庆洪湖东路,重庆市渝北区洪湖东路1号重庆财富购物中心L1层6号商铺,"106.509133,29.608163",106.509133,29.608163,重庆市,重庆市,渝北区,天宫殿街道,POINT (106.509133 29.608163)
292,天津大悦城,天津市南开区南门外大街6号大悦城南区1F-A6，大悦城购物中心内,"117.180600,39.139103",117.1806,39.139103,天津市,天津市,南开区,鼓楼街道,POINT (117.1806 39.139103)
293,金桥国际,上海市浦东新区张杨路3611弄3号116、117室,"121.580150,31.256187",121.58015,31.256187,上海市,上海市,浦东新区,金杨新村街道,POINT (121.58015 31.256187)
294,南京金奥广场,南京市建邺区江东中路【329】号金奥国际中心商场一层【L126-2，L127】号,"118.725485,31.998404",118.725485,31.998404,南京市,江苏省,建邺区,建邺区河西中央商务区,POINT (118.725485 31.998404)
295,上海青浦米格合生新天地,上海市青浦区赵巷镇嘉松中路 5999 弄 1-346 号的A-L1-1111-A,"121.229278,31.149914",121.229278,31.149914,上海市,上海市,青浦区,赵巷镇,POINT (121.229278 31.149914)
296,唐山振华店,河北省唐山市路北区新华西道北侧，大里路东侧47号5楼A01号,"118.150289,39.664189",118.150289,39.664189,唐山市,河北省,路北区,翔云道街道,POINT (118.150289 39.664189)
297,上海盈嘉生活广场店,上海市曹安公路1688上海盈嘉生活广场1F-14号,"121.364372,31.254123",121.364372,31.254123,上海市,上海市,嘉定区,真新街道,POINT (121.364372 31.254123)
298,徐州苏宁广场店,鼓楼区淮海东路29号徐州苏宁广场地下一层第B101、B102号。,"117.188473,34.265601",117.188473,34.265601,徐州市,江苏省,鼓楼区,黄楼街道,POINT (117.188473 34.265601)
299,上海浦东南路店,上海市浦东新区浦东南路1085号华申大厦1层5室,"121.516755,31.229418",121.516755,31.229418,上海市,上海市,浦东新区,陆家嘴街道,POINT (121.516755 31.229418)
300,厦门火车站世贸,厦门市厦禾路878-888号厦门世界贸易中心二期2F-1,"118.113474,24.467739",118.113474,24.467739,厦门市,福建省,思明区,梧村街道,POINT (118.113474 24.467739)
301,上海台南西路,上海市浦东新区台南路47号,"121.544379,31.221517",121.544379,31.221517,上海市,上海市,浦东新区,花木街道,POINT (121.544379 31.221517)
302,长春吉林大学店,长春市朝阳区吉林大学前卫南区日新楼1层,"125.276810,43.821260",125.27681,43.82126,长春市,吉林省,朝阳区,双德乡,POINT (125.27681 43.82126)
303,宁波水街店,宁波水街店鄞州区首南街道水街40、41号内4103室。,"121.547028,29.808090",121.547028,29.80809,宁波市,浙江省,鄞州区,首南街道,POINT (121.547028 29.80809)
304,深圳大梅沙奥莱店,深圳市盐田区大梅沙怀渡街2-121、2-124、2-125大梅沙奥特莱斯购物中心一期6栋L1号,"114.308071,22.596820",114.308071,22.59682,深圳市,广东省,盐田区,梅沙街道,POINT (114.308071 22.59682)
305,上海古方路店,上海市闵行区沪闵路7398号109、110室,"121.401348,31.133280",121.401348,31.13328,上海市,上海市,闵行区,梅陇镇,POINT (121.401348 31.13328)
306,北京世界城店,北京市朝阳区金汇路8-9号世界城商业街E座1楼101号120商铺,"116.452359,39.917584",116.452359,39.917584,北京市,北京市,朝阳区,呼家楼街道,POINT (116.452359 39.917584)
307,宝山正大乐城,上海市宝山区陆翔路111弄正大乐城购物中心1层1F-026号商铺。,"121.371309,31.344416",121.371309,31.344416,上海市,上海市,宝山区,顾村镇,POINT (121.371309 31.344416)
308,西安兵马俑店,陕西省西安市临潼区秦陵北路返还区F6号楼102,"109.228184,34.379180",109.228184,34.37918,西安市,陕西省,临潼区,骊山街道,POINT (109.228184 34.37918)
309,太原蓝山万科,太原市和平南路205-1号万科蓝山N-1#1021号,"112.505948,37.825202",112.505948,37.825202,太原市,山西省,万柏林区,小井峪街道,POINT (112.505948 37.825202)
310,呼市巨海邻里荟,呼和浩特市赛罕区鄂尔多斯东街17-4号巨海城八区一楼F1016,"111.742890,40.808600",111.74289,40.8086,呼和浩特市,内蒙古自治区,赛罕区,中专路街道,POINT (111.74289 40.8086)
311,上海乐嗨新天地,上海市闵行区江文路85号、89号,"121.537069,31.060971",121.537069,31.060971,上海市,上海市,闵行区,浦江镇,POINT (121.537069 31.060971)
312,上海青浦吾悦广场,上海市青浦区286弄6号吾悦广场1F-015、淀山湖大道218号2F-015&216,"121.095006,31.144431",121.095006,31.144431,上海市,上海市,青浦区,盈浦街道,POINT (121.095006 31.144431)
313,北京万紫汇,北京市朝阳区酒仙桥路 星城国际大厦1F,"116.490857,39.979579",116.490857,39.979579,北京市,北京市,朝阳区,酒仙桥街道,POINT (116.490857 39.979579)
314,中融信托大厦餐厅,北京市西城区菜市口大街1号院中融信托大厦一层汉堡王,"116.373402,39.887117",116.373402,39.887117,北京市,北京市,西城区,牛街街道,POINT (116.373402 39.887117)
315,石榴中心餐厅,北京市丰台区榴乡路88号院19号楼1层101、102,"116.422994,39.841365",116.422994,39.841365,北京市,北京市,丰台区,大红门街道,POINT (116.422994 39.841365)
316,南翔五彩城,嘉定区南翔镇宝翔路801号一层119号商铺,"121.317433,31.311508",121.317433,31.311508,上海市,上海市,嘉定区,南翔镇,POINT (121.317433 31.311508)
317,余姚舜大财富广场店,城区南河沿路33号余姚舜大财富广场B楼B1F - 001、B1F - 002号商铺。,"115.365029,22.778699",115.365029,22.778699,汕尾市,广东省,城区,香洲街道,POINT (115.365029 22.778699)
318,哈尔滨百盛餐厅,哈尔滨东直路118号百盛购物广场负一层,"126.676432,45.783929",126.676432,45.783929,哈尔滨市,黑龙江省,道外区,黎华街道,POINT (126.676432 45.783929)
319,上海陆家嘴世纪大都会,上海浦东新区新福山路312号地下1层09单元,"121.527943,31.229340",121.527943,31.22934,上海市,上海市,浦东新区,潍坊新村街道,POINT (121.527943 31.22934)
320,伊宁新茂业餐厅,新疆伊宁市开发区山东路219号新茂业国际购物中心一楼01号,"81.277769,43.924453",81.277769,43.924453,伊犁哈萨克自治州,新疆维吾尔自治区,伊宁市,伊宁市边境经济合作区,POINT (81.27776900000001 43.924453)
321,上海天山路,上海市长宁区天山路341号缤谷广场第3幢113、114单元,"121.386037,31.214691",121.386037,31.214691,上海市,上海市,长宁区,仙霞新村街道,POINT (121.386037 31.214691)
322,哈尔滨永泰餐厅,哈尔滨市香福路52号永泰城购物中心一层,"126.760089,45.717603",126.760089,45.717603,哈尔滨市,黑龙江省,香坊区,香坊实验农场,POINT (126.760089 45.717603)
323,北京西红门宜家,北京市大兴区宏业路荟聚购物中心3F-6-30-70-R,"116.327697,39.788624",116.327697,39.788624,北京市,北京市,大兴区,西红门镇,POINT (116.327697 39.788624)
324,惠州佳兆业,惠州市惠城区江北18号小区6#地块佳兆业中心二期,"114.418822,23.115566",114.418822,23.115566,惠州市,广东省,惠城区,江北街道,POINT (114.418822 23.115566)
325,西安万科创意谷餐厅,西安市曲江新区创意谷文化产业园A区S7号楼LG层18号,"108.984452,34.192485",108.984452,34.192485,西安市,陕西省,雁塔区,大雁塔街道,POINT (108.984452 34.192485)
326,宏帆广场,渭南市朝阳大街与前进路十字西北角宏帆广场一期1#楼A馆一层AZ-L1-1,"109.488951,34.496482",109.488951,34.496482,渭南市,陕西省,临渭区,杜桥街道,POINT (109.488951 34.496482)
327,成都大悦城,成都市武侯区大悦路518号大悦城LG-001号商铺,"104.011279,30.626007",104.011279,30.626007,成都市,四川省,武侯区,簇锦街道,POINT (104.011279 30.626007)
328,湖州爱山广场店,吴兴区爱山广场A2 - D区11号楼。,"120.100464,30.867390",120.100464,30.86739,湖州市,浙江省,吴兴区,爱山街道,POINT (120.100464 30.86739)
329,淮阳天鸿世贸广场,河南省周口市淮阳县羲皇大道和清风路交叉口天鸿世贸广场一层,"114.855287,33.742525",114.855287,33.742525,周口市,河南省,淮阳区,城关回族镇,POINT (114.855287 33.742525)
330,上海嘉定花都荟,上海市嘉定区城中路2 号1 层编号F1F006,"121.253610,31.373730",121.25361,31.37373,上海市,上海市,嘉定区,嘉定工业区,POINT (121.25361 31.37373)
331,郑州曼哈顿商业中心,郑州市金水区曼哈顿广场305号,"113.706851,34.762187",113.706851,34.762187,郑州市,河南省,金水区,未来路街道,POINT (113.706851 34.762187)
332,百大新天地,昆明市东风西路2号百大新天地负一楼01B07-01B13,"102.709208,25.036191",102.709208,25.036191,昆明市,云南省,五华区,护国街道,POINT (102.709208 25.036191)
333,广州合生生活天地店,广州市海珠区昌岗中路188号L1-102/L2-201号商铺,"113.275185,23.088314",113.275185,23.088314,广州市,广东省,海珠区,昌岗街道,POINT (113.275185 23.088314)
334,河源越王大道店,河源市越王大道139号河源市商业中心越王环形街H-L111、H-L112号商铺,"114.718457,23.770827",114.718457,23.770827,河源市,广东省,源城区,东埔街道,POINT (114.718457 23.770827)
335,杭州下沙银泰店,浙江省杭州市经济技术开发区下沙街道海达南路397 号下沙银泰城店，建筑物1 层1C-01 铺位,"120.326516,30.298625",120.326516,30.298625,杭州市,浙江省,江干区,下沙街道,POINT (120.326516 30.298625)
336,酒泉万达店,酒泉市肃州区富康西路1号万达广场一层1035号,"98.486741,39.733358",98.486741,39.733358,酒泉市,甘肃省,肃州区,西峰镇,POINT (98.48674099999999 39.733358)
337,广州白云机场(安检内),广州市花都区广州白云国际机场二号航站区3楼东六指廊E63R01商铺,"113.301186,23.386253",113.301186,23.386253,广州市,广东省,花都区,花东镇,POINT (113.301186 23.386253)
338,西安雁塔,陕西省西安市雁塔区大雁塔北广场1幢10101三层,"108.962816,34.222298",108.962816,34.222298,西安市,陕西省,雁塔区,大雁塔街道,POINT (108.962816 34.222298)
339,湖南长沙万家丽广场,长沙市芙蓉区万家丽路99号万家丽集团国际购物广场地下二层C04、C06号商铺。,"113.031738,28.190300",113.031738,28.1903,长沙市,湖南省,芙蓉区,东屯渡街道,POINT (113.031738 28.1903)
340,北京翠微印象城,北京市海淀区翠微路12号凯德Mall翠微路1层14A,"116.303286,39.912158",116.303286,39.912158,北京市,北京市,海淀区,羊坊店街道,POINT (116.303286 39.912158)
341,杭州余杭和合广场,余杭区东湖南路和合财富中心大厦一号楼1楼012、013号商铺。,"120.308550,30.416670",120.30855,30.41667,杭州市,浙江省,余杭区,南苑街道,POINT (120.30855 30.41667)
342,三河燕郊永旺店,河北省三河市燕郊高新区102国道27号永旺梦乐城河北燕郊,"116.863700,39.949455",116.8637,39.949455,廊坊市,河北省,三河市,燕郊经济技术开发区,POINT (116.8637 39.949455)
343,昆明西山润城店,云南省昆明市西山区润城第二大道商1栋101.102.108号商铺,"102.696143,24.997936",102.696143,24.997936,昆明市,云南省,西山区,前卫街道,POINT (102.696143 24.997936)
344,无锡盛唐乐享城店,无锡北塘区凤宾路新鸿坤商业广场L137-1号商铺。,"120.294620,31.606398",120.29462,31.606398,无锡市,江苏省,梁溪区,黄巷街道,POINT (120.29462 31.606398)
345,合肥高铁南站,安徽省合肥市包河区铁路合肥南站HFN - 3F - 16号商铺,"117.290288,31.798983",117.290288,31.798983,合肥市,安徽省,包河区,常青街道,POINT (117.290288 31.798983)
346,南京钟鼎名悦广场,南京市玄武区孝陵卫街道中山门大街297号钟鼎名悦广场1楼F1-201号商铺,"118.860971,32.035941",118.860971,32.035941,南京市,江苏省,玄武区,孝陵卫街道,POINT (118.860971 32.035941)
347,芜湖华强店,镜湖区长江中路77 - 1华强广场一层F1 - 56/57/58号商铺。,"118.363612,31.340215",118.363612,31.340215,芜湖市,安徽省,镜湖区,滨江公共服务中心,POINT (118.363612 31.340215)
348,青岛阳光大厦,青岛市市南区香港中路61号阳光大厦,"120.398490,36.066496",120.39849,36.066496,青岛市,山东省,市南区,香港中路街道,POINT (120.39849 36.066496)
349,重庆月光之城,重庆市两江新区龙展路60号附1号,"106.564401,29.666648",106.564401,29.666648,重庆市,重庆市,渝北区,鸳鸯街道,POINT (106.564401 29.666648)
350,厦门君尚,厦门君尚广场购物中心一楼10013号,"118.192237,24.476783",118.192237,24.476783,厦门市,福建省,思明区,莲前街道,POINT (118.192237 24.476783)
351,广州荔园新天地,广州市番禺区沙湾镇西环路1508号首层23号,"113.346203,22.919938",113.346203,22.919938,广州市,广东省,番禺区,沙湾镇,POINT (113.346203 22.919938)
352,珠海机场出发层A区店,珠海市三灶镇海澄机场候机大楼主楼（西指廊）二楼隔离区SI009号铺,"113.376646,22.008905",113.376646,22.008905,珠海市,广东省,金湾区,三灶镇,POINT (113.376646 22.008905)
353,昆明砂之船店,昆明市太平新城奥特莱斯大道181号砂之船奥特莱斯购物广场LG层AL-47号商铺,"102.576355,24.919423",102.576355,24.919423,昆明市,云南省,安宁市,太平新城街道,POINT (102.576355 24.919423)
354,沈阳北行,辽宁省沈阳市皇姑区长江街110号(2门),"123.411926,41.828819",123.411926,41.828819,沈阳市,辽宁省,皇姑区,黄河街道,POINT (123.411926 41.828819)
355,常熟金港路（江南印象）,常熟市金港路6号滨江新城江南印象6#楼一单元123-1A、124A、125A、126A、127A、128A,"120.933870,31.743700",120.93387,31.7437,苏州市,江苏省,常熟市,常熟经济技术开发区,POINT (120.93387 31.7437)
356,南京弘阳广场,南京市浦口区大桥北路48号弘阳广场B1馆F1层02-A,"118.725954,32.137826",118.725954,32.137826,南京市,江苏省,浦口区,泰山街道,POINT (118.725954 32.137826)
357,杭州蓝钻天城,拱墅区莫干山路969号蓝钻天成购物中心1楼124、125号及2楼228、229号商铺。,"120.119965,30.308120",120.119965,30.30812,杭州市,浙江省,拱墅区,祥符街道,POINT (120.119965 30.30812)
358,惠州星河COCOGarden店,广东省惠州市惠阳区星河东七路1号星河COCO Garden一楼L1S-001、L1S-002号商铺,"114.484647,22.772446",114.484647,22.772446,惠州市,广东省,惠阳区,大亚湾西区街道,POINT (114.484647 22.772446)
359,昆明西山大悦城餐厅(环城南路),昆明市西山区环城南路 618 号昆明大悦城购物中心 B1-006 号商铺,"102.706420,25.023530",102.70642,25.02353,昆明市,云南省,西山区,金碧街道,POINT (102.70642 25.02353)
360,成都环球中心,成都市高新区天府大道北段1700号新世纪环球购物中心负1层B1B02号,"104.063401,30.568744",104.063401,30.568744,成都市,四川省,武侯区,桂溪街道,POINT (104.063401 30.568744)
361,佛山奥园,佛山市南海区狮山镇博爱中路佛山奥园广场一层自编L1012、L1013、L1014号商铺,"113.006334,23.119870",113.006334,23.11987,佛山市,广东省,南海区,狮山镇,POINT (113.006334 23.11987)
362,合肥欢乐颂,庐阳区长丰路66号。,"117.258245,31.881805",117.258245,31.881805,合肥市,安徽省,庐阳区,亳州路街道,POINT (117.258245 31.881805)
363,济南环宇城,济南市市中区二环南路6638号中海环宇城B106-107室,"116.981814,36.612873",116.981814,36.612873,济南市,山东省,市中区,七贤街道,POINT (116.981814 36.612873)
364,成都龙泉驿都城,成都市龙泉驿区驿都中路898号驿都汇一层5号,"104.235438,30.570540",104.235438,30.57054,成都市,四川省,龙泉驿区,龙泉街道,POINT (104.235438 30.57054)
365,哈尔滨凯德餐厅,哈尔滨道里区埃德蒙顿路38号凯德广场一层,"126.593857,45.735308",126.593857,45.735308,哈尔滨市,黑龙江省,道里区,新华街道,POINT (126.593857 45.735308)
366,珠海龙珠达店,珠海市香洲区拱北昌盛路66号珠海市龙珠达国际酒店有限公司一楼102号商铺,"113.550544,22.216725",113.550544,22.216725,珠海市,广东省,香洲区,拱北街道,POINT (113.550544 22.216725)
367,长沙德思勤店,雨花区迎新路868号德思勤城市广场购物中心L1层22号商铺、L2层12号商铺。,"113.011304,28.111704",113.011304,28.111704,长沙市,湖南省,雨花区,井湾子街道,POINT (113.011304 28.111704)
368,上海九亭旭辉,上海市松江区九亭镇蒲汇路178弄九亭U天地购物中心1号楼1楼109、110、113、114 室1#1-05—06号商铺,"121.326250,31.139047",121.32625,31.139047,上海市,上海市,松江区,九亭镇,POINT (121.32625 31.139047)
369,青岛空港餐厅,青岛市城阳区长城南路首创空港国际中心35号楼104号1层,"120.393388,36.269479",120.393388,36.269479,青岛市,山东省,城阳区,流亭街道,POINT (120.393388 36.269479)
370,扬州吾悦广场,扬州市邗江区竹西路31号吾悦广场58-3栋1楼1019商铺,"119.463913,32.421098",119.463913,32.421098,扬州市,江苏省,邗江区,物流园区,POINT (119.463913 32.421098)
371,上海中原城市广场,上海市杨浦区国和路709号1101、1102室,"121.521334,31.315598",121.521334,31.315598,上海市,上海市,杨浦区,五角场镇,POINT (121.521334 31.315598)
372,青岛百盛餐厅,青岛市市南区中山路百盛大厦1层汉堡王,"120.313420,36.064032",120.31342,36.064032,青岛市,山东省,市南区,中山路街道,POINT (120.31342 36.064032)
373,金沙洲永旺,广东省广州市白云区沙凤三路1号、1号之一、1号之二永旺梦乐城广州金沙1层127号商铺,"113.194081,23.147189",113.194081,23.147189,广州市,广东省,白云区,金沙街道,POINT (113.194081 23.147189)
374,青岛胶州宝龙餐厅,胶州市福州路与扬州路交汇宝龙城市广场1号楼1007商铺,"120.027562,36.272083",120.027562,36.272083,青岛市,山东省,胶州市,三里河街道,POINT (120.027562 36.272083)
375,上海金桥餐厅,上海市浦东新区张杨路3611弄6号106、107、110室,"121.579408,31.255327",121.579408,31.255327,上海市,上海市,浦东新区,金杨新村街道,POINT (121.579408 31.255327)
376,邯郸天鸿餐厅,邯郸市联纺东路天鸿广场C座1层115号,"114.518960,36.626053",114.51896,36.626053,邯郸市,河北省,丛台区,苏曹乡,POINT (114.51896 36.626053)
377,良渚上亿,余杭区良渚街道逸盛路上亿广场1楼1006、1007、1009号商铺,"120.110795,30.378450",120.110795,30.37845,杭州市,浙江省,余杭区,良渚街道,POINT (120.110795 30.37845)
378,北京京投港餐厅,北京市房山区长政南街1号院1号楼京投港2F-15,"116.213265,39.763356",116.213265,39.763356,北京市,北京市,房山区,长阳镇,POINT (116.213265 39.763356)
379,重庆北城天街路,重庆市江北区北城天街路38号的“万汇·乐奇世界”商场【L1】层【21】号商铺,"106.531681,29.576249",106.531681,29.576249,重庆市,重庆市,江北区,观音桥街道,POINT (106.531681 29.576249)
380,汕头金湖路,汕头市金湖路95 号金紫世家商业楼101、127、128、201 号商铺,"116.697617,23.374875",116.697617,23.374875,汕头市,广东省,金平区,金砂街道,POINT (116.697617 23.374875)
381,北京斯普瑞斯奥莱,北京市朝阳区金盏乡森林公园斯普瑞斯奥特莱斯商城一期汉堡王,"116.596347,40.010802",116.596347,40.010802,北京市,北京市,朝阳区,金盏镇,POINT (116.596347 40.010802)
382,启东江海中路,江苏省启东市汇龙镇江海中路666号,"121.659006,31.811027",121.659006,31.811027,南通市,江苏省,启东市,汇龙镇,POINT (121.659006 31.811027)
383,云台路(亿丰广场),浦东新区云台路734号亿丰时代广场1楼109号商铺,"121.506875,31.163188",121.506875,31.163188,上海市,上海市,浦东新区,三林镇,POINT (121.506875 31.163188)
384,佛山印象城广场店,佛山市禅城区季华五路36号佛山.印象城广场C-01层27-28号,"113.121572,23.011050",113.121572,23.01105,佛山市,广东省,禅城区,石湾镇街道,POINT (113.121572 23.01105)
385,营口万达店,营口市站前区市府路南1营口万达广场1001/2001A,"122.235626,40.664309",122.235626,40.664309,营口市,辽宁省,站前区,建丰街道,POINT (122.235626 40.664309)
386,长沙五矿,湖南省长沙市开福区福元西路508号1030-1035、1049-1056号铺,"113.012993,28.249997",113.012993,28.249997,长沙市,湖南省,开福区,浏阳河街道,POINT (113.012993 28.249997)
387,广州中山大道中路（曼城广场）,广州市天河区中山大道中1242 号漫广场（M•Park）一层 L1-118铺,"113.425422,23.112592",113.425422,23.112592,广州市,广东省,天河区,前进街道,POINT (113.425422 23.112592)
388,大连悦荟广场,大连悦荟广场辽宁省大连市西岗区中山路291号悦荟广场汉堡王餐厅,"121.608735,38.910874",121.608735,38.910874,大连市,辽宁省,西岗区,人民广场街道,POINT (121.608735 38.910874)
389,嘉峪关名嘉汇店,甘肃省嘉峪关市建设西路1306号名嘉汇时尚中心1层,"98.265891,39.780000",98.265891,39.78,嘉峪关市,甘肃省,[],雄关区,POINT (98.265891 39.78)
390,广州凯德店,广州市白云区云城西路890号凯德广场.云尚B2层38号,"113.269397,23.181915",113.269397,23.181915,广州市,广东省,白云区,三元里街道,POINT (113.269397 23.181915)
391,天津仁恒海河,天津市南开区东马路131号1-01/1-02,"117.192376,39.138529",117.192376,39.138529,天津市,天津市,南开区,鼓楼街道,POINT (117.192376 39.138529)
392,珠海吉大书城,珠海市吉大景乐路36号珠海市吉大书城内一层101号、二层201号商铺,"113.578750,22.252136",113.57875,22.252136,珠海市,广东省,香洲区,吉大街道,POINT (113.57875 22.252136)
393,北京石景山喜隆多 新国际购物中心,北京市石景山区阜石路300号喜隆多新国际购物中心二层241号,"116.172028,39.923174",116.172028,39.923174,北京市,北京市,石景山区,古城街道,POINT (116.172028 39.923174)
394,西安盈樾国际店,西安市高新区锦业路36号旗远锦上二期4号楼1层30301,"108.874359,34.193077",108.874359,34.193077,西安市,陕西省,雁塔区,丈八沟街道,POINT (108.874359 34.193077)
395,深圳富安街(平湖熙璟城),深圳市龙岗区平湖社区富安街100号,"114.135590,22.682509",114.13559,22.682509,深圳市,广东省,龙岗区,平湖街道,POINT (114.13559 22.682509)
396,金沙洲沙田中心,佛山市南海区里水镇里广路9号沙田中心B区首层L121、123号,"113.205162,23.177906",113.205162,23.177906,佛山市,广东省,南海区,里水镇,POINT (113.205162 23.177906)
397,广州曜一城,广州市天河北路711-713 号一层商铺,"113.343039,23.141732",113.343039,23.141732,广州市,广东省,天河区,石牌街道,POINT (113.343039 23.141732)
398,上海莘庄1仲盛店,上海市闵行区莘庄都市路5001号地下一层BF18B-19商铺,"121.386481,31.107453",121.386481,31.107453,上海市,上海市,闵行区,莘庄镇,POINT (121.386481 31.107453)
399,长春赛特奥莱店,长春市净月开发区远洋戛纳小镇销品摩尔项目第一座101号房长春赛特奥特莱斯购物中心M楼C-011、C-012号,"125.447021,43.767456",125.447021,43.767456,长春市,吉林省,南关区,玉潭镇,POINT (125.447021 43.767456)
400,北京远洋未来汇,北京市，朝阳区慈云寺北里209号楼,"116.492110,39.915977",116.49211,39.915977,北京市,北京市,朝阳区,八里庄街道,POINT (116.49211 39.915977)
401,昆明七彩Me Town购物中心,云南省昆明市盘龙区白塔路399号七彩ME TOWN购物中心1-06,"102.726715,25.048341",102.726715,25.048341,昆明市,云南省,盘龙区,鼓楼街道,POINT (102.726715 25.048341)
402,武汉同学广场,武汉市洪山区民族大道219号同学广场底层,"114.396448,30.489305",114.396448,30.489305,武汉市,湖北省,洪山区,关东街道,POINT (114.396448 30.489305)
403,烟台开发区万达店,山东省烟台市经济技术开发区淮河路2号1039号商铺,"121.255869,37.545294",121.255869,37.545294,烟台市,山东省,福山区,福莱山街道,POINT (121.255869 37.545294)
404,广州正佳店,广州市天河区天河路228号自编号3F-3A013-017/3G006,"113.327962,23.132831",113.327962,23.132831,广州市,广东省,天河区,天河南街道,POINT (113.327962 23.132831)
405,无锡阳光广场,江苏省无锡市梁溪区红星路229-37、229-38、229-39商铺,"120.294887,31.562851",120.294887,31.562851,无锡市,江苏省,梁溪区,迎龙桥街道,POINT (120.294887 31.562851)
406,清扬路茂业天地B1层店,无锡市清扬路128号茂业天地B1层,"120.308549,31.549813",120.308549,31.549813,无锡市,江苏省,梁溪区,扬名街道,POINT (120.308549 31.549813)
407,南京圣汤大道,江苏省南京市江宁区圣汤大道99号3楼,"119.052625,32.028455",119.052625,32.028455,南京市,江苏省,江宁区,汤山街道,POINT (119.052625 32.028455)
408,重庆前进路,重庆市九龙坡区杨家坪前进支路力扬购物中心（杨馨酒店旁）,"106.512802,29.508581",106.512802,29.508581,重庆市,重庆市,九龙坡区,杨家坪街道,POINT (106.512802 29.508581)
409,北京新港商城,北京市朝阳区酒仙桥路甲16号新港商业A1-1号,"116.490825,39.971521",116.490825,39.971521,北京市,北京市,朝阳区,将台镇,POINT (116.490825 39.971521)
410,盐城凤凰广场,江苏省盐城市世纪大道611号凤凰文化广场1301号铺,"120.155150,33.345527",120.15515,33.345527,盐城市,江苏省,盐都区,新都街道,POINT (120.15515 33.345527)
411,宁波天一店,宁波海曙区药行街152号天一广场酷购A区第一/二层21F1048室。,"121.552290,29.868451",121.55229,29.868451,宁波市,浙江省,海曙区,江厦街道,POINT (121.55229 29.868451)
412,南昌铜锣湾广场店,江西省南昌市红谷滩新区庐山南大道369号铜锣湾广场T16购物中心负一楼02号商铺,"115.868230,28.700382",115.86823,28.700382,南昌市,江西省,东湖区,凤凰洲管理处,POINT (115.86823 28.700382)
413,苏州星海地铁Bingo126,苏州市工业园区星海街与苏州大道西交叉口轨道交通地铁一号线星海广场站地下一层商业空间物业A区商业空间 A10、A11、A12、A46号及B区B41号商铺,"120.672630,31.316329",120.67263,31.316329,苏州市,江苏省,苏州工业园区,娄葑街道,POINT (120.67263 31.316329)
414,吉林财富广场,吉林省吉林市昌邑区吉林大街173号吉林财富广场一楼商业街15号,"126.567307,43.846912",126.567307,43.846912,吉林市,吉林省,昌邑区,吉林东市商贸示范区,POINT (126.567307 43.846912)
415,密云万象汇,北京市密云区滨河路178号一层L134,"116.835341,40.355731",116.835341,40.355731,北京市,北京市,密云区,鼓楼街道,POINT (116.835341 40.355731)
416,青岛城阳宝龙餐厅,青岛市城阳区崇阳路510号宝龙广场1号楼638号商铺,"120.393935,36.295521",120.393935,36.295521,青岛市,山东省,城阳区,城阳街道,POINT (120.393935 36.295521)
417,深圳坪山店,深圳市坪山新区坑梓街道翠景路56号嘉邻中心L139号,"114.383768,22.731160",114.383768,22.73116,深圳市,广东省,坪山区,坑梓街道,POINT (114.383768 22.73116)
418,北京珠江摩尔,北京市昌平区北清路1号珠江摩尔国际6号楼1F商铺,"116.289425,40.098442",116.289425,40.098442,北京市,北京市,昌平区,史各庄街道,POINT (116.289425 40.098442)
419,武汉张之洞路（南国首义汇）,武汉市武昌区张之洞路151号A-L1-037商铺。,"114.304452,30.535057",114.304452,30.535057,武汉市,湖北省,武昌区,黄鹤楼街街道,POINT (114.304452 30.535057)
420,青岛黑龙江路万科餐厅,青岛市市北区黑龙江南路2号,"120.392608,36.110832",120.392608,36.110832,青岛市,山东省,市北区,河西街道,POINT (120.392608 36.110832)
421,杭州东方电子商务园,杭州市江干区九盛路9号A06幢109室,"120.259315,30.309389",120.259315,30.309389,杭州市,浙江省,江干区,九堡街道,POINT (120.259315 30.309389)
422,北京长阳万科,北京市房山区长阳镇中粮万科半岛广场一层,"116.211551,39.753936",116.211551,39.753936,北京市,北京市,房山区,长阳镇,POINT (116.211551 39.753936)
423,福海国际店,北京市丰台区南苑路5号大红门福海国际大厦一层,"116.398760,39.854742",116.39876,39.854742,北京市,北京市,丰台区,南苑乡,POINT (116.39876 39.854742)
424,重庆巴南万达广场,重庆市巴南区渝南大道297号万达广场1B层036号商铺,"106.544022,29.398865",106.544022,29.398865,重庆市,重庆市,巴南区,龙洲湾街道,POINT (106.544022 29.398865)
425,北京凯德大峡谷,北京市丰台区南三环西路16号1号楼凯德大峡谷5层01A,"116.366225,39.854308",116.366225,39.854308,北京市,北京市,丰台区,马家堡街道,POINT (116.366225 39.854308)
426,常熟星光天地商业中心店,江苏省常熟市闽江东路9号常客隆星光天地商业广场1楼01-07商铺,"120.775655,31.666706",120.775655,31.666706,苏州市,江苏省,常熟市,琴川街道,POINT (120.775655 31.666706)
427,深圳龙岗坪地,深圳市龙岗区坪地街道龙岗大道3018号宜城购物广场A 区一楼01A号铺位,"114.306285,22.768091",114.306285,22.768091,深圳市,广东省,龙岗区,坪地街道,POINT (114.306285 22.768091)
428,北京未来域餐厅,北京市朝阳区管庄路150号院1号楼1层0113,"116.590325,39.921908",116.590325,39.921908,北京市,北京市,朝阳区,常营镇,POINT (116.590325 39.921908)
429,上海月星,上海市普陀区中山北路3300号地下一层B1167-B1168,"121.412595,31.232962",121.412595,31.232962,上海市,上海市,普陀区,长风新村街道,POINT (121.412595 31.232962)
430,烟台振华店,山东省烟台市芝罘区南大街178号振华国际广场一层,"121.380528,37.542252",121.380528,37.542252,烟台市,山东省,芝罘区,毓璜顶街道,POINT (121.380528 37.542252)
431,常州九洲新世界店,天宁区劳动中路与兰陵路交汇处九洲新世界广场B1 - 034、L1 - 073号商铺。,"119.953086,31.765724",119.953086,31.765724,常州市,江苏省,天宁区,兰陵街道,POINT (119.953086 31.765724)
432,大连新星国际餐厅,辽宁省大连市中山区一德街20号2号楼1-6号,"121.642100,38.919450",121.6421,38.91945,大连市,辽宁省,中山区,青泥洼桥街道,POINT (121.6421 38.91945)
433,上海金虹桥,上海市长宁区茅台路179号金虹桥国际购物中心LG2010、LG2010A。,"121.401898,31.208722",121.401898,31.208722,上海市,上海市,长宁区,天山路街道,POINT (121.401898 31.208722)
434,青岛金茂湾餐厅,青岛市市南区四川路23号金茂湾购物中心一楼L114商铺,"120.300973,36.066117",120.300973,36.066117,青岛市,山东省,市南区,云南路街道,POINT (120.300973 36.066117)
435,长春欢乐城,吉林省长春市高新区卫星路与前进大街交汇处欢乐城一号门一楼,"125.288935,43.831518",125.288935,43.831518,长春市,吉林省,朝阳区,双德乡,POINT (125.288935 43.831518)
436,大连哈佛世纪广场餐厅,辽宁省大连市高新园区王家村广贤路6-6号哈佛世纪公建一层,"121.518491,38.876242",121.518491,38.876242,大连市,辽宁省,甘井子区,凌水街道,POINT (121.518491 38.876242)
437,张家口容辰广场餐厅,河北省张家口桥东区胜利北路56号负一层,"114.894125,40.798350",114.894125,40.79835,张家口市,河北省,桥东区,红旗楼街道,POINT (114.894125 40.79835)
438,大连辽河西路万达,大连市金州开发区辽河西路117号万达广场一层汉堡王餐厅,"121.783101,39.059898",121.783101,39.059898,大连市,辽宁省,金州区,马桥子街道,POINT (121.783101 39.059898)
439,合肥之心城,蜀山区长江西路189号B1 - 01号。,"117.257492,31.854236",117.257492,31.854236,合肥市,安徽省,蜀山区,三里庵街道,POINT (117.257492 31.854236)
440,上海张江地铁,上海市浦东新区轨道交通二号线张江高科站厅层102室,"121.584625,31.201500",121.584625,31.2015,上海市,上海市,浦东新区,张江高科技园区,POINT (121.584625 31.2015)
441,杭州丁兰广场,江干区丁桥镇蕙兰雅路388 号弘通丁兰商业中心A区(1幢)1楼118室和2楼218室商铺。,"120.231168,30.353324",120.231168,30.353324,杭州市,浙江省,江干区,丁兰街道,POINT (120.231168 30.353324)
442,南京丰盛雨花店,南京市雨花台区软件大道109号的（雨花客厅E-PARK)购物中心（9）号楼（1F/-1F）层（22/33）,"118.764938,31.978106",118.764938,31.978106,南京市,江苏省,雨花台区,中国南京软件谷,POINT (118.764938 31.978106)
443,成都金牛区欢乐谷餐厅,"成都市金牛区西华大道16号“成都华侨城公园广场”内一层B3103，A005，A006,A007","104.035964,30.719631",104.035964,30.719631,成都市,四川省,金牛区,西华街道,POINT (104.035964 30.719631)
444,北京朝阳北路常营百盛,北京市朝阳区朝阳北路龙湖百盛一层汉堡王,"116.517931,39.924747",116.517931,39.924747,北京市,北京市,朝阳区,平房镇,POINT (116.517931 39.924747)
445,包头苏宁店,包头市昆都仑区钢铁大街27号苏宁广场五楼502汉堡王,"109.842720,40.657322",109.84272,40.657322,包头市,内蒙古自治区,昆都仑区,阿尔丁大街街道,POINT (109.84272 40.657322)
446,北京丰台草桥,北京市丰台区草桥东路1号上品折扣1F,"116.358376,39.850994",116.358376,39.850994,北京市,北京市,丰台区,花乡乡,POINT (116.358376 39.850994)
447,苏州丽丰广场,苏州市吴中区宝带东路399号丽丰购物中心铺位号102、201-2,"120.632241,31.266790",120.632241,31.26679,苏州市,江苏省,吴中区,苏苑街道,POINT (120.632241 31.26679)
448,佛山龙江奥园餐厅,佛山市顺德区龙江镇文华路9号顺德奥园广场自编A-L101号商铺,"113.077021,22.869720",113.077021,22.86972,佛山市,广东省,顺德区,龙江镇,POINT (113.077021 22.86972)
449,沧州国贸尚街店,河北省沧州市运河区绿洲大厦一楼东101商铺,"116.855766,38.312766",116.855766,38.312766,沧州市,河北省,运河区,水月寺街道,POINT (116.855766 38.312766)
450,佳木斯万达店,黑龙江省佳木斯市向阳区光复西路万达广场2号门汉堡王,"130.362500,46.810875",130.3625,46.810875,佳木斯市,黑龙江省,向阳区,保卫街道,POINT (130.3625 46.810875)
451,南昌恒茂梦时代汉堡王,江西省南昌市青山湖区北京东路418号恒茂梦时代国际广场5#楼商业101室,"115.938327,28.673644",115.938327,28.673644,南昌市,江西省,青山湖区,湖坊镇,POINT (115.938327 28.673644)
452,马鞍山金鹰天地广场,马鞍山市花山区湖南西路8 号马鞍山金鹰天地广场一楼1-1、1-2、1-3 和二楼1-1、1-2 号商铺。,"118.508189,31.684743",118.508189,31.684743,马鞍山市,安徽省,花山区,湖东路街道,POINT (118.508189 31.684743)
453,德州澳德乐店,山东省德州市经济技术开发区东风东路1899号澳德乐时代购物广场一楼,"116.366180,37.429270",116.36618,37.42927,德州市,山东省,德城区,宋官屯街道,POINT (116.36618 37.42927)
454,青岛城中城,青岛市城阳区黑龙江北路西兴阳路702号金地世纪城南二期2号楼2-102,"120.386430,36.288407",120.38643,36.288407,青岛市,山东省,城阳区,流亭街道,POINT (120.38643 36.288407)
455,烟台新世界店,山东省烟台市莱山区清泉路23号新世界百货一层,"121.451987,37.478289",121.451987,37.478289,烟台市,山东省,莱山区,黄海路街道,POINT (121.451987 37.478289)
456,湖州长兴东鱼坊,湖州雉城街道淘沙街76 号雉城街道廿字街63 号。,"119.902443,31.002953",119.902443,31.002953,湖州市,浙江省,长兴县,雉城街道,POINT (119.902443 31.002953)
457,南通五洲城市广场店,江苏省南通市五洲城市广场3幢1001室（部分）和1002室,"120.862761,32.032941",120.862761,32.032941,南通市,江苏省,崇川区,钟秀街道,POINT (120.862761 32.032941)
458,济南世茂国际,济南市历下区黑虎泉北路187号世茂国际广场一层E143,"117.030001,36.665108",117.030001,36.665108,济南市,山东省,历下区,大明湖街道,POINT (117.030001 36.665108)
459,上海颛桥万科,上海市颛兴东路1739、1743、1747号颛桥集商场1层101、102、103-1号。,"121.400741,31.066046",121.400741,31.066046,上海市,上海市,闵行区,颛桥镇,POINT (121.400741 31.066046)
460,无锡万达店,无锡滨湖区梁溪路35号万达广场步行街外铺W01 - 01号商铺。,"120.266323,31.561636",120.266323,31.561636,无锡市,江苏省,滨湖区,河埒街道,POINT (120.266323 31.561636)
461,苏州龙湖广场店,苏州市塔园路181号龙湖狮山天街生活广场四期SZSSTJ-A-B1-39号。,"120.556166,31.294453",120.556166,31.294453,苏州市,江苏省,虎丘区,狮山街道,POINT (120.556166 31.294453)
462,上海大拇指店,上海市浦东新区芳甸路199弄50号,"121.559411,31.226240",121.559411,31.22624,上海市,上海市,浦东新区,花木街道,POINT (121.559411 31.22624)
463,大连大都会,辽宁省大连市中山区武汉街71号大都会购物中心一楼,"121.638685,38.916471",121.638685,38.916471,大连市,辽宁省,中山区,昆明街道,POINT (121.638685 38.916471)
464,南昌鑫凯天虹餐厅,南昌市红谷滩绿茵路129号中心天虹商场1楼南门入口,"115.864671,28.690144",115.864671,28.690144,南昌市,江西省,东湖区,沙井街道,POINT (115.864671 28.690144)
465,镇江漫书城餐厅,镇江市中山东路254号镇江漫书城文化商业广场1楼118号及2楼218号商铺。,"119.451139,32.205081",119.451139,32.205081,镇江市,江苏省,京口区,大市口街道,POINT (119.451139 32.205081)
466,新福港中心,广东省佛山市禅城区魁奇一路9号 新DNA 一层V02、二层250号商铺,"113.112128,22.993230",113.112128,22.99323,佛山市,广东省,禅城区,石湾镇街道,POINT (113.112128 22.99323)
467,马尾名城餐厅,福州市江滨大道68号东方名城东侧名城中心一层汉堡王餐厅,"119.398814,26.016955",119.398814,26.016955,福州市,福建省,马尾区,马尾镇,POINT (119.398814 26.016955)
468,武汉首创奥特莱斯,东湖新经济开发区高新二路139号首创奥特莱斯广场一层F1-C30号商铺,"115.953680,28.689757",115.95368,28.689757,南昌市,江西省,青山湖区,湖西新建区,POINT (115.95368 28.689757)
469,抚顺印象新城店,抚顺市顺城区城东六方块印象新城L1-008,"123.967962,41.886201",123.967962,41.886201,抚顺市,辽宁省,顺城区,长春街道,POINT (123.967962 41.886201)
470,湛江丽悦店,湛江市赤坎区观海北路18号丽悦新天购物中心L1-037号商铺,"110.392865,21.266205",110.392865,21.266205,湛江市,广东省,赤坎区,沙湾街道,POINT (110.392865 21.266205)
471,常州芳茂山服务区,沪宁高速公路常州芳茂山服务区【南区1-16号】,"120.080836,31.785838",120.080836,31.785838,常州市,江苏省,天宁区,郑陆镇,POINT (120.080836 31.785838)
472,西安T11店,西安市高新区唐延路11号禾盛京广中心2号楼1楼【70159】号商铺,"108.890999,34.229685",108.890999,34.229685,西安市,陕西省,雁塔区,丈八沟街道,POINT (108.890999 34.229685)
473,无锡梅村北,无锡市新吴区宁沪高速梅村服务区北广场,"120.431822,31.522010",120.431822,31.52201,无锡市,江苏省,新吴区,无锡高新技术产业开发区,POINT (120.431822 31.52201)
474,深圳龙岗宝能店,深圳市龙岗区龙城街道中心城建设路28号宝钜商业大厦L1－61、L1－62,"114.248219,22.724655",114.248219,22.724655,深圳市,广东省,龙岗区,龙城街道,POINT (114.248219 22.724655)
475,重庆龙湖U城天街店,重庆市沙坪坝区大学城北路97号的龙湖·U城天街二期南8馆-LG-03，南8馆-LG-02，南8馆-LG-04b号房屋,"106.293233,29.605595",106.293233,29.605595,重庆市,重庆市,沙坪坝区,虎溪街道,POINT (106.293233 29.605595)
476,苏州国家科技园(金鸡湖大道),苏州市金鸡湖大道1355号商业配套综合楼苏州国际科技园四期【B0101-02】号,"120.667120,31.296115",120.66712,31.296115,苏州市,江苏省,苏州工业园区,娄葑街道,POINT (120.66712 31.296115)
477,海宁金泰城,海宁市新苑路189 号金泰城一层A110、二层A209 号商铺,"120.694700,30.498675",120.6947,30.498675,嘉兴市,浙江省,海宁市,海洲街道,POINT (120.6947 30.498675)
478,杭州世茂天玑,浙江省杭州市江干区艮山西路号茂宸金座12 幢底商1、底商2,"120.185846,30.275261",120.185846,30.275261,杭州市,浙江省,下城区,潮鸣街道,POINT (120.185846 30.275261)
479,武汉群星城,武汉市武昌区徐东大街120号群星城WL1-11A,"114.349230,30.584189",114.34923,30.584189,武汉市,湖北省,武昌区,徐家棚街街道,POINT (114.34923 30.584189)
480,广州东站2店,广州市天河区东站路1号东站综合楼裙楼一楼（广深线）,"113.323121,23.150971",113.323121,23.150971,广州市,广东省,天河区,林和街道,POINT (113.323121 23.150971)
481,赣州万象城,赣州市章贡区登峰大道万象城-1楼B13汉堡王餐厅,"114.926708,25.815514",114.926708,25.815514,赣州市,江西省,章贡区,水南镇,POINT (114.926708 25.815514)
482,昆山花桥兆丰,昆山花桥镇花安路99号兆丰广场一楼118、119、145、146号。,"121.151491,31.287929",121.151491,31.287929,苏州市,江苏省,昆山市,花桥镇,POINT (121.151491 31.287929)
483,黄岩新城吾悦广场,浙江省台州市黄岩区大桥路1号台州黄岩新城吾悦广场12幢1楼1031号商铺。,"121.261894,28.653674",121.261894,28.653674,台州市,浙江省,黄岩区,西城街道,POINT (121.261894 28.653674)
484,桐乡东兴生活广场,桐乡市庆丰北路与环城北路交汇处东兴生活广场一楼,"120.546819,30.653819",120.546819,30.653819,嘉兴市,浙江省,桐乡市,梧桐街道,POINT (120.546819 30.653819)
485,成都华置广场,四川省成都市提督街99号华置广场The ONE 购物中心负一层【B1019】号,"104.073594,30.660691",104.073594,30.660691,成都市,四川省,青羊区,太升路街道,POINT (104.073594 30.660691)
486,上海96广场店,上海市浦东新区东方路796号 九六广场一层148号商铺,"121.524828,31.227523",121.524828,31.227523,上海市,上海市,浦东新区,潍坊新村街道,POINT (121.524828 31.227523)
487,清远顺盈广场,清远市新城区新城人民一路28号顺盈时代广场商业中心首层1125、1127/2129、2131、2133,"113.065917,23.674631",113.065917,23.674631,清远市,广东省,清城区,洲心街道,POINT (113.065917 23.674631)
488,天津瑞竹餐厅,天津市和平区南京路239号瑞竹大厦一层110-A号,"117.182139,39.120503",117.182139,39.120503,天津市,天津市,和平区,南营门街道,POINT (117.182139 39.120503)
489,北京京西珠宝城餐厅,北京市石景山区鲁谷路68号京西珠宝城一层,"116.246926,39.903231",116.246926,39.903231,北京市,北京市,石景山区,八宝山街道,POINT (116.246926 39.903231)
490,北京上地宏达花园广场,北京市海淀区上地西路41号院1号楼B016,"116.310325,40.029570",116.310325,40.02957,北京市,北京市,海淀区,上地街道,POINT (116.310325 40.02957)
491,镇江常发广场店,润州区黄山西路29号常发广场7号楼1-01号商铺。,"118.318110,29.712640",118.31811,29.71264,黄山市,安徽省,屯溪区,昱中街道,POINT (118.31811 29.71264)
492,苏州吴中永旺,苏州市吴中区越溪苏震桃路188号1层区域196 197#,"120.612715,31.193738",120.612715,31.193738,苏州市,江苏省,吴中区,越溪街道,POINT (120.612715 31.193738)
493,嘉兴八佰伴店,嘉兴八佰伴店越秀南路968号2FL2012号铺位。,"120.731938,30.740078",120.731938,30.740078,嘉兴市,浙江省,南湖区,城南街道,POINT (120.731938 30.740078)
494,珠海奥园广场,珠海市香洲区金凤路东侧、梅界路南侧珠海奥园广场自编L1-01/02号商铺,"113.514810,22.282342",113.51481,22.282342,珠海市,广东省,香洲区,前山街道,POINT (113.51481 22.282342)
495,西安悠熙地,西安市莲湖区悠熙地购物广场购物中心一层,"108.944041,34.264995",108.944041,34.264995,西安市,陕西省,莲湖区,北院门街道,POINT (108.944041 34.264995)
496,南通星湖101店,南通星湖101店开发区星湖101广场购物中心2号楼119室。,"120.943039,31.921915",120.943039,31.921915,南通市,江苏省,崇川区,新开街道,POINT (120.943039 31.921915)
497,南宁航洋店,广西南宁市民族大道131号航洋国际城2层商场L2-031号商铺,"108.384971,22.813633",108.384971,22.813633,南宁市,广西壮族自治区,青秀区,南湖街道,POINT (108.384971 22.813633)
498,合肥置地星光汇,合肥市政务区怀宁路288号置地星光荟购物中心G层G-1001、G-1002、G-1003号商铺,"117.224662,31.804516",117.224662,31.804516,合肥市,安徽省,蜀山区,荷叶地街道,POINT (117.224662 31.804516)
499,嘉兴海宁人民广场,浙江省海宁市硖石街道人民广场18号,"120.691953,30.526619",120.691953,30.526619,嘉兴市,浙江省,海宁市,硖石街道,POINT (120.691953 30.526619)
500,佛山桂澜北路（ipark）,广东省佛山市南海区桂澜北路26号依云置地中心2座117、214-1商铺,"113.156637,23.061691",113.156637,23.061691,佛山市,广东省,南海区,桂城街道,POINT (113.156637 23.061691)
501,福州五四北,福建省福州市晋安区新店镇坂中路6号泰禾城市广场(三期)3A#一、二层08号铺位,"119.324990,26.140069",119.32499,26.140069,福州市,福建省,晋安区,新店镇,POINT (119.32499 26.140069)
502,长沙步步高店,长沙市高新区枫林三路1099号步步高梅溪新天地购物中心负一楼B03号商铺,"112.861172,28.198246",112.861172,28.198246,长沙市,湖南省,岳麓区,麓谷街道,POINT (112.861172 28.198246)
503,上海汇宝广场店,上海市闵行区漕宝路3459 号汇宝购物广场地下一 层A1-01,"121.350116,31.156797",121.350116,31.156797,上海市,上海市,闵行区,七宝镇,POINT (121.350116 31.156797)
504,常州金坛新天地,江苏省常州市金坛区弘化路新天地B-1011,"119.576554,31.738726",119.576554,31.738726,常州市,江苏省,金坛区,西城街道,POINT (119.576554 31.738726)
505,大连富丽庭餐厅,辽宁省大连市沙河口区尖山街106号富丽庭购物中心一层,"121.557912,38.876274",121.557912,38.876274,大连市,辽宁省,沙河口区,黑石礁街道,POINT (121.557912 38.876274)
506,福州宏利餐厅,福州市湖东路168号宏利大厦一层汉堡王餐厅,"119.303617,26.093524",119.303617,26.093524,福州市,福建省,鼓楼区,鼓东街道,POINT (119.303617 26.093524)
507,张家港吾悦广场,江苏苏州张家港经济技术开发区金港大道路338号张家港新城吾悦广场1楼112商铺,"120.541677,31.837170",120.541677,31.83717,苏州市,江苏省,张家港市,张家港经济技术开发区,POINT (120.541677 31.83717)
508,青岛新城吾悦店,青岛市黄岛区滨海大道2888号新城吾悦广场B2幢5016号,"120.165161,35.928175",120.165161,35.928175,青岛市,山东省,黄岛区,灵山卫街道,POINT (120.165161 35.928175)
509,成都银泰城,四川省成都市首高新区益州大道1999号大源银泰城内购物中心（18号楼）一层135号、二层231号铺,"104.059155,30.541111",104.059155,30.541111,成都市,四川省,武侯区,桂溪街道,POINT (104.059155 30.541111)
510,北京中粮祥云,北京市顺义区后沙峪镇安祥大街中粮祥云国际生活区祥云小镇汉堡王,"116.535694,40.089864",116.535694,40.089864,北京市,北京市,顺义区,空港街道,POINT (116.535694 40.089864)
511,南京禄口机场,江苏省南京市江宁区禄口国际机场T2候机楼3楼商业区域08号商铺,"118.877494,31.731378",118.877494,31.731378,南京市,江苏省,江宁区,禄口街道,POINT (118.877494 31.731378)
512,莆田正荣餐厅,莆田市荔城区荔园东路正荣财富中心1042铺,"119.029403,25.416300",119.029403,25.4163,莆田市,福建省,荔城区,[],POINT (119.029403 25.4163)
513,北京天通泰,北京经济技术开发区科创十三街29院一区2-107,"116.567104,39.782846",116.567104,39.782846,北京市,北京市,大兴区,北京经济技术开发区,POINT (116.567104 39.782846)
514,平湖新城吾悦广场,浙江省平湖市当湖街道南市路811号平湖新城吾悦广场1楼1032号商铺。,"121.025577,30.679868",121.025577,30.679868,嘉兴市,浙江省,平湖市,当湖街道,POINT (121.025577 30.679868)
515,上海莘松路（亚乐城）,上海市松江区莘松路1266号亚繁生活时尚广场(亚乐城)一楼1-03号、二楼2-38号商铺,"121.349286,31.096992",121.349286,31.096992,上海市,上海市,松江区,新桥镇,POINT (121.349286 31.096992)
516,金沙万达店,佛山市南海区大沥镇黄岐建设大道南万达广场1068-1069号商铺,"113.191012,23.141395",113.191012,23.141395,佛山市,广东省,南海区,大沥镇,POINT (113.191012 23.141395)
517,成都翡翠城,成都市锦江区琉璃路566号一楼A20号,"104.093800,30.613292",104.0938,30.613292,成都市,四川省,锦江区,东光街道,POINT (104.0938 30.613292)
518,哈尔滨机场,哈尔滨市道里区哈尔滨太平国际机场航站楼隔离区外出港大厅三层D3B3-02,"126.253170,45.627249",126.25317,45.627249,哈尔滨市,黑龙江省,道里区,太平镇,POINT (126.25317 45.627249)
519,亳州万达,亳州市谯城区万达广场金街A-167号商铺,"115.779683,33.829144",115.779683,33.829144,亳州市,安徽省,谯城区,亳州市经济技术开发区,POINT (115.779683 33.829144)
520,温州万象城,温州市瓯海区南白象街道温瑞大道999 号温州万象城B1 层B129-130 号商铺。,"120.685203,27.952332",120.685203,27.952332,温州市,浙江省,瓯海区,南白象街道,POINT (120.685203 27.952332)
521,永新广场,抚顺市顺城区临江路中段17-2号大商抚顺永新购物广场一层F1S01,"123.900675,41.872379",123.900675,41.872379,抚顺市,辽宁省,顺城区,将军堡街道,POINT (123.900675 41.872379)
522,沈阳金融中心店,沈阳市沈河区哈尔滨路168号FTC金融中心购物广场一楼汉堡王,"123.435239,41.811555",123.435239,41.811555,沈阳市,辽宁省,沈河区,新北站街道,POINT (123.435239 41.811555)
523,南宁水晶城店,广西南宁市青秀区金湖路61号水晶城一层L103号商铺,"108.367965,22.816401",108.367965,22.816401,南宁市,广西壮族自治区,青秀区,南湖街道,POINT (108.367965 22.816401)
524,东莞凤岗店,东莞市大运城邦花园二区五期凤岗雅乐轩酒店16号楼益田假日天地南区L1-28（S）和L2-21(S）号商铺,"114.207759,22.719509",114.207759,22.719509,东莞市,广东省,[],凤岗镇,POINT (114.207759 22.719509)
525,长沙金茂汇店,长沙市岳麓区梅溪湖路1177号购物中心LG03号商铺,"112.901614,28.196095",112.901614,28.196095,长沙市,湖南省,岳麓区,天顶街道,POINT (112.901614 28.196095)
526,郑州正弘城餐厅,河南省郑州市花园路与东风路交叉口正弘城商场负一层汉堡王餐厅,"113.681636,34.796982",113.681636,34.796982,郑州市,河南省,金水区,文化路街道,POINT (113.681636 34.796982)
527,国贸商城餐厅,安徽省阜阳市颍泉区人民东路1号国贸商城一楼,"115.825341,32.905625",115.825341,32.905625,阜阳市,安徽省,颍泉区,中市街道,POINT (115.825341 32.905625)
528,汕头黄山路,汕头市龙湖区黄山路16号F16购物中心地上一层L105号商铺,"116.746498,23.358920",116.746498,23.35892,汕头市,广东省,龙湖区,珠池街道,POINT (116.746498 23.35892)
529,天津梅江大岛,天津市西青区环岛西路11号MIMIPARK商业广场S1-102号,"117.219429,39.043147",117.219429,39.043147,天津市,天津市,西青区,大寺镇,POINT (117.219429 39.043147)
530,唐山弘驰店,河北省唐山市路北区广大街弘驰都汇购物中心1E-102,"118.181338,39.626834",118.181338,39.626834,唐山市,河北省,路北区,文化路街道,POINT (118.181338 39.626834)
531,长沙湖南师范大学,湖南省长沙市岳麓区湖南师范大学桃子湖文化创意产业园三栋一单元二号铺,"112.925233,28.166247",112.925233,28.166247,长沙市,湖南省,岳麓区,岳麓街道,POINT (112.925233 28.166247)
532,上海塘桥地铁,上海市浦东新区轨道交通四号线塘桥地铁站地下一层101、102室,"121.518690,31.209762",121.51869,31.209762,上海市,上海市,浦东新区,塘桥街道,POINT (121.51869 31.209762)
533,南京京新广场,南京市浦口区柳洲东路189 号A 幢1楼F1-A号。,"118.743689,32.141763",118.743689,32.141763,南京市,江苏省,浦口区,沿江街道,POINT (118.743689 32.141763)
534,沈阳医大二院,沈阳市和平区文化路20号2门,"123.425156,41.771972",123.425156,41.771972,沈阳市,辽宁省,和平区,南湖街道,POINT (123.425156 41.771972)
535,南京中海环宇城,南京市鼓楼区清凉门大街与北圩路交汇处南京环宇城L124号,"118.752787,32.044678",118.752787,32.044678,南京市,江苏省,鼓楼区,凤凰街道,POINT (118.752787 32.044678)
536,长春活力汇,吉林省长春市朝阳区磐谷路活力汇一楼汉堡王,"125.251725,43.821677",125.251725,43.821677,长春市,吉林省,朝阳区,双德乡,POINT (125.251725 43.821677)
537,沈阳兴隆一百,沈阳市和平区太原街兴隆一百一层汉堡王餐厅,"123.402047,41.794523",123.402047,41.794523,沈阳市,辽宁省,和平区,太原街街道,POINT (123.402047 41.794523)
538,济南首创奥莱餐厅,山东省济南市历城区唐冶东路与世纪大道交汇处首创奥莱一楼E03,"117.233463,36.689803",117.233463,36.689803,济南市,山东省,历城区,唐冶街道,POINT (117.233463 36.689803)
539,天津嘉里,天津市河东区六纬路238号嘉里汇负一层,"117.216735,39.127187",117.216735,39.127187,天津市,天津市,河东区,大王庄街道,POINT (117.216735 39.127187)
540,重庆华宇店,重庆市九龙坡区锦虹二路7 号1 幢华宇锦绣广场购物中心一楼L1-001号,"106.445313,29.433927",106.445313,29.433927,重庆市,重庆市,九龙坡区,中梁山街道,POINT (106.445313 29.433927)
541,西安静安奥莱,陕西省西咸新区泾河新城世界商贸文化之都静安国际万国荟公园A区（一期）一层（G-1-08）号,"108.887502,34.223020",108.887502,34.22302,西安市,陕西省,雁塔区,丈八沟街道,POINT (108.887502 34.22302)
542,武汉光谷金融中心,武汉市东湖高新区光谷金融中心一层1号,"114.398806,30.503908",114.398806,30.503908,武汉市,湖北省,洪山区,卓刀泉街道,POINT (114.398806 30.503908)
543,西安唐延,陕西省西安市莲湖区唐延路168号（高新店）-1层B0297001-2,"108.888839,34.238315",108.888839,34.238315,西安市,陕西省,雁塔区,[],POINT (108.888839 34.238315)
544,北京朝阳大悦城,北京市朝阳区朝阳北路101号朝阳大悦城8F-02,"116.519073,39.924529",116.519073,39.924529,北京市,北京市,朝阳区,平房镇,POINT (116.519073 39.924529)
545,成都泛悦国际,成都市武侯区科华中路263号泛悦国际2 楼 V219 号,"104.079355,30.613172",104.079355,30.613172,成都市,四川省,武侯区,火车南站街道,POINT (104.079355 30.613172)
546,石家庄金正海悦店,河北省石家庄市裕华西路66号海悦天地购物广场B座一楼L1-B1号,"114.474077,38.034558",114.474077,38.034558,石家庄市,河北省,桥西区,东里街道,POINT (114.474077 38.034558)
547,重庆经纬大道分公司（总部城）,重庆市渝中区经纬大道774 附号、776 附号大坪协信星光天地L3 层001/002和第L4 层第001号商铺,"106.500879,29.545791",106.500879,29.545791,重庆市,重庆市,渝中区,石油路街道,POINT (106.500879 29.545791)
548,四川泸州欢乐汇,四川省泸州市江阳区华升南路6号1号楼（佳乐世纪城欢乐汇）1层1015号房屋,"105.408391,28.892102",105.408391,28.892102,泸州市,四川省,江阳区,华阳街道,POINT (105.408391 28.892102)
549,上海中山公园龙之梦店,上海市长宁区长宁路1018号B1层014B号商铺,"121.416020,31.215679",121.41602,31.215679,上海市,上海市,长宁区,周家桥街道,POINT (121.41602 31.215679)
550,济南和谐广场餐厅,济南市槐荫区经十路22799号和谐广场南区负一层B118,"116.980791,36.648566",116.980791,36.648566,济南市,山东省,槐荫区,青年公园街道,POINT (116.980791 36.648566)
551,深圳南山泛海城市广场店,深圳市南山区前海路70号泛海城市广场购物中心1楼106、107号,"113.893414,22.495689",113.893414,22.495689,深圳市,广东省,南山区,南山街道,POINT (113.893414 22.495689)
552,沈阳赛特奥莱店,沈阳市东陵区双园路36号商业街C3-102,"123.620154,41.844007",123.620154,41.844007,沈阳市,辽宁省,浑南区,满堂街道,POINT (123.620154 41.844007)
553,合肥佳源广场,合肥市包河区庐州大道与洞庭湖路交口东南角—合肥佳源广场1#商业楼一层1012-1013号,"117.302197,31.734688",117.302197,31.734688,合肥市,安徽省,包河区,义城街道,POINT (117.302197 31.734688)
554,天津威尼都餐厅,天津市武清区前进道与翠通路交口威尼都H2-103,"117.012410,39.376450",117.01241,39.37645,天津市,天津市,武清区,武清区开发区,POINT (117.01241 39.37645)
555,广州番禹店,广州市番禺区番禺大道北383号海印又一城四层415号商铺,"113.348497,22.999379",113.348497,22.999379,广州市,广东省,番禺区,南村镇,POINT (113.348497 22.999379)
556,河源热水服务区南区店,广东省河源市东源县粤赣高速公路热水服务区（南区）汉堡王餐厅,"114.749068,23.822329",114.749068,23.822329,河源市,广东省,东源县,仙塘镇,POINT (114.749068 23.822329)
557,三亚温德姆汉堡王,三亚市新城路93号丽禾MOHO广场S10号,"109.430350,18.291325",109.43035,18.291325,三亚市,海南省,天涯区,凤凰镇,POINT (109.43035 18.291325)
558,成都青龙广场餐厅,成都市成华区龙绵街1666号招港.青龙广场一层129号、130号,"104.121568,30.708521",104.121568,30.708521,成都市,四川省,成华区,青龙街道,POINT (104.121568 30.708521)
559,上海江晖路（江镇新都汇）,上海市浦东新区江晖路409弄38-42号江镇新都汇1层1号,"121.740170,31.171760",121.74017,31.17176,上海市,上海市,浦东新区,祝桥镇,POINT (121.74017 31.17176)
560,福州永嘉餐厅,福州市闽侯县上街镇国宾大道268号永嘉天地13号楼02铺汉堡王餐厅,"119.200379,26.069066",119.200379,26.069066,福州市,福建省,闽侯县,上街镇,POINT (119.200379 26.069066)
561,广州高志店,广州市天河区黄埔大道西120号1楼103B商铺,"113.340034,23.125909",113.340034,23.125909,广州市,广东省,天河区,冼村街道,POINT (113.340034 23.125909)
562,天津复地湖滨,天津市空港经济区滨湖复地广场A2座101,"117.391293,39.154593",117.391293,39.154593,天津市,天津市,东丽区,天津空港经济区,POINT (117.391293 39.154593)
563,福田区市民中心,深圳市福田区深圳地铁一期工程市民中心站物业区A29、A30铺位,"114.064021,22.534631",114.064021,22.534631,深圳市,广东省,福田区,福田街道,POINT (114.064021 22.534631)
564,广州天河联合社区店,广州市天河区中山大道中379号6108-6109,"113.401952,23.125030",113.401952,23.12503,广州市,广东省,天河区,车陂街道,POINT (113.401952 23.12503)
565,南阳建业餐厅,河南省南阳市孔明南路与鼎盛路交叉口建业凯旋广场,"112.575775,32.994482",112.575775,32.994482,南阳市,河南省,宛城区,仲景街道,POINT (112.575775 32.994482)
566,北京新荟城,北京市朝阳区望京东园1区120号楼新荟城购物中心5F5号,"116.481863,39.998482",116.481863,39.998482,北京市,北京市,朝阳区,望京街道,POINT (116.481863 39.998482)
567,常州延陵西路店,钟楼区延陵西路150号1层及2层1 - 9、1 - 10、1 - 11号商铺。,"119.955909,31.779272",119.955909,31.779272,常州市,江苏省,钟楼区,荷花池街道,POINT (119.955909 31.779272)
568,鞍山苏宁店,辽宁省鞍山市铁西区人民路81号，苏宁生活广场1楼汉堡王,"122.973521,41.118107",122.973521,41.118107,鞍山市,辽宁省,铁西区,八家子街道,POINT (122.973521 41.118107)
569,北京和谐餐厅,北京市丰台区万丰路68号和谐广场520,"116.297070,39.881810",116.29707,39.88181,北京市,北京市,丰台区,卢沟桥乡,POINT (116.29707 39.88181)
570,上海中建广场,上海市浦东新区高科西路895号F117室。,"121.553161,31.188270",121.553161,31.18827,上海市,上海市,浦东新区,北蔡镇,POINT (121.553161 31.18827)
571,北京三里屯购物中心餐厅,北京市朝阳区三里屯路19号院9号楼一层S09-1内S9-19及二层S09-2内S9-20,"116.454886,39.934253",116.454886,39.934253,北京市,北京市,朝阳区,三里屯街道,POINT (116.454886 39.934253)
572,成都空港购物中心,成都市双流区西航港街道锦华路二段172号,"103.986341,30.571804",103.986341,30.571804,成都市,四川省,双流区,西航港街道,POINT (103.986341 30.571804)
573,天津银河店,天津市河西区乐园道9号银河购物中心B1-054-1,"117.213473,39.090150",117.213473,39.09015,天津市,天津市,河西区,越秀路街道,POINT (117.213473 39.09015)
574,玉环新城吾悦广场,浙江省台州玉环市玉城街道双港路8号台州玉环新城吾悦广场1030、2033号,"121.229150,28.114503",121.22915,28.114503,台州市,浙江省,玉环市,玉城街道,POINT (121.22915 28.114503)
575,乌鲁木齐时代金花,新疆乌鲁木齐市天山区新华南路1292号国卉苑国际商务中心一栋十二层一室,"87.609145,43.763845",87.609145,43.763845,乌鲁木齐市,新疆维吾尔自治区,天山区,胜利路街道,POINT (87.609145 43.763845)
576,牡丹江万达餐厅,牡丹江市西安区长安街58号万达广场一层,"129.607440,44.579460",129.60744,44.57946,牡丹江市,黑龙江省,西安区,火炬街道,POINT (129.60744 44.57946)
577,上海凯德星贸店,上海市恒通路268号凯德星贸中心LG1层#B1-145+B1-14a,"121.457983,31.241026",121.457983,31.241026,上海市,上海市,静安区,天目西路街道,POINT (121.457983 31.241026)
578,蚌埠天洋,安徽省蚌埠市蚌山区淮河路991号天洋国际大厦购物中心1楼104号汉堡王,"117.362848,32.945072",117.362848,32.945072,蚌埠市,安徽省,蚌山区,天桥街道,POINT (117.362848 32.945072)
579,西安大融城餐厅,西安经济技术开发区凤城七路北侧未央路东侧西安大融城2层L2-24号商铺,"108.947195,34.337424",108.947195,34.337424,西安市,陕西省,未央区,张家堡街道,POINT (108.947195 34.337424)
580,深圳华联街,深圳市福田区深南中路燕南路口地下华联街负一层46-47号,"114.093128,22.540631",114.093128,22.540631,深圳市,广东省,福田区,南园街道,POINT (114.093128 22.540631)
581,南京新一城,南京市浦口区大桥北路58号南京新一城商场,"118.727984,32.136721",118.727984,32.136721,南京市,江苏省,浦口区,泰山街道,POINT (118.727984 32.136721)
582,成都永辉国色天乡店,成都市温江区江宁南路447号永辉超市国色天乡店B0304118,"103.831432,30.720008",103.831432,30.720008,成都市,四川省,温江区,万春镇,POINT (103.831432 30.720008)
583,虹桥高铁到达层,"上海市闵行区虹桥高铁到达层B1-21,B1-22号商铺","121.390787,31.181542",121.390787,31.181542,上海市,上海市,闵行区,虹桥镇,POINT (121.390787 31.181542)
584,西安益田假日,西安市新城区长乐西路166号朝阳国际广场L1-5号,"108.975128,34.268301",108.975128,34.268301,西安市,陕西省,新城区,长乐西路街道,POINT (108.975128 34.268301)
585,北京时代名门,北京市朝阳区北辰东路8号院1号楼1层102内1-01室,"116.406511,39.991501",116.406511,39.991501,北京市,北京市,朝阳区,亚运村街道,POINT (116.406511 39.991501)
586,石家庄裕华万达,河北省石家庄市裕华区建华南大街136号石家庄万达百货1层1182号,"114.545420,38.023860",114.54542,38.02386,石家庄市,河北省,裕华区,槐底街道,POINT (114.54542 38.02386)
587,厦门龙山汇,厦门市思明区龙山南路4号象屿龙山汇1号楼101单元,"118.134770,24.484437",118.13477,24.484437,厦门市,福建省,思明区,嘉莲街道,POINT (118.13477 24.484437)
588,潮州右一城,广东省潮州市枫溪区潮枫路右一城首层,"116.622009,23.660051",116.622009,23.660051,潮州市,广东省,湘桥区,凤新街道,POINT (116.622009 23.660051)
589,普洱雅侎之星店,云南省普洱市思茅区阳光悦城雅侎之星一楼,"100.976791,22.777860",100.976791,22.77786,普洱市,云南省,思茅区,思茅镇,POINT (100.976791 22.77786)
590,虹桥天地,上海市闵行区申长路688号虹桥天地购物中心B1-01,"121.315174,31.193374",121.315174,31.193374,上海市,上海市,闵行区,新虹街道,POINT (121.315174 31.193374)
591,成都川藏路,成都市武侯区武侯大道铁佛段317号川藏路一栋一层660-131+132+133,"103.987350,30.601500",103.98735,30.6015,成都市,四川省,武侯区,簇锦街道,POINT (103.98735 30.6015)
592,珠海华发世纪城,珠海市昌盛路376号1002号商铺一层2区2105号及二层2206号铺,"113.528388,22.212027",113.528388,22.212027,珠海市,广东省,香洲区,南屏镇,POINT (113.528388 22.212027)
593,北京顺义华联,北京市顺义区新顺南大街8号院华联顺义金街购物中心一层F1-33商铺,"116.652469,40.127696",116.652469,40.127696,北京市,北京市,顺义区,胜利街道,POINT (116.652469 40.127696)
594,万象城,南通市港闸区北大街111号南通万象城3层L328-b-c号商铺.,"120.860500,32.049450",120.8605,32.04945,南通市,江苏省,港闸区,唐闸镇街道,POINT (120.8605 32.04945)
595,宝鸡新里城,陕西省宝鸡市东风5路中联国际广场裙楼一层（F1-01）号,"107.169370,34.364222",107.16937,34.364222,宝鸡市,陕西省,金台区,陈仓镇,POINT (107.16937 34.364222)
596,三坝地铁站,杭州市西湖区三墩街道三坝地铁站商业空间 B8、 B9 商铺,"120.164182,30.260665",120.164182,30.260665,杭州市,浙江省,下城区,武林街道,POINT (120.164182 30.260665)
597,深圳南山恒裕滨城店,深圳市南山区恒裕滨城花园二期1-15、1-16、1-17L1层130、131、131a号商铺。,"113.939354,22.494943",113.939354,22.494943,深圳市,广东省,南山区,蛇口街道,POINT (113.939354 22.494943)
598,烟台世茂店,山东省烟台市芝罘区解放路156号世茂广场一层125A,"121.406674,37.539434",121.406674,37.539434,烟台市,山东省,芝罘区,东山街道,POINT (121.406674 37.539434)
599,上海新华红星,上海市上海之眼风情街2号楼1楼,"121.473701,31.230416",121.473701,31.230416,上海市,上海市,黄浦区,南京东路街道,POINT (121.473701 31.230416)
600,上海宝山万达,上海市宝山区一二八纪念路936号一楼1001号商铺,"121.446664,31.323614",121.446664,31.323614,上海市,上海市,宝山区,高境镇,POINT (121.446664 31.323614)
601,深圳横岗银信,深圳市龙岗区横岗街道松柏路银信荣恒购物中心一楼1001#、1002#、1005#、1050#号,"114.207821,22.645571",114.207821,22.645571,深圳市,广东省,龙岗区,横岗街道,POINT (114.207821 22.645571)
602,青岛百丽餐厅,青岛市市南区澳门路百丽广场汉堡王,"120.394732,36.060114",120.394732,36.060114,青岛市,山东省,市南区,香港中路街道,POINT (120.394732 36.060114)
603,无锡中山路（红豆万花城）,无锡市梁溪区中山路531号红豆万花城一层112号商铺。,"120.298278,31.581356",120.298278,31.581356,无锡市,江苏省,梁溪区,崇安寺街道,POINT (120.298278 31.581356)
604,武汉光谷步行街,武汉市世界城光谷步行街F地块2号楼2107-2110号铺（意大利风情街教堂背后）,"114.407315,30.501943",114.407315,30.501943,武汉市,湖北省,洪山区,关东街道,POINT (114.407315 30.501943)
605,西安北大街汉堡王,陕西省西安市莲湖区北大街十字北大街站C出口负一层,"108.946850,34.270804",108.94685,34.270804,西安市,陕西省,莲湖区,青年路街道,POINT (108.94685 34.270804)
606,无锡火车站,无锡市锡沪西路222号地下一层宜乐园D09/D10商铺,"120.307633,31.589849",120.307633,31.589849,无锡市,江苏省,梁溪区,通江街道,POINT (120.307633 31.589849)
607,西安腾飞软件园餐厅,西安市高新区鱼化街办天谷七路88号新加坡腾飞科汇城东楼一层105,"108.843937,34.210947",108.843937,34.210947,西安市,陕西省,雁塔区,鱼化寨街道,POINT (108.843937 34.210947)
608,上海万里家乐福,上海市普陀区新村路1500号一层35商铺,"121.411081,31.268024",121.411081,31.268024,上海市,上海市,普陀区,万里街道,POINT (121.411081 31.268024)
609,北京悠唐广场,北京市朝阳区朝外市场街悠唐生活广场B1层,"116.440269,39.921471",116.440269,39.921471,北京市,北京市,朝阳区,朝外街道,POINT (116.440269 39.921471)
610,重庆北碚万达,重庆市北碚区冯时行路300号万达广场（1B808）号商铺,"106.389832,29.797855",106.389832,29.797855,重庆市,重庆市,北碚区,歇马街道,POINT (106.389832 29.797855)
611,大连星海广场,辽宁省大连市沙河口区星海广场A区1号一层,"121.585780,38.886138",121.58578,38.886138,大连市,辽宁省,沙河口区,星海湾街道,POINT (121.58578 38.886138)
612,济南高新万达,山东省济南市高新区贤文片区工业南路以北颖秀路西侧万达广场二层,"117.002668,36.665409",117.002668,36.665409,济南市,山东省,市中区,魏家庄街道,POINT (117.002668 36.665409)
613,大连远洋时光海餐厅,辽宁省大连市金州开发区红星海A区远洋时光海159号一层汉堡王,"121.798552,39.024930",121.798552,39.02493,大连市,辽宁省,金州区,大孤山街道,POINT (121.798552 39.02493)
614,坂田星河COCOPARK,深圳市龙岗区梅坂大道雅宝路星河雅宝COCO PARK L2C-001号商铺,"114.228497,22.691030",114.228497,22.69103,深圳市,广东省,龙岗区,龙城街道,POINT (114.228497 22.69103)
615,新华城市广场,天津市津南区咸水沽镇建国大街北侧天津新华城市广场54号楼1层129-1号商铺,"117.390930,38.991418",117.39093,38.991418,天津市,天津市,津南区,咸水沽镇,POINT (117.39093 38.991418)
616,天津金融中心,天津市南开区长江道与南开三马路交口金融街融汇广场E座4-1-101,"117.175491,39.122458",117.175491,39.122458,天津市,天津市,南开区,万兴街道,POINT (117.175491 39.122458)
617,绵阳崇尚国际,四川省绵阳市长虹大道110号1楼,"104.747382,31.464148",104.747382,31.464148,绵阳市,四川省,涪城区,城北街道,POINT (104.747382 31.464148)
618,芜湖星隆国际店,镜湖区银湖中路与赭山西路交汇处星隆国际城一期6#楼1 - 001、1 - 002、B1 - 004B号。,"118.374892,31.347429",118.374892,31.347429,芜湖市,安徽省,镜湖区,赭山公共服务中心,POINT (118.374892 31.347429)
619,无锡宜兴万达广场,宜兴市宜城街道万达广场1号,"119.850948,31.364228",119.850948,31.364228,无锡市,江苏省,宜兴市,宜城街道,POINT (119.850948 31.364228)
620,杭州下沙物美,杭州下沙区听涛路165 号F1 - 015 号、源隆商业大厦2 - 115 室F1 - 018 号商铺。,"120.382868,30.298423",120.382868,30.298423,杭州市,浙江省,江干区,白杨街道,POINT (120.382868 30.298423)
621,郑州公园茂汉堡王餐厅,郑州市高新区雪松路与迎春街交口公园茂商场中心一层,"113.557387,34.819433",113.557387,34.819433,郑州市,河南省,中原区,枫杨街道,POINT (113.557387 34.819433)
622,重庆永川万达店,重庆市永川区星光大道789 号万达广场1B021号商铺,"105.928734,29.335999",105.928734,29.335999,重庆市,重庆市,永川区,中山路街道,POINT (105.928734 29.335999)
623,唐山爱琴海店,河北省唐山市路北区北新西道与卫国路交叉口爱琴海购物中心一层,"118.164967,39.632554",118.164967,39.632554,唐山市,河北省,路北区,大里街道,POINT (118.164967 39.632554)
624,昆明世纪金源,金源大道1号中国东盟•·云南商品交易中心购物中心2区一层,"102.763386,24.977393",102.763386,24.977393,昆明市,云南省,官渡区,官渡街道,POINT (102.763386 24.977393)
625,厦大世茂餐厅,厦门市思明区大学路世茂国际广场购物中心4楼418号,"118.090550,24.436469",118.09055,24.436469,厦门市,福建省,思明区,厦港街道,POINT (118.09055 24.436469)
626,上海宝山月浦,上海市宝山区月浦镇龙镇路83号-6铺,"121.426818,31.417625",121.426818,31.417625,上海市,上海市,宝山区,月浦镇,POINT (121.426818 31.417625)
627,南京金茂汇（中央路）,江苏省南京市鼓楼区中央路201号金茂汇【B1】楼【B109】号,"118.783204,32.072722",118.783204,32.072722,南京市,江苏省,鼓楼区,中央门街道,POINT (118.783204 32.072722)
628,烟台开发区振华餐厅,烟台市开发区长江路160号星颐广场3号商业1层101号,"121.245351,37.562381",121.245351,37.562381,烟台市,山东省,福山区,福莱山街道,POINT (121.245351 37.562381)
629,杭州滨江龙湖天街店,杭州市滨江区龙湖滨江天街商业中心B101-B102商铺,"120.205920,30.199190",120.20592,30.19919,杭州市,浙江省,滨江区,长河街道,POINT (120.20592 30.19919)
630,常州常发广场,常州市新北区太湖东路101-1号常发商业广场综合群楼3-106部分、3-107号商铺。,"119.979849,31.813468",119.979849,31.813468,常州市,江苏省,新北区,三井街道,POINT (119.979849 31.813468)
631,松滋天城店,湖北省松滋市新江口镇玉岭南路中央天城商业楼1102号汉堡王餐厅,"111.760162,30.172093",111.760162,30.172093,荆州市,湖北省,松滋市,新江口镇,POINT (111.760162 30.172093)
632,福州连江万星餐厅,福建省福州市连江县凤城镇丹凤东路41号万星广场一层汉堡王餐厅,"119.549864,26.211805",119.549864,26.211805,福州市,福建省,连江县,敖江镇,POINT (119.549864 26.211805)
633,厦门SM甜品站,厦门市思明区嘉禾路399号、仙岳路1229号SM广场 C319汉堡王,"118.125002,24.499479",118.125002,24.499479,厦门市,福建省,思明区,筼筜街道,POINT (118.125002 24.499479)
634,哈尔滨王府井店,哈尔滨市群力第五大道王府井一楼汉堡王餐厅,"126.567069,45.733823",126.567069,45.733823,哈尔滨市,黑龙江省,道里区,工农街道,POINT (126.567069 45.733823)
635,武汉徐东地铁站,武汉市轨道交通8号线匠心汇徐东大街XDDJ3-6号铺,"114.350929,30.578726",114.350929,30.578726,武汉市,湖北省,武昌区,徐家棚街街道,POINT (114.350929 30.578726)
636,苏州港龙乐汇城店,吴中区胥口镇230省道189号港龙乐汇城1楼2 - 1 - 11号。,"120.496958,31.252944",120.496958,31.252944,苏州市,江苏省,吴中区,胥口镇,POINT (120.496958 31.252944)
637,常州星河城市花园店,武进区武宜北路9号星河城市花园五区9幢星河COCO City购物中心1楼L1C-012、L1S-011商铺。,"119.941434,31.715519",119.941434,31.715519,常州市,江苏省,武进区,湖塘镇,POINT (119.941434 31.715519)
638,盘锦水游城店,辽宁省盘锦市兴隆台区石油大街102号水游城一层,"122.075070,41.124415",122.07507,41.124415,盘锦市,辽宁省,兴隆台区,创新街道,POINT (122.07507 41.124415)
639,温江新尚天地,成都市温江区柳合大道与学府路交汇处学海路399号“新尚天地”商铺号：14-1-1,"103.814446,30.680393",103.814446,30.680393,成都市,四川省,温江区,天府街道,POINT (103.814446 30.680393)
640,北京荣祥广场,北京市顺义区天竺镇花梨坎村南荣祥广场汉堡王,"116.548255,40.063805",116.548255,40.063805,北京市,北京市,顺义区,空港街道,POINT (116.548255 40.063805)
641,北京万柳华联,北京市海淀区巴沟路2号华联购物中心F1-33-34,"116.295230,39.973065",116.29523,39.973065,北京市,北京市,海淀区,海淀街道,POINT (116.29523 39.973065)
642,厦门金湖乐都汇,厦门市湖里区金湖路101号乐购都汇广场04,"118.160264,24.511607",118.160264,24.511607,厦门市,福建省,湖里区,禾山街道,POINT (118.160264 24.511607)
643,淮安玖珑汇,淮安市淮安区翔宇南道801号玖珑汇商业广场1F-009-1号铺位汉堡王,"119.124706,33.537523",119.124706,33.537523,淮安市,江苏省,淮安区,河下街道,POINT (119.124706 33.537523)
644,军民融合产业园,北京市海淀区昆明湖南路51号F座7号,"116.277282,39.950246",116.277282,39.950246,北京市,北京市,海淀区,曙光街道,POINT (116.277282 39.950246)
645,成都龙湖,四川省成都市金牛区五块石路1号1F层058号（北城天街购物中心1F层）,"104.066650,30.711950",104.06665,30.71195,成都市,四川省,金牛区,五块石街道,POINT (104.06665 30.71195)
646,重庆新光天地,重庆市渝北区龙溪街道红锦大道89号B1层58号,"106.523241,29.591938",106.523241,29.591938,重庆市,重庆市,渝北区,龙溪街道,POINT (106.523241 29.591938)
647,贵阳砂之船,贵州双龙航空港经济区龙洞堡机场路与十字路交叉口北侧贵阳砂之船奥莱B馆3楼B3-26号商铺,"106.771529,26.547996",106.771529,26.547996,贵阳市,贵州省,南明区,云关乡,POINT (106.771529 26.547996)
648,常州月星环球港店,常州市通江中路598号L2013-L2014号商铺,"119.979551,31.839476",119.979551,31.839476,常州市,江苏省,新北区,龙虎塘街道,POINT (119.979551 31.839476)
649,绵阳万达餐厅,四川省绵阳市涪城区花园路9号万达百货1层1904号,"104.719701,31.453705",104.719701,31.453705,绵阳市,四川省,涪城区,朝阳街道,POINT (104.719701 31.453705)
650,无锡江阴万达广场,江阴市人民西路307、311、317号,"120.243359,31.898440",120.243359,31.89844,无锡市,江苏省,江阴市,澄江街道,POINT (120.243359 31.89844)
651,芜湖银泰店,弋江区利民西路189号银泰城1 - 102号商铺。,"118.366379,31.310881",118.366379,31.310881,芜湖市,安徽省,弋江区,中南街道,POINT (118.366379 31.310881)
652,福州天泽奥特莱斯,福州市闽候县南通镇旗山桥下天泽奥莱时代汉堡王餐厅,"119.260609,25.934766",119.260609,25.934766,福州市,福建省,闽侯县,南通镇,POINT (119.260609 25.934766)
653,江夏沃尔玛,武汉市江夏区纸坊街谭鑫培路19号地上一层2704F1F0015、2704F1F0016号铺位,"114.325491,30.367586",114.325491,30.367586,武汉市,湖北省,江夏区,纸坊街道,POINT (114.325491 30.367586)
654,大连腾飞餐厅,大连市甘井子区汇贤园1A-1号6单元,"121.510892,38.844792",121.510892,38.844792,大连市,辽宁省,甘井子区,凌水街道,POINT (121.510892 38.844792)
655,北京西直门凯德嘉茂,北京市西城区西外大街1号西直门凯德mall地下一层,"116.352606,39.942649",116.352606,39.942649,北京市,北京市,西城区,展览路街道,POINT (116.352606 39.942649)
656,苏州万科湖西美好荟,苏州市吴中经济开发区东方大道北侧、双冠金融城西侧 湖西玲珑美好荟一层129/139号商铺,"120.654780,31.263572",120.65478,31.263572,苏州市,江苏省,吴中区,郭巷街道,POINT (120.65478 31.263572)
657,厦门同集南路（银泰百货）,福建省厦门市集美区同集南路68号嘉庚体育馆综合配套A1-1地块 银泰百货1FL113号商铺,"118.106966,24.587761",118.106966,24.587761,厦门市,福建省,集美区,侨英街道,POINT (118.106966 24.587761)
658,北京丽泽恒泰,北京市丰台北路18号院E座1楼01,"116.305554,39.865937",116.305554,39.865937,北京市,北京市,丰台区,卢沟桥乡,POINT (116.305554 39.865937)
659,南京仙林金鹰,南京栖霞区仙林金鹰湖滨天地B1 楼BF-01号商铺。,"118.926770,32.102452",118.92677,32.102452,南京市,江苏省,栖霞区,仙林街道,POINT (118.92677 32.102452)
660,北京龙德广场,北京市昌平区立汤路龙德广场家乐福一层,"116.415678,40.058989",116.415678,40.058989,北京市,北京市,昌平区,天通苑南街道,POINT (116.415678 40.058989)
661,无锡梅村南,无锡市新吴区宁沪高速梅村服务区南广场,"120.431822,31.522010",120.431822,31.52201,无锡市,江苏省,新吴区,无锡高新技术产业开发区,POINT (120.431822 31.52201)
662,成都富力,成都市顺城大街289 号成都富力广场购物中心一楼1019-B 号,"104.069679,30.665546",104.069679,30.665546,成都市,四川省,青羊区,西御河街道,POINT (104.069679 30.665546)
663,上海湖滨路,上海市黄浦区湖滨路168号B2-W08单元。,"121.477807,31.220511",121.477807,31.220511,上海市,上海市,黄浦区,淮海中路街道,POINT (121.477807 31.220511)
664,哈尔滨学院路,哈尔滨市利民开发区学院路志华商城1栋6号,"126.551856,45.871758",126.551856,45.871758,哈尔滨市,黑龙江省,呼兰区,学院路街道,POINT (126.551856 45.871758)
665,大厂慕斯荟,南京市六合区葛关路380-1号大厂慕斯荟1层116号。,"118.762588,32.232499",118.762588,32.232499,南京市,江苏省,六合区,大厂街道,POINT (118.762588 32.232499)
666,南京复地活力广场店,南京市秦淮区双龙大道东侧D地块复地活力广场+H7一楼37、38、58、59、60号商铺。,"118.820170,31.952820",118.82017,31.95282,南京市,江苏省,江宁区,秣陵街道,POINT (118.82017 31.95282)
667,兰州中心汉堡王,兰州市西津西路16号兰州中心第G层CY002号,"103.774920,36.068980",103.77492,36.06898,兰州市,甘肃省,七里河区,建兰路街道,POINT (103.77492 36.06898)
668,天津国耀上河城,天津市北辰区双街镇顺境路90-94号（双号）上河城购物中心一层102,"117.106310,39.257002",117.10631,39.257002,天津市,天津市,北辰区,双街镇,POINT (117.10631 39.257002)
669,大庆松雷,大庆市让胡路区中原路3号华俊生活广场一楼,"124.889941,46.610234",124.889941,46.610234,大庆市,黑龙江省,让胡路区,西宾街道,POINT (124.889941 46.610234)
670,长沙新城吾悦广场,长沙市星沙街道特立东路与东四路交叉口新城吾悦广场第五幢一楼1041商铺,"113.102439,28.252582",113.102439,28.252582,长沙市,湖南省,长沙县,星沙街道,POINT (113.102439 28.252582)
671,日照万象汇店,山东省日照市东港区烟台路176号华润万象汇1层L-157号汉堡王餐厅,"119.532621,35.420586",119.532621,35.420586,日照市,山东省,东港区,秦楼街道,POINT (119.532621 35.420586)
672,成都星空路,成都市双流区东升街道星空路999号万达广场1061A-1062A号商铺,"103.926740,30.597160",103.92674,30.59716,成都市,四川省,双流区,东升街道,POINT (103.92674 30.59716)
673,厦门闽南古镇店,厦门市长浩东路11号闽南古镇一楼B3-067/069/071 号,"118.108238,24.523781",118.108238,24.523781,厦门市,福建省,湖里区,殿前街道,POINT (118.108238 24.523781)
674,西安长和国际店,西安经济技术开发区凤城七路与明光路十字东北角长和上尚郡15-2-0101号,"108.931452,34.339252",108.931452,34.339252,西安市,陕西省,未央区,张家堡街道,POINT (108.931452 34.339252)
675,济宁苏宁生活广场店,济宁市任城区太白中路10号苏宁生活广场一层103,"116.592180,35.406485",116.59218,35.406485,济宁市,山东省,任城区,阜桥街道,POINT (116.59218 35.406485)
676,北京中关村大街分店,北京市海淀区中关村南大街东方创业谷食宝街一层G133号,"116.313360,39.980323",116.31336,39.980323,北京市,北京市,海淀区,海淀街道,POINT (116.31336 39.980323)
677,三亚凤凰机场,三亚市天涯区凤凰镇三亚凤凰机场国内出发厅1号门西侧,"109.412387,18.307723",109.412387,18.307723,三亚市,海南省,天涯区,凤凰镇,POINT (109.412387 18.307723)
678,金地兰亭店,云南省昆明市西山区人民西路899号金地兰亭广场3栋一拖二楼1015A、1015B号商铺,"102.652075,25.046691",102.652075,25.046691,昆明市,云南省,西山区,马街街道,POINT (102.652075 25.046691)
679,天利名城,深圳市南山区海德三道天利广场1期二楼沿街11/12号商铺,"113.933604,22.518244",113.933604,22.518244,深圳市,广东省,南山区,粤海街道,POINT (113.933604 22.518244)
680,成都红光沃尔玛,成都市郫县红光镇红佳路18号地上一层2715F1F0053&2715F1F0054号商铺,"103.943768,30.783252",103.943768,30.783252,成都市,四川省,郫都区,红光镇,POINT (103.943768 30.783252)
681,淮安苏宁广场,江苏省淮安市清江浦去淮海东路158号苏宁生活广场一楼汉堡王,"119.025399,33.596790",119.025399,33.59679,淮安市,江苏省,清江浦区,淮海街道,POINT (119.025399 33.59679)
682,保定华创店,河北省保定市裕华路555号华创广场一层,"115.490040,38.860148",115.49004,38.860148,保定市,河北省,莲池区,永华街道,POINT (115.49004 38.860148)
683,上海金桥太茂,上海市浦东新区金高路1882号太茂商场108-109号商铺,"121.608239,31.266887",121.608239,31.266887,上海市,上海市,浦东新区,金桥镇,POINT (121.608239 31.266887)
684,延吉天池店,吉林省延吉市公园路1500号（天池广场汉堡王餐厅1层16号）,"129.487239,42.907694",129.487239,42.907694,延边朝鲜族自治州,吉林省,延吉市,公园街道,POINT (129.487239 42.907694)
685,南京紫荆广场,南京市雨花台区养回红村158号紫荆广场一层255、二层324号商铺,"118.793801,31.992301",118.793801,31.992301,南京市,江苏省,雨花台区,雨花街道,POINT (118.793801 31.992301)
686,上海南汇禹洲国际,上海市浦东新区沪南公路9858弄1号101、201号商铺,"121.738639,31.039400",121.738639,31.0394,上海市,上海市,浦东新区,惠南镇,POINT (121.738639 31.0394)
687,沈阳一方店,沈阳市沈河区文化路81号一方广场一楼F103汉堡王餐厅,"123.436453,41.770696",123.436453,41.770696,沈阳市,辽宁省,沈河区,五里河街道,POINT (123.436453 41.770696)
688,广州火村服务区店,广州市萝岗区北二环高速公路服务区C区,"113.270056,23.304919",113.270056,23.304919,广州市,广东省,白云区,人和镇,POINT (113.270056 23.304919)
689,海口国兴路餐厅,海口市美兰区美苑路6号盛达景都C栋一楼,"110.374113,20.018806",110.374113,20.018806,海口市,海南省,美兰区,白龙街道,POINT (110.374113 20.018806)
690,杭州庆春广场,浙江省杭州市江干区四季青街道庆春广场站地铁站商业空间A1、A2、A3号商铺,"120.213915,30.254603",120.213915,30.254603,杭州市,浙江省,江干区,四季青街道,POINT (120.213915 30.254603)
691,成都海滨城,成都市蛟龙港双流园区海滨城一层A115-1号,"103.910727,30.603529",103.910727,30.603529,成都市,四川省,双流区,九江街道,POINT (103.910727 30.603529)
692,南京六合欢乐港,南京市雄州街道双客路97号欢乐港B1层B1016号商铺,"118.836494,32.336006",118.836494,32.336006,南京市,江苏省,六合区,雄州街道,POINT (118.836494 32.336006)
693,深圳华南城华盛奥莱,深圳市龙岗区龙平湖街道禾花社区华南大道一号华南城1号交易广场负一楼B1H-019、B1H-018B,"114.124508,22.674828",114.124508,22.674828,深圳市,广东省,龙岗区,平湖街道,POINT (114.124508 22.674828)
694,泰州万达店,泰州市济川东路232号万达广场2085/2086/2087号商铺。,"119.914864,32.472380",119.914864,32.47238,泰州市,江苏省,海陵区,城南街道,POINT (119.914864 32.47238)
695,成都双铁路,四川省成都市郫县犀浦镇双铁路88 号润扬双铁广场悦尚购物中心1楼3、4号及2楼7、8号,"103.975704,30.758409",103.975704,30.758409,成都市,四川省,郫都区,犀浦镇,POINT (103.975704 30.758409)
696,福州中防万宝城,福州台江区工业路199号中防万宝城L1层MSL1-026汉堡王餐厅,"119.290404,26.063211",119.290404,26.063211,福州市,福建省,台江区,上海街道,POINT (119.290404 26.063211)
697,大连百年奥莱店,辽宁省大连市西岗区香炉礁海顺街101A-7号汉堡王餐厅,"121.602800,38.927937",121.6028,38.927937,大连市,辽宁省,西岗区,香炉礁街道,POINT (121.6028 38.927937)
698,鞍山乐都汇店,辽宁省鞍山市铁东区建国南路48号，乐都汇一楼汉堡王,"122.985680,41.110270",122.98568,41.11027,鞍山市,辽宁省,铁东区,胜利街道,POINT (122.98568 41.11027)
699,沈阳星摩尔一楼,沈阳市铁西区北二中路6号星摩尔沈阳购物广场GB-06,"123.375716,41.809433",123.375716,41.809433,沈阳市,辽宁省,铁西区,笃工街道,POINT (123.375716 41.809433)
700,上海兴梅路店,上海市闵行区兴梅路1219号、1225号,"121.411408,31.105369",121.411408,31.105369,上海市,上海市,闵行区,梅陇镇,POINT (121.411408 31.105369)
701,洛阳泉舜财富中心,洛阳市洛龙区牡丹大道166号泉舜购物中心,"112.454472,34.612903",112.454472,34.612903,洛阳市,河南省,洛龙区,关林街道,POINT (112.454472 34.612903)
702,天津友阿奥特莱斯,天津市滨海新区塘沽海洋科技园西中环与山道交口天津友阿奥特莱斯购物中心三号楼107/108/109,"117.626809,39.064089",117.626809,39.064089,天津市,天津市,滨海新区,海洋高新技术产业园区,POINT (117.626809 39.064089)
703,上海上滨生活广场,上海市虹口区周家嘴路917号129、130单元,"121.512679,31.264577",121.512679,31.264577,上海市,上海市,杨浦区,江浦路街道,POINT (121.512679 31.264577)
704,淄博新玛特店,山东省淄博市张店区中润大道与世纪路交叉口新玛特商场二期一层汉堡王,"118.035807,36.848143",118.035807,36.848143,淄博市,山东省,张店区,四宝山街道,POINT (118.035807 36.848143)
705,天津华明餐厅,天津市东丽区华明镇明湖苑旁兴福亿家超市底商汉堡王餐厅,"117.390468,39.172200",117.390468,39.1722,天津市,天津市,东丽区,华明街道,POINT (117.390468 39.1722)
706,台江万达餐厅,福建省福州市台江区鳌江路8号金融街万达广场万达百货一层1225汉堡王餐厅,"119.343304,26.052221",119.343304,26.052221,福州市,福建省,台江区,鳌峰街道,POINT (119.343304 26.052221)
707,乌鲁木齐经开万达,乌鲁木齐市经济技术开发区武湖路999号万达广场内1B55号商铺汉堡王,"87.517568,43.840549",87.517568,43.840549,乌鲁木齐市,新疆维吾尔自治区,新市区,乌鲁木齐经济技术开发区街道,POINT (87.517568 43.840549)
708,哈尔滨西城红场,黑龙江哈尔滨哈西大街299号红博西城红场生活港负一层B1024,"126.592050,45.703974",126.59205,45.703974,哈尔滨市,黑龙江省,南岗区,哈西街道,POINT (126.59205 45.703974)
709,杭州尊宝大厦,杭州市江干区城星路 89 号尊宝大厦裙楼地下一层城星美食天地 C-008号,"120.207821,30.238256",120.207821,30.238256,杭州市,浙江省,江干区,四季青街道,POINT (120.207821 30.238256)
710,上海118广场,上海市普陀区金沙江路1685号四区地下一层B1-101,"121.378090,31.231862",121.37809,31.231862,上海市,上海市,普陀区,长征镇,POINT (121.37809 31.231862)
711,上海名人广场店,上海市黄浦区南京东路300号名人广场B1层B103-104,"121.483939,31.238119",121.483939,31.238119,上海市,上海市,黄浦区,外滩街道,POINT (121.483939 31.238119)
712,南京景枫大厦（天元东路）,南京市江宁区天元东路288号景枫科技大厦一楼F105号和F106号,"118.867332,31.937732",118.867332,31.937732,南京市,江苏省,江宁区,淳化街道,POINT (118.867332 31.937732)
713,大连万和汇,辽宁省大连市金州开发区金马路208号万和汇购物广场一层汉堡王餐厅,"121.780677,39.048231",121.780677,39.048231,大连市,辽宁省,金州区,马桥子街道,POINT (121.780677 39.048231)
714,上海七宝宝龙,上海市闵行区漕宝路3299号七宝宝龙城市广场S4b-1F-003号商铺,"121.354274,31.158700",121.354274,31.1587,上海市,上海市,闵行区,七宝镇,POINT (121.354274 31.1587)
715,天津西站,天津市红桥区西站高架夹层西进站口,"117.171953,39.155336",117.171953,39.155336,天津市,天津市,红桥区,三条石街道,POINT (117.171953 39.155336)
716,临汾时光颂餐厅,临汾市尧都区中大街与向阳西路交叉口时光颂,"111.506178,36.096890",111.506178,36.09689,临汾市,山西省,尧都区,滨河街道,POINT (111.506178 36.09689)
717,苏州尹山湖阳光天地,苏州市吴中区郭巷环湖路1688号尹山湖阳光天地购物中心2-113、2-114、2-206号,"120.692862,31.245343",120.692862,31.245343,苏州市,江苏省,吴中区,郭巷街道,POINT (120.692862 31.245343)
718,重庆合川合阳街道餐厅,重庆市合川区合阳城街道合化路口片区中部分建筑的一层、二层,"106.257739,30.001120",106.257739,30.00112,重庆市,重庆市,合川区,合阳城街道,POINT (106.257739 30.00112)
719,北京花乡奥莱,北京市丰台区南四环西路76号花乡奥莱13号楼13101-R,"116.323788,39.825965",116.323788,39.825965,北京市,北京市,丰台区,花乡乡,POINT (116.323788 39.825965)
720,上海漕河泾,上海市徐汇区虹梅路1535号星联科研大厦5号楼,"121.400345,31.164274",121.400345,31.164274,上海市,上海市,徐汇区,漕河泾新兴技术开发区,POINT (121.400345 31.164274)
721,上海国家会展中心,上海市青浦区盈港东路158号国家会展中心（上海）商业广场R-L201-18号,"121.304391,31.186396",121.304391,31.186396,上海市,上海市,青浦区,徐泾镇,POINT (121.304391 31.186396)
722,武汉广宏汇,湖北省武汉市洪山区南湖大道55号广宏汇商业街一层C1-2-(15-18)商铺,"114.331707,30.480954",114.331707,30.480954,武汉市,湖北省,洪山区,狮子山街道,POINT (114.331707 30.480954)
723,宜昌水悦城,宜昌市高新区发展大道13 号宜昌水悦城二楼232 铺位。,"111.316257,30.706245",111.316257,30.706245,宜昌市,湖北省,西陵区,北苑街道,POINT (111.316257 30.706245)
724,广州保利克洛维广场,广州市天河区华穗路406号之一第1层05、06房自编号103、104,"113.319788,23.127079",113.319788,23.127079,广州市,广东省,天河区,冼村街道,POINT (113.319788 23.127079)
725,厦门金山路餐厅,厦门市思明区金山路1号厦门宝龙一城2-1号楼M-B1-007号商铺,"118.172259,24.485998",118.172259,24.485998,厦门市,福建省,思明区,莲前街道,POINT (118.172259 24.485998)
726,杭州复地壹号,杭州市拱墅区莫干山路与花园岗街交叉口复地活力广场星尚发展大厦1幢117室、118室、119室、120室、121室,"120.111472,30.317479",120.111472,30.317479,杭州市,浙江省,拱墅区,祥符街道,POINT (120.111472 30.317479)
727,北京四元广场,北京市朝阳区北四环东路9号地下一层,"116.459025,39.979063",116.459025,39.979063,北京市,北京市,朝阳区,望京街道,POINT (116.459025 39.979063)
728,安阳万达汉堡王,安阳市中华路与文明路交叉口向南500米万达广场1001号,"114.392377,36.086247",114.392377,36.086247,安阳市,河南省,文峰区,中华路街道,POINT (114.392377 36.086247)
729,珠海香洲区港湾壹号,珠海市香洲区金唐路9号港湾一号12号楼12--105，12--106，12--107号商铺,"113.599469,22.364922",113.599469,22.364922,珠海市,广东省,香洲区,唐家湾镇,POINT (113.599469 22.364922)
730,上海芳甸路,上海市浦东新区芳甸路1356号,"121.562925,31.207248",121.562925,31.207248,上海市,上海市,浦东新区,花木街道,POINT (121.562925 31.207248)
731,扬州润茂广场,江苏省扬州市博物馆路295、297 号名扬广场一层102 号加二层201号。,"119.379917,32.343430",119.379917,32.34343,扬州市,江苏省,邗江区,汊河街道,POINT (119.379917 32.34343)
732,上海仙霞路店,上海市长宁区仙霞路158号3#商铺,"121.402530,31.205844",121.40253,31.205844,上海市,上海市,长宁区,虹桥街道,POINT (121.40253 31.205844)
733,渭南吾悅广场,陕西省渭南市临渭区仓程路吾悅广场1层汉堡王,"109.406433,34.517609",109.406433,34.517609,渭南市,陕西省,临渭区,双王街道,POINT (109.406433 34.517609)
734,宁波利时店,宁波利时店鄞州区四明中路688号利时城市奥特莱斯购物中心1楼05B号商铺,"121.553521,29.827773",121.553521,29.827773,宁波市,浙江省,鄞州区,中河街道,POINT (121.553521 29.827773)
735,北辰美凯龙,天津市北辰区京津公路312号北辰红星美凯龙一层10175-AF01-78-34233,"117.139649,39.214865",117.139649,39.214865,天津市,天津市,北辰区,果园新村街道,POINT (117.139649 39.214865)
736,深圳卓越世纪中心店,深圳市福田区金田路2030号（卓越世纪中心）,"114.064596,22.532045",114.064596,22.532045,深圳市,广东省,福田区,福田街道,POINT (114.064596 22.532045)
737,苏州园区永旺,苏州市工业园区钟南街与锦溪街交汇处永旺梦乐城苏州园区湖东购物中心183、184号,"120.760686,31.315224",120.760686,31.315224,苏州市,江苏省,苏州工业园区,斜塘街道,POINT (120.760686 31.315224)
738,华林国际,石家庄市新华区华林国际B座汉堡王,"114.479025,38.072844",114.479025,38.072844,石家庄市,河北省,新华区,石岗街道,POINT (114.479025 38.072844)
739,太原百花谷店,太原市学府街132号商业裙楼一楼S10.L143号商铺,"112.546842,37.807010",112.546842,37.80701,太原市,山西省,小店区,平阳路街道,POINT (112.546842 37.80701)
740,红星爱琴海,昆明市广福路488号红星爱琴海购物公园F1027,"102.685023,24.992133",102.685023,24.992133,昆明市,云南省,西山区,福海街道,POINT (102.685023 24.992133)
741,扬州京华城汉堡王,扬州市邗江区京华城路168号京华城中城全生活广场,"119.374340,32.385350",119.37434,32.38535,扬州市,江苏省,邗江区,新城西区新盛街道,POINT (119.37434 32.38535)
742,九宜城,南京市太平南路168号1幢九宜城购物中心一层18号和二层25号商铺。,"118.791853,32.036357",118.791853,32.036357,南京市,江苏省,秦淮区,五老村街道,POINT (118.791853 32.036357)
743,成都东站,成都市成华区东客站西广场地下配套服务区L2（西广场负2楼，地铁出口处）,"104.140791,30.629012",104.140791,30.629012,成都市,四川省,成华区,保和街道,POINT (104.140791 30.629012)
744,清远湖西路店,清远市清城区湖西路89号万达广场1002-1003铺,"113.013302,23.712785",113.013302,23.712785,清远市,广东省,清城区,凤城街道,POINT (113.013302 23.712785)
745,郑州中原新城,郑州市中原区陇海路338号一层5-105号商铺,"113.614724,34.735325",113.614724,34.735325,郑州市,河南省,中原区,航海西路街道,POINT (113.614724 34.735325)
746,南京万谷慧,南京市华电路1号万谷慧生活广场1F-104号,"118.813639,32.102135",118.813639,32.102135,南京市,江苏省,栖霞区,迈皋桥街道,POINT (118.813639 32.102135)
747,淄博华润万象汇店,山东省淄博市张店区金晶大道66号万象汇四楼408汉堡王,"118.061448,36.802030",118.061448,36.80203,淄博市,山东省,张店区,体育场街道,POINT (118.061448 36.80203)
748,环洋大厦餐厅,北京市海淀区上地东路1号院7号楼1层102,"116.302375,40.054055",116.302375,40.054055,北京市,北京市,海淀区,上地街道,POINT (116.302375 40.054055)
749,宝龙广场餐厅,安徽省阜阳市颍州区阜王路1000号宝龙广场1F-055/055-1商铺,"115.808683,32.871712",115.808683,32.871712,阜阳市,安徽省,颍州区,清河街道,POINT (115.808683 32.871712)
750,天津保利若比邻,天津东丽区昆仑路西侧45号保利若比邻社区购物中心一层1013号,"117.271103,39.094446",117.271103,39.094446,天津市,天津市,河东区,富民路街道,POINT (117.271103 39.094446)
751,远洋天骄广场,广州市天河区元京路4号121铺,"113.361200,23.124680",113.3612,23.12468,广州市,广东省,天河区,天园街道,POINT (113.3612 23.12468)
752,苏州新光天地,苏州市苏州大道东456号新光天地负一楼B1050号、B1050-1（甜品站）,"120.712498,31.323269",120.712498,31.323269,苏州市,江苏省,苏州工业园区,斜塘街道,POINT (120.712498 31.323269)
753,鳌峰餐厅,福州台江区鳌峰路10号ＡＰＭ商场一层汉堡王餐厅,"119.337524,26.055997",119.337524,26.055997,福州市,福建省,台江区,鳌峰街道,POINT (119.337524 26.055997)
754,合肥信地,合肥信地信地广场二期信地步行街D栋D1 - 1、D2 - 1号商铺 。,"117.320383,31.879661",117.320383,31.879661,合肥市,安徽省,瑶海区,长淮街道,POINT (117.320383 31.879661)
755,南京江湾新天地店,南京市建邺区乐山路209号江湾新天地购物中心一楼AL008号。,"118.709930,31.992613",118.70993,31.992613,南京市,江苏省,建邺区,双闸街道,POINT (118.70993 31.992613)
756,泰禾水秀广场店,福州市晋安区岳峰镇竹屿路6号东二环泰禾城市广场商业中心22号楼负一层B135号铺,"119.336648,26.090856",119.336648,26.090856,福州市,福建省,晋安区,岳峰镇,POINT (119.336648 26.090856)
757,贵阳汉堡王鸿通城,贵州省贵阳市南明区解放路100号鸿通城购物中心一楼L1-C08(遵义社区）,"106.708419,26.557443",106.708419,26.557443,贵阳市,贵州省,南明区,遵义社区服务中心,POINT (106.708419 26.557443)
758,绵阳园艺东街店,绵阳市科创园区园艺东街19 号附12号绵阳华地恒通·乐荟城购物中心负2楼12号,"104.705802,31.484260",104.705802,31.48426,绵阳市,四川省,涪城区,科创园街道,POINT (104.705802 31.48426)
759,北京中海地产广场陶然店,北京市东城区中海地产广场F1层F1—01A单元,"116.389471,39.870490",116.389471,39.87049,北京市,北京市,东城区,永定门外街道,POINT (116.389471 39.87049)
760,唐山时代广场店,河北省唐山市高新区建设北路西侧龙富南道北侧 东方广场二期1楼128号汉堡王,"117.954981,40.210875",117.954981,40.210875,唐山市,河北省,遵化市,西三里乡,POINT (117.954981 40.210875)
761,上海大宁国际,上海市静安区共和新路1978号大宁国际商业广场9(E1)幢1层102A室,"121.452088,31.274182",121.452088,31.274182,上海市,上海市,静安区,大宁路街道,POINT (121.452088 31.274182)
762,五江天街,湖南省长沙市雨花区曲塘路48号五江天街北二期11号栋G001 G002号铺,"113.026674,28.146712",113.026674,28.146712,长沙市,湖南省,雨花区,雨花亭街道,POINT (113.026674 28.146712)
763,宁波慈溪保利店,宁波慈溪市三北西大街1555号保利广场购物中心1楼A1 - 018、A1 - 017、A1 - 016b号商铺。,"121.210180,30.179785",121.21018,30.179785,宁波市,浙江省,慈溪市,宗汉街道,POINT (121.21018 30.179785)
764,北京交大南门,北京市西城区高粱桥斜街19号商业街6号,"116.341737,39.947017",116.341737,39.947017,北京市,北京市,海淀区,北下关街道,POINT (116.341737 39.947017)
765,南京九龙湖滨天地,南京市江宁区苏源大道19号九龙湖国际企业总部园A2栋裙楼九龙湖滨天地购物中心1层【1008】号商铺,"118.811765,31.913231",118.811765,31.913231,南京市,江苏省,江宁区,秣陵街道,POINT (118.811765 31.913231)
766,苏州中翔（中翔时尚广场）,苏州市相城区齐门北大街与嘉元路交汇处苏州中翔时尚广场一楼,"120.621055,31.370364",120.621055,31.370364,苏州市,江苏省,相城区,元和街道,POINT (120.621055 31.370364)
767,无锡英特宜家店,无锡市锡山经济开发区团结中路3号荟聚购物中心L12层6-12-01-R商铺,"120.395368,31.582482",120.395368,31.582482,无锡市,江苏省,锡山区,无锡锡山开发区,POINT (120.395368 31.582482)
768,潍坊泰华,潍坊市奎文区东风东街360号泰华城世纪泰华广场一层SL129,"119.113617,36.714281",119.113617,36.714281,潍坊市,山东省,奎文区,东关街道,POINT (119.113617 36.714281)
769,成都龙潭路,成都市成华区龙潭路33号上古天地购物中心L1楼1-22号,"104.165887,30.704047",104.165887,30.704047,成都市,四川省,成华区,龙潭街道,POINT (104.165887 30.704047)
770,宁波恒一广场店,宁波恒一广场店海曙区丽园南路606号恒一广场1楼01-32号、2楼02-16号商铺。,"121.514226,29.851073",121.514226,29.851073,宁波市,浙江省,海曙区,段塘街道,POINT (121.514226 29.851073)
771,北京华贸天地餐厅,北京市朝阳区清河营南街七号院华贸天地东区1层,"116.431822,40.047319",116.431822,40.047319,北京市,北京市,朝阳区,来广营镇,POINT (116.431822 40.047319)
772,石家庄天山海世界店,河北省石家庄市天山大街116号海世界广场2期（天山大街与长江大道交口北行）一楼汉堡王,"114.607273,38.038057",114.607273,38.038057,石家庄市,河北省,裕华区,长江街道,POINT (114.607273 38.038057)
773,More Mee 购物中心,上海浦东新区张杨路588 号More Mee 1 层120、121-1、121-2 号,"121.518387,31.227645",121.518387,31.227645,上海市,上海市,浦东新区,潍坊新村街道,POINT (121.518387 31.227645)
774,同曦假日百货店,江宁区胜太东路8号同曦鸣城商业中心1楼及地下1楼03033号。,"118.822767,31.944638",118.822767,31.944638,南京市,江苏省,江宁区,秣陵街道,POINT (118.822767 31.944638)
775,大连柏威年,辽宁省大连市中山区大公街9-6号柏威年大连购物中心地下一层汉堡王餐厅,"121.629506,38.917879",121.629506,38.917879,大连市,辽宁省,中山区,青泥洼桥街道,POINT (121.629506 38.917879)
776,北京广安门天虹店,北京市西城区广安门外大街168号一层汉堡王,"116.341777,39.888911",116.341777,39.888911,北京市,北京市,西城区,广安门外街道,POINT (116.341777 39.888911)
777,绍兴袍江大润发店,绍兴袍江大润发店越城区中兴大道世纪街交叉处，袍江大润发美食街第1# - 4#总部楼113 号、114 号商铺，商铺门牌号33 号、35 号。,"120.605697,30.080547",120.605697,30.080547,绍兴市,浙江省,越城区,斗门街道,POINT (120.605697 30.080547)
778,株洲王府井店,株洲市新华西路999号中央商业广场负一层D - 05号及A - 02号。,"113.152621,27.837321",113.152621,27.837321,株洲市,湖南省,芦淞区,建设街道,POINT (113.152621 27.837321)
779,西安龙首印象城,西安市未央区未央街33号龙首印象城2层18号,"108.948252,34.294155",108.948252,34.294155,西安市,陕西省,未央区,张家堡街道,POINT (108.948252 34.294155)
780,上海新世界,上海市黄浦区南京西路2-88号地下一层,"121.473702,31.234717",121.473702,31.234717,上海市,上海市,黄浦区,南京东路街道,POINT (121.473702 31.234717)
781,福清万达餐厅,福建省福州市音西街道福清万达广场Ａ1号楼19/20号复式商铺,"119.350808,25.714698",119.350808,25.714698,福州市,福建省,福清市,音西街道,POINT (119.350808 25.714698)
782,上海张杨北路(高桥红坊),上海市浦东新区高桥镇张杨北路5688弄高桥商业文化广场1-2楼5758号商铺,"121.574469,31.346608",121.574469,31.346608,上海市,上海市,浦东新区,高桥镇,POINT (121.574469 31.346608)
783,常州新荟城,常州市天宁时代广场1号楼107、 109号 商铺,"119.983500,31.772615",119.9835,31.772615,常州市,江苏省,天宁区,天宁街道,POINT (119.9835 31.772615)
784,济南大学城,山东省济南市长清大学城商业街三庆青年城1号楼1层,"116.818802,36.557343",116.818802,36.557343,济南市,山东省,长清区,崮云湖街道,POINT (116.818802 36.557343)
785,青岛合肥路餐厅,青岛市市北区合肥路672号永旺广场T324,"120.414504,36.111241",120.414504,36.111241,青岛市,山东省,市北区,合肥路街道,POINT (120.414504 36.111241)
786,杭州D32购物中心店,拱墅区小河路与登云路交汇处杭州D32时尚街区购物中心2号楼1楼B106号商铺。,"120.135991,30.314062",120.135991,30.314062,杭州市,浙江省,拱墅区,拱宸桥街道,POINT (120.135991 30.314062)
787,北京世纪金源,北京市海淀区远大路1号世纪金源购物中心五层521A,"116.287852,39.958556",116.287852,39.958556,北京市,北京市,海淀区,曙光街道,POINT (116.287852 39.958556)
788,海通餐厅,福州市仓山区盖山镇三高路152号一层8号铺,"119.329013,26.037073",119.329013,26.037073,福州市,福建省,仓山区,仓山镇,POINT (119.329013 26.037073)
789,崇贤上亿广场,杭州市崇贤镇崇杭街733、735、737号杭州上亿广场购物中心1楼1002号，2楼2002号。,"120.178843,30.382413",120.178843,30.382413,杭州市,浙江省,余杭区,崇贤街道,POINT (120.178843 30.382413)
790,乌鲁木齐德汇万达店,新疆乌鲁木齐市沙依巴克区奇台路德汇万达广场E栋1025室,"87.517783,43.841633",87.517783,43.841633,乌鲁木齐市,新疆维吾尔自治区,新市区,乌鲁木齐经济技术开发区街道,POINT (87.51778299999999 43.841633)
791,天津恒星世界店,天津市东丽区先锋路61号恒星世界先锋店1层8151号,"117.305916,39.084482",117.305916,39.084482,天津市,天津市,东丽区,万新街道,POINT (117.305916 39.084482)
792,石家庄怀特餐厅,河北省石家庄市裕华区槐安东路105号怀特商业广场1F-01号,"114.526077,38.022685",114.526077,38.022685,石家庄市,河北省,裕华区,槐底街道,POINT (114.526077 38.022685)
793,广州番禺永旺梦乐城店,广州市番禺区亚运大道1号永旺梦乐城0001-1商铺,"113.387694,22.937341",113.387694,22.937341,广州市,广东省,番禺区,大龙街道,POINT (113.387694 22.937341)
794,南京万象都荟,南京市秦淮区万象都荟1楼28号,"118.796974,31.998085",118.796974,31.998085,南京市,江苏省,秦淮区,红花街道,POINT (118.796974 31.998085)
795,如皋新城吾悦,南通市如皋市如城街道惠政路168 号如皋新城吾悦广场1035号铺。,"120.575851,32.368087",120.575851,32.368087,南通市,江苏省,如皋市,如城街道,POINT (120.575851 32.368087)
796,沈阳大悦城店,辽宁省沈阳市大东区小东路9号大悦城D座汉堡王,"123.470580,41.802688",123.47058,41.802688,沈阳市,辽宁省,大东区,小东街道,POINT (123.47058 41.802688)
797,广州花城汇店,广州市天河区花城大道路89号花城汇南区负一层3001号商铺C03,"113.324478,23.118791",113.324478,23.118791,广州市,广东省,天河区,猎德街道,POINT (113.324478 23.118791)
798,昆山市民中心店,昆山经济技术开发区前进路南侧，珠江路西侧的大戏院文化综合体1楼1F-012号,"120.971265,31.382800",120.971265,31.3828,苏州市,江苏省,昆山市,开发区,POINT (120.971265 31.3828)
799,大连国际机场餐厅,大连市甘井子区周水子国际机场T1航站楼2层,"121.545710,38.961989",121.54571,38.961989,大连市,辽宁省,甘井子区,机场街道,POINT (121.54571 38.961989)
800,杭州欧美中心,杭州欧美中心教工路26号欧美中心2号楼F108、F109、F202室,"120.137140,30.273997",120.13714,30.273997,杭州市,浙江省,西湖区,西溪街道,POINT (120.13714 30.273997)
801,合肥万科广场,安徽省合肥市庐阳区四里河路599号万科广场1层,"117.247043,31.879325",117.247043,31.879325,合肥市,安徽省,庐阳区,四里河街道,POINT (117.247043 31.879325)
802,天津大津城餐厅,天津市西青区雅乐道与瑶琳路交口大津城商业广场1A-05,"117.170788,39.056712",117.170788,39.056712,天津市,天津市,西青区,李七庄街道,POINT (117.170788 39.056712)
803,深圳信兴广场店（地王）,深圳市罗湖区深南东路5002号信兴广场附楼LG层09B单元,"114.110704,22.542747",114.110704,22.542747,深圳市,广东省,罗湖区,桂园街道,POINT (114.110704 22.542747)
804,杭州星光城,浙江省杭州市西湖区文三路500号9号楼,"120.122057,30.276554",120.122057,30.276554,杭州市,浙江省,西湖区,翠苑街道,POINT (120.122057 30.276554)
805,石家庄北国益庄店,河北省石家庄市桥东区胜利北大街289号益庄购物中心1楼YJ-02,"114.516740,38.084968",114.51674,38.084968,石家庄市,河北省,长安区,桃园镇,POINT (114.51674 38.084968)
806,武汉永旺店,武汉经济开发区江城大道388号B114号商铺,"114.206890,30.504900",114.20689,30.5049,武汉市,湖北省,汉阳区,江堤街街道,POINT (114.20689 30.5049)
807,珠海迎宾路,珠海市香洲区迎宾南路2095号摩尔广场F1-006号商铺,"113.551372,22.233115",113.551372,22.233115,珠海市,广东省,香洲区,拱北街道,POINT (113.551372 22.233115)
808,长春欧亚商都店,吉林省长春市朝阳区工农大路欧亚商都A座负一楼新2号门旁,"125.300555,43.869980",125.300555,43.86998,长春市,吉林省,朝阳区,红旗街道,POINT (125.300555 43.86998)
809,珠海横琴中央汇,珠海市横琴新区香江路10号B101号商铺,"113.543728,22.129004",113.543728,22.129004,珠海市,广东省,香洲区,横琴镇,POINT (113.543728 22.129004)
810,西宁力盟商业巷店,西宁市五四大街37号力盟商业巷六号楼106号,"101.758415,36.629181",101.758415,36.629181,西宁市,青海省,城西区,古城台街道,POINT (101.758415 36.629181)
811,天美杉杉奥莱餐厅,山西省晋中市榆次区天美杉杉奥特莱斯广场1-2楼A101、A102、A201号商铺,"112.718048,37.716753",112.718048,37.716753,晋中市,山西省,榆次区,晋中经济开发区,POINT (112.718048 37.716753)
812,苏州海星生活广场,苏州市吴中经济开发区商城大街88号海星生活广场2#楼01层03号商铺,"120.632088,31.254997",120.632088,31.254997,苏州市,江苏省,吴中区,城南街道,POINT (120.632088 31.254997)
813,荆门万达店,荆门象山大道万达广场1001号商铺,"112.185665,30.983036",112.185665,30.983036,荆门市,湖北省,掇刀区,双喜街道,POINT (112.185665 30.983036)
814,昆山奥特莱斯,昆山开发区东城大道501号昆山奥特莱斯F1 - c12、F2 - c13号商铺。,"121.061294,31.365250",121.061294,31.36525,苏州市,江苏省,昆山市,开发区,POINT (121.061294 31.36525)
815,济南领秀城餐厅,济南市市中区济南领秀城贵和购物中心裙楼一楼35-36号,"117.002233,36.592434",117.002233,36.592434,济南市,山东省,市中区,十六里河街道,POINT (117.002233 36.592434)
816,重庆白象街餐厅,重庆市渝中区羊子坝15号融创白象街A-L1-55/56/57，A-L2-32/33/34号商铺,"106.579294,29.550679",106.579294,29.550679,重庆市,重庆市,渝中区,南纪门街道,POINT (106.579294 29.550679)
817,合肥砂之船,长宁大道1888号合肥砂之船奥莱B馆1楼N1F021、N1F022号商铺及A馆3楼3-c06号甜品站。,"117.116658,31.837697",117.116658,31.837697,合肥市,安徽省,蜀山区,高新技术产业开发区,POINT (117.116658 31.837697)
818,大连嘉和广场,辽宁省大连市中山区鲁迅路21-1号嘉和广场一层,"121.653308,38.919647",121.653308,38.919647,大连市,辽宁省,中山区,桂林街道,POINT (121.653308 38.919647)
819,无锡八方汇,无锡市滨湖区海岸城62-141（1）-10.1、11号商铺,"120.294616,31.489882",120.294616,31.489882,无锡市,江苏省,滨湖区,太湖街道,POINT (120.294616 31.489882)
820,上海嘉定华泰中心,上海市嘉定区金运路319号1层,"121.320654,31.238915",121.320654,31.238915,上海市,上海市,嘉定区,江桥镇,POINT (121.320654 31.238915)
821,重庆水木天地,重庆市渝北区回兴街道双湖路1号水木天地都会广场1楼1、2号和2楼1号商铺,"106.617633,29.695901",106.617633,29.695901,重庆市,重庆市,渝北区,回兴街道,POINT (106.617633 29.695901)
822,包头百货店,内蒙古包头市昆区钢铁大街67号,"109.815253,40.658718",109.815253,40.658718,包头市,内蒙古自治区,昆都仑区,前进道街道,POINT (109.815253 40.658718)
823,芜湖苏宁店,镜湖区中和路11号芜湖苏宁广场一层101号商铺。,"118.367599,31.328598",118.367599,31.328598,芜湖市,安徽省,镜湖区,滨江公共服务中心,POINT (118.367599 31.328598)
824,北京长楹天街,北京市朝阳区常营龙湖长楹天街西区一层,"116.597816,39.924008",116.597816,39.924008,北京市,北京市,朝阳区,常营镇,POINT (116.597816 39.924008)
825,泉州中骏餐厅,福建泉州市丰泽区安吉路69号中骏世界城一层汉堡王餐厅,"118.658808,24.920371",118.658808,24.920371,泉州市,福建省,丰泽区,城东街道,POINT (118.658808 24.920371)
826,昆明王府井赛特奥莱店,云南省昆明市官渡区滇池国际会展中心东区一至三层王府井.滇池小镇 购物中心 G2 楼G2汉堡王餐厅,"102.731746,25.010526",102.731746,25.010526,昆明市,云南省,官渡区,关上街道,POINT (102.731746 25.010526)
827,义乌世茂广场,义乌世茂广场城北路与福田路交叉口新光汇购物中心1楼1013号,"120.107413,29.325811",120.107413,29.325811,金华市,浙江省,义乌市,稠城街道,POINT (120.107413 29.325811)
828,上海南证大厦店,上海市南京西路580号南证大厦主楼101室,"121.465912,31.231176",121.465912,31.231176,上海市,上海市,静安区,石门二路街道,POINT (121.465912 31.231176)
829,星球商业中心,荆门虎牙关大道5 号荆门星球世界城一楼21001号,"112.206025,31.003082",112.206025,31.003082,荆门市,湖北省,东宝区,龙泉街道,POINT (112.206025 31.003082)
830,烟台宝龙店,山东省烟台市莱山区迎春大街199号1F-001号,"121.446430,37.471338",121.44643,37.471338,烟台市,山东省,莱山区,滨海路街道,POINT (121.44643 37.471338)
831,苏州科技城文体中心（太湖大道）,苏州市高新区太湖大道999号高新科技城文体中心E楼[E108 109]号商铺,"120.510618,31.318210",120.510618,31.31821,苏州市,江苏省,虎丘区,枫桥街道,POINT (120.510618 31.31821)
832,广州太古汇,广州市天河区天河路383号太古汇商场裙楼地铁上层MU18号商铺,"113.332474,23.134208",113.332474,23.134208,广州市,广东省,天河区,林和街道,POINT (113.332474 23.134208)
833,惠州惠州大道,惠州市惠城区惠州大道20号赛格假日广场一楼S108 号商铺,"114.436346,23.087577",114.436346,23.087577,惠州市,广东省,惠城区,桥东街道,POINT (114.436346 23.087577)
834,大连万达餐厅,辽宁省大连市高新园区黄浦路500号高新万达广场二层,"121.532724,38.862515",121.532724,38.862515,大连市,辽宁省,甘井子区,凌水街道,POINT (121.532724 38.862515)
835,洛阳王府井,河南省洛阳市南昌路与丽春路交叉口,"112.407050,34.644775",112.40705,34.644775,洛阳市,河南省,涧西区,周山路街道,POINT (112.40705 34.644775)
836,上海安波路(硕和城）,上海市杨浦区安波路407、411号硕和城购物中心1楼6-1-4、6-1-5号商铺,"121.531089,31.302559",121.531089,31.302559,上海市,上海市,杨浦区,五角场镇,POINT (121.531089 31.302559)
837,石家庄华强店,河北省石家庄市新华区民族路77号华强广场东区一楼F1-A11汉堡王商铺,"114.480745,38.045166",114.480745,38.045166,石家庄市,河北省,新华区,新华路街道,POINT (114.480745 38.045166)
838,昆明大都摩天,云南省昆明市官渡区大都摩天购物中心负一层B-018号商铺,"102.768901,24.969232",102.768901,24.969232,昆明市,云南省,官渡区,小板桥街道,POINT (102.768901 24.969232)
839,乌鲁木齐汇嘉,新疆乌鲁木齐市新市区北京中路147号18-M1商铺,"87.557412,43.875714",87.557412,43.875714,乌鲁木齐市,新疆维吾尔自治区,新市区,南纬路街道,POINT (87.557412 43.875714)
840,上海鹤庆路,上海市闵行区鹤庆路900号碧江广场2号楼1楼102号商铺,"121.404796,31.006013",121.404796,31.006013,上海市,上海市,闵行区,江川路街道,POINT (121.404796 31.006013)
841,绍兴汇金广场店,绍兴汇金广场店解放北路199号绍兴汇金生活艺术广场一楼1011号商铺。,"120.580300,30.006140",120.5803,30.00614,绍兴市,浙江省,越城区,北海街道,POINT (120.5803 30.00614)
842,海口吾悦广场,海口市迎宾路18号新城吾悦广场3号门入口,"110.338176,19.977062",110.338176,19.977062,海口市,海南省,龙华区,城西镇,POINT (110.338176 19.977062)
843,阳澄湖服务区北,江苏省苏州市苏州工业园区阳澄湖服务区北区5号,"120.770856,31.369773",120.770856,31.369773,苏州市,江苏省,苏州工业园区,唯亭街道,POINT (120.770856 31.369773)
844,上海西藏北路（大悦城购物中心）,上海市闸北区西藏北路198号大悦城购物中心北楼地下一层B102-09、B102-10,"121.472022,31.244100",121.472022,31.2441,上海市,上海市,静安区,北站街道,POINT (121.472022 31.2441)
845,江门江海广场,广东省江门市江海区东海路46号江海广场第一层自编1F034.1F035号铺位,"113.102786,22.570242",113.102786,22.570242,江门市,广东省,江海区,江南街道,POINT (113.102786 22.570242)
846,济南西站,山东省济南市槐荫区济南西站候车室内JNX-CY-26室,"116.893458,36.669284",116.893458,36.669284,济南市,山东省,槐荫区,兴福街道,POINT (116.893458 36.669284)
847,沈阳三好街店,沈阳市三好街55号沈阳信息产业大厦B座一层,"123.427998,41.769758",123.427998,41.769758,沈阳市,辽宁省,和平区,南湖街道,POINT (123.427998 41.769758)
848,北京首城国际,北京市朝阳区广渠路36号院7栋汉堡王（首城国际写字楼南侧）,"116.469688,39.891366",116.469688,39.891366,北京市,北京市,朝阳区,劲松街道,POINT (116.469688 39.891366)
849,重庆永川协信,重庆市永川区兴龙大道123 号永川协信星光广场L1 层,"105.941349,29.363730",105.941349,29.36373,重庆市,重庆市,永川区,中山路街道,POINT (105.941349 29.36373)
850,长春中东新天地店,吉林省长春市南关区新天地购物公园东门一层汉堡王,"125.345915,43.899352",125.345915,43.899352,长春市,吉林省,南关区,长通街道,POINT (125.345915 43.899352)
851,青岛李沧万达,青岛市李沧区巨峰路178号万达广场金街2001号,"120.435580,36.167143",120.43558,36.167143,青岛市,山东省,李沧区,浮山路街道,POINT (120.43558 36.167143)
852,北京世界城,北京市朝阳区金汇路8号E108号,"116.451940,39.917730",116.45194,39.91773,北京市,北京市,朝阳区,呼家楼街道,POINT (116.45194 39.91773)
853,青岛融创茂,青岛市黄岛区滨海大道2777号万达茂1019号,"120.101039,35.904973",120.101039,35.904973,青岛市,山东省,黄岛区,灵山卫街道,POINT (120.101039 35.904973)
854,杭州东站西子国际购物中心店,杭州东站西子国际购物中心1楼1F-001号。,"120.212427,30.291538",120.212427,30.291538,杭州市,浙江省,江干区,彭埠街道,POINT (120.212427 30.291538)
855,石家庄西美五洲餐厅,石家庄裕华区槐安路以南谈固南大街以东西美五洲天地购物中心一层1号,"114.566249,38.023237",114.566249,38.023237,石家庄市,河北省,裕华区,裕东街道,POINT (114.566249 38.023237)
856,绿地缤纷城,上海市徐汇区瑞平路36号一层H-109、110、116 室,"121.457420,31.184561",121.45742,31.184561,上海市,上海市,徐汇区,斜土路街道,POINT (121.45742 31.184561)
857,湘潭万达店,湘潭市芙蓉路万达广场2009、2010号商铺,"112.938875,27.827250",112.938875,27.82725,湘潭市,湖南省,岳塘区,双马街道,POINT (112.938875 27.82725)
858,杭州金逸影城,下城区东新路与西文街交叉口西北角西联广场(金逸影视中心)1楼1 - 17号及2楼2 - 11号商铺。,"120.172268,30.316491",120.172268,30.316491,杭州市,浙江省,下城区,东新街道,POINT (120.172268 30.316491)
859,广州南沙星河店,广州市南沙区南沙街金沙路西侧星河盛世星河COCO Go 购物中心一楼L1C-010、012；L1S-049号,"113.546179,22.803679",113.546179,22.803679,广州市,广东省,南沙区,南沙街道,POINT (113.546179 22.803679)
860,苏州狮山名门（塔园路）,苏州市高新区塔园路201号If mall易生活购物公园1-2层1001号（1F、2F）和1002号（1F、2F）商铺,"120.552934,31.300406",120.552934,31.300406,苏州市,江苏省,虎丘区,枫桥街道,POINT (120.552934 31.300406)
861,石家庄汇华广场店,河北省石家庄市红旗大街469号汇华广场1号楼112、113商铺,"114.459829,38.008091",114.459829,38.008091,石家庄市,河北省,桥西区,红旗街道,POINT (114.459829 38.008091)
862,中山小榄,中山市小榄镇新华中路118号南面向明广场外一层23号商铺、外二层46号商铺,"113.245339,22.670675",113.245339,22.670675,中山市,广东省,[],小榄镇,POINT (113.245339 22.670675)
863,湛江万达店,湛江市经济技术开发区海滨大道中128 号2023-2025号商铺,"110.405090,21.248429",110.40509,21.248429,湛江市,广东省,赤坎区,南桥街道,POINT (110.40509 21.248429)
864,丹东万达,辽宁省丹东市振兴区锦山大街298号万达广场2号门1,"124.365687,40.110916",124.365687,40.110916,丹东市,辽宁省,振兴区,花园街道,POINT (124.365687 40.110916)
865,青岛金鼎利群餐厅,青岛市崂山区海尔路83号利群金鼎广场负一层01号,"120.462960,36.093486",120.46296,36.093486,青岛市,山东省,崂山区,中韩街道,POINT (120.46296 36.093486)
866,合肥悦方广场,滨湖新区庐州大道2868号“合肥悦方ID Mall”购物中心L123号。,"117.303904,31.739232",117.303904,31.739232,合肥市,安徽省,包河区,义城街道,POINT (117.303904 31.739232)
867,哈尔滨会展二店,哈尔滨红博中央公园食林下区22号,"126.698658,45.758184",126.698658,45.758184,哈尔滨市,黑龙江省,南岗区,新春街道,POINT (126.698658 45.758184)
868,南宁万象城店,广西南宁市青秀区民族大道136号南宁华润中心万象城L2层270号商铺,"108.393107,22.811483",108.393107,22.811483,南宁市,广西壮族自治区,青秀区,津头街道,POINT (108.393107 22.811483)
869,烟台大悦城店,山东省烟台市芝罘区北马路150号大悦城四层,"121.388355,37.545552",121.388355,37.545552,烟台市,山东省,芝罘区,毓璜顶街道,POINT (121.388355 37.545552)
870,沈阳K11餐厅,沈阳市和平区博览路2甲1号K11购物中心B1B3010,"123.395680,41.789450",123.39568,41.78945,沈阳市,辽宁省,和平区,太原街街道,POINT (123.39568 41.78945)
871,张家港曼巴特店,张家港杨舍镇河西路88号曼巴特负一层B503号商铺,"120.546212,31.861169",120.546212,31.861169,苏州市,江苏省,张家港市,杨舍镇,POINT (120.546212 31.861169)
872,上海歌斐中心,上海市蒙自路757号地下二层SS-A-002/003商铺。,"121.481983,31.197224",121.481983,31.197224,上海市,上海市,黄浦区,五里桥街道,POINT (121.481983 31.197224)
873,新大新餐厅,广州市越秀区中山五路4号第二层自编号2F-02商铺,"113.268621,23.125827",113.268621,23.125827,广州市,广东省,越秀区,北京街道,POINT (113.268621 23.125827)
874,北京西单大悦城店,北京市西城区西单北大街131号西单大悦城3F-20,"116.372980,39.910891",116.37298,39.910891,北京市,北京市,西城区,西长安街街道,POINT (116.37298 39.910891)
875,贵阳北站,贵州省贵阳市观山湖区贵阳北站候车厅2楼,"106.579812,26.596325",106.579812,26.596325,贵阳市,贵州省,观山湖区,金华镇,POINT (106.579812 26.596325)
876,杭州萧山金地,萧山区金城路330-1/332金地德圣中心,"120.250733,30.180906",120.250733,30.180906,杭州市,浙江省,萧山区,北干街道,POINT (120.250733 30.180906)
877,昆山昆城广场店,昆山市人民南路1168号昆城广场二号楼#110、111商铺。,"120.954214,31.363209",120.954214,31.363209,苏州市,江苏省,昆山市,开发区,POINT (120.954214 31.363209)
878,马保正荣餐厅,福建省福州市闽候县上街镇新保路18号福州正荣财富中心1#座一层二层,"119.218150,26.018120",119.21815,26.01812,福州市,福建省,闽侯县,上街镇,POINT (119.21815 26.01812)
879,潍坊万达店,潍坊市鸢飞路958号1号楼1-171、1-172商铺,"119.129225,36.717605",119.129225,36.717605,潍坊市,山东省,奎文区,东关街道,POINT (119.129225 36.717605)
880,杭州华策中心,浙江省杭州市五常港路442号华策中心9#一层101/102号商铺,"120.069395,30.300597",120.069395,30.300597,杭州市,浙江省,西湖区,三墩镇,POINT (120.069395 30.300597)
881,珠海天虹,广东省珠海市香洲区明珠南路1101 号诚丰广场A区天虹商场一楼F109号商铺,"113.521046,22.240683",113.521046,22.240683,珠海市,广东省,香洲区,前山街道,POINT (113.521046 22.240683)
882,南京新街口1#,南京市白下区中山南路118号103室,"118.783348,32.038883",118.783348,32.038883,南京市,江苏省,秦淮区,五老村街道,POINT (118.783348 32.038883)
883,武汉百联奥莱,武汉市黄陂区盘龙经济开发区盘龙大道50号,"114.261532,30.729436",114.261532,30.729436,武汉市,湖北省,黄陂区,盘龙城经济开发区,POINT (114.261532 30.729436)
884,长春中东奥莱,长春市九台北路砂之船中东奥莱一层汉堡王,"125.326996,43.947182",125.326996,43.947182,长春市,吉林省,宽城区,凯旋街道,POINT (125.326996 43.947182)
885,东莞彩怡店,东莞市莞城区东纵大道地王广场2区彩怡百货一楼A06铺,"113.762532,23.038518",113.762532,23.038518,东莞市,广东省,[],莞城街道,POINT (113.762532 23.038518)
886,大连五一广场,大连市沙河口区五一广场家具大世界一层汉堡王餐厅,"121.603543,38.917139",121.603543,38.917139,大连市,辽宁省,沙河口区,中山公园街道,POINT (121.603543 38.917139)
887,宿迁中央广场,江苏省宿迁市幸福南路88 号宿迁中央国际购物广场一楼 3004 号商铺。,"118.301178,33.950643",118.301178,33.950643,宿迁市,江苏省,宿城区,项里街道,POINT (118.301178 33.950643)
888,贵阳恒峰步行街店,贵州省贵阳市云岩区中山西路56号负一层2号C-13商铺,"106.712026,26.580398",106.712026,26.580398,贵阳市,贵州省,云岩区,延中社区服务中心,POINT (106.712026 26.580398)
889,丽江祥和,丽江市古城区玉雪大道201号祥和商业广场A栋一层16号商铺,"100.231104,26.853551",100.231104,26.853551,丽江市,云南省,古城区,祥和街道,POINT (100.231104 26.853551)
890,呼和浩特维多利摩尔城店,内蒙古自治区呼和浩特市新城区新华东街62号摩尔城A座二层205-207,"111.709787,40.829884",111.709787,40.829884,呼和浩特市,内蒙古自治区,赛罕区,乌兰察布东路街道,POINT (111.709787 40.829884)
891,重庆永辉,重庆市江北区盘溪七支路11号永辉总部大楼一楼B2205102号商铺,"106.480244,29.589561",106.480244,29.589561,重庆市,重庆市,江北区,石马河街道,POINT (106.480244 29.589561)
892,青岛丽达餐厅,青岛市崂山区仙霞岭路27号1楼1-13号商铺,"120.468779,36.103278",120.468779,36.103278,青岛市,山东省,崂山区,中韩街道,POINT (120.468779 36.103278)
893,北京顺义隆华,北京市顺义区仁和镇新顺南大街11号1栋1层103,"116.650538,40.126372",116.650538,40.126372,北京市,北京市,顺义区,胜利街道,POINT (116.650538 40.126372)
894,重庆江北嘴财信广场餐厅,重庆市江北区金沙门路56号财信广场购物中心2楼2-5号,"106.571750,29.570550",106.57175,29.57055,重庆市,重庆市,江北区,江北城街道,POINT (106.57175 29.57055)
895,义乌新科路万达,义乌新科路万达新科路9号万达广场1F12-13、2F13号商铺。,"120.044753,29.276835",120.044753,29.276835,金华市,浙江省,义乌市,稠江街道,POINT (120.044753 29.276835)
896,北京南站地下餐厅,北京市丰台区北京南站换乘层北侧,"116.378676,39.864838",116.378676,39.864838,北京市,北京市,丰台区,右安门街道,POINT (116.378676 39.864838)
897,四平万达店,吉林省四平市铁东区紫气大路分北侧万达广场一层汉堡王,"124.391495,43.155650",124.391495,43.15565,四平市,吉林省,铁东区,平东街道,POINT (124.391495 43.15565)
898,沈阳火车站店,沈阳市铁西区沈阳站候车室三层,"123.393205,41.794841",123.393205,41.794841,沈阳市,辽宁省,铁西区,霁虹街道,POINT (123.393205 41.794841)
899,上海愚园餐厅,上海市静安区愚园路132号,"121.445288,31.224608",121.445288,31.224608,上海市,上海市,静安区,静安寺街道,POINT (121.445288 31.224608)
900,杭州萧山宝龙,萧山区建设一路金鸡路交叉口宝龙城市广场,"120.253163,30.195686",120.253163,30.195686,杭州市,浙江省,萧山区,北干街道,POINT (120.253163 30.195686)
901,南通凤凰文化广场店,崇川区新城区支路6号南通凤凰文化广场1楼119、120号,"120.897428,31.975623",120.897428,31.975623,南通市,江苏省,崇川区,文峰街道,POINT (120.897428 31.975623)
902,上海松江新城,上海市松江区新松江路1001号一层3号,"121.216894,31.038474",121.216894,31.038474,上海市,上海市,松江区,方松街道,POINT (121.216894 31.038474)
903,新港西路新港82广场,广州市海珠区新港西路82号自编B-1区A1003-A1006、A1003A-A1005A、A2003-A2006展厅,"113.291260,23.090731",113.29126,23.090731,广州市,广东省,海珠区,新港街道,POINT (113.29126 23.090731)
904,泉州世茂摩天城店,泉州市石狮世茂广场·摩天城南区3号楼一层156号,"118.625146,24.749497",118.625146,24.749497,泉州市,福建省,石狮市,灵秀镇,POINT (118.625146 24.749497)
905,惠州新华广场,惠州市江北区26号小区惠州新华广场一层1004号单元,"114.423485,23.124355",114.423485,23.124355,惠州市,广东省,惠城区,江北街道,POINT (114.423485 23.124355)
906,南京游坊城（友谊街）,南京市建邺区友谊街36号游坊城1楼04号和2楼08号商铺,"118.720157,31.966203",118.720157,31.966203,南京市,江苏省,建邺区,建邺区河西中央商务区,POINT (118.720157 31.966203)
907,昆明广场,盘龙区联盟街道北京路与白云路交叉口928号同德昆明广场负一楼,"102.723746,25.068138",102.723746,25.068138,昆明市,云南省,盘龙区,联盟街道,POINT (102.723746 25.068138)
908,重庆熙都会店,重庆市沙坪坝区大学城景苑路8号重庆熙街三期1A-2-1号商铺,"106.303513,29.605486",106.303513,29.605486,重庆市,重庆市,沙坪坝区,虎溪街道,POINT (106.303513 29.605486)
909,营口鲅鱼圈万达店,辽宁省营口市鲅鱼圈区蝴蝶泉路45号1001号商铺,"122.147645,40.242805",122.147645,40.242805,营口市,辽宁省,鲅鱼圈区,红旗满族镇,POINT (122.147645 40.242805)
910,鲜橙广场,苏州星湖街218号鲜橙广场,"120.730598,31.259638",120.730598,31.259638,苏州市,江苏省,苏州工业园区,苏州工业园区直属镇,POINT (120.730598 31.259638)
911,大连第五郡店,辽宁省大连市甘井子区虹韵路193号2#楼2-1-1汉堡王餐厅,"121.520924,38.951728",121.520924,38.951728,大连市,辽宁省,甘井子区,辛寨子街道,POINT (121.520924 38.951728)
912,重庆首创奥特莱斯,重庆市巴南区南泉街道福鹿大道1999号重庆首创奥特莱斯一楼F1-B13号,"106.617739,29.419212",106.617739,29.419212,重庆市,重庆市,巴南区,南泉街道,POINT (106.617739 29.419212)
913,资阳万达店,资阳雁江区娇子大道120号万达广场1036号商铺,"104.619853,30.127160",104.619853,30.12716,资阳市,四川省,雁江区,三贤祠街道,POINT (104.619853 30.12716)
914,苏州印象城（现代大道）,苏州市工业园区现代大道1699号印象城购物中心3037e商铺,"120.657038,31.317509",120.657038,31.317509,苏州市,江苏省,苏州工业园区,娄葑街道,POINT (120.657038 31.317509)
915,银川金凤万达,宁夏银川市金凤区正源北街金凤万达广场一号门一层汉堡王餐厅,"106.248667,38.487042",106.248667,38.487042,银川市,宁夏回族自治区,金凤区,上海西路街道,POINT (106.248667 38.487042)
916,白云国际机场（安检外）店,广东省广州市花都区白云国际机场二号航站楼4楼陆侧餐饮集中区美食广场（国际）部分区域T24D06-6号商铺汉堡王,"113.301186,23.386253",113.301186,23.386253,广州市,广东省,花都区,花东镇,POINT (113.301186 23.386253)
917,沈阳玖伍文化城餐厅,沈阳市和平区太原北街95号,"123.401511,41.792701",123.401511,41.792701,沈阳市,辽宁省,和平区,太原街街道,POINT (123.401511 41.792701)
918,天津社会山,天津市西青区张家窝镇知景道198号社会山中心4#楼1楼128号,"117.046583,39.057069",117.046583,39.057069,天津市,天津市,西青区,张家窝镇,POINT (117.046583 39.057069)
919,北京新世界,北京市崇文门外大街 新世界百货二期青春馆1-2楼,"116.417716,39.896821",116.417716,39.896821,北京市,北京市,东城区,崇文门外街道,POINT (116.417716 39.896821)
920,北京西铁营万达广场,北京市丰台区南苑西铁营村万达广场6008A,"116.350560,39.859230",116.35056,39.85923,北京市,北京市,丰台区,南苑乡,POINT (116.35056 39.85923)
921,宁波镇海万科店,镇海区明海大道与庄市大道交叉口1902万科购物中心1楼F102室。,"121.620166,29.928040",121.620166,29.92804,宁波市,浙江省,镇海区,庄市街道,POINT (121.620166 29.92804)
922,北京国家体育馆鸟巢,北京市朝阳区国家体育场鸟巢,"116.395946,39.993427",116.395946,39.993427,北京市,北京市,朝阳区,奥运村街道,POINT (116.395946 39.993427)
923,西安彩虹谷餐厅,西安曲江新区正荣彩虹谷7号楼F1-02号商铺,"109.010861,34.193734",109.010861,34.193734,西安市,陕西省,雁塔区,曲江街道,POINT (109.010861 34.193734)
924,乌鲁木齐时代广场店,新疆乌鲁木齐天山区光明路30号时代广场一层（面向新民西街）,"87.608614,43.804052",87.608614,43.804052,乌鲁木齐市,新疆维吾尔自治区,天山区,青年路街道,POINT (87.608614 43.804052)
925,嘉定南翔慧天地,上海市嘉定区银翔路 609 号 1 层 111、112-5、116-3、117-3 号。,"121.323425,31.290428",121.323425,31.290428,上海市,上海市,嘉定区,南翔镇,POINT (121.323425 31.290428)
926,深圳领航城,深圳市宝安区航城大道与黄田路交汇处东北侧（航城路口公交站旁）,"113.851660,22.606631",113.85166,22.606631,深圳市,广东省,宝安区,西乡街道,POINT (113.85166 22.606631)
927,太原黎氏阁,太原市万柏林区金阳南路99号12号楼黎氏阁生活购物广场一层12-09,"112.482707,37.851043",112.482707,37.851043,太原市,山西省,万柏林区,小井峪街道,POINT (112.482707 37.851043)
928,田厦金牛广场店,深圳市南山区桃园路田厦金牛广场A座-1层101号商铺,"113.926772,22.532932",113.926772,22.532932,深圳市,广东省,南山区,南头街道,POINT (113.926772 22.532932)
929,重庆东原店,重庆市江北区大石坝红石路37号东原新新PARK购物中心L1A01,"106.496634,29.571239",106.496634,29.571239,重庆市,重庆市,江北区,大石坝街道,POINT (106.496634 29.571239)
930,八佰伴,宜兴市东氿区宜城街道解放东路288号宜兴八佰伴一层L1008-1009铺位。,"119.843022,31.358480",119.843022,31.35848,无锡市,江苏省,宜兴市,宜城街道,POINT (119.843022 31.35848)
931,上海凌云壹街坊,徐汇区上中西路280号1楼108号商铺,"121.425572,31.134927",121.425572,31.134927,上海市,上海市,徐汇区,凌云路街道,POINT (121.425572 31.134927)
932,宁德万达餐厅,福建省宁德市蕉城区天湖东路1号万达广场一号门入口 汉堡王餐厅,"119.538420,26.651147",119.53842,26.651147,宁德市,福建省,蕉城区,蕉南街道,POINT (119.53842 26.651147)
933,青岛泰山路餐厅,山东省青岛市市北区泰山路99号邻里中心-8商铺,"120.334956,36.083852",120.334956,36.083852,青岛市,山东省,市北区,辽宁路街道,POINT (120.334956 36.083852)
934,梅州东汇城店,梅州市梅江区三角镇客都大道梅州东汇城D1购物中心1层1119、1120、1042、1043、1044号商铺、2层2045号商铺,"116.140215,24.269799",116.140215,24.269799,梅州市,广东省,梅江区,三角镇,POINT (116.140215 24.269799)
935,上海沪闵路1#（莘庄凯德龙之梦）,闵行区沪闵路6088号凯德龙之梦广场B2层21号,"121.378497,31.107354",121.378497,31.107354,上海市,上海市,闵行区,莘庄镇,POINT (121.378497 31.107354)
936,烟台弘阳餐厅,山东省烟台市芝罘区南大街大海阳路126号,"121.376066,37.540647",121.376066,37.540647,烟台市,山东省,芝罘区,白石街道,POINT (121.376066 37.540647)
937,重庆南坪万达餐厅,重庆市南岸区江南大道8号万达广场2020-1、2020-2号商铺,"106.569086,29.525848",106.569086,29.525848,重庆市,重庆市,南岸区,南坪街道,POINT (106.569086 29.525848)
938,上海松江御上海MO街,上海市松江区梅家浜路1187 号-1 室。,"121.240224,31.051705",121.240224,31.051705,上海市,上海市,松江区,中山街道,POINT (121.240224 31.051705)
939,融创广场,南京市玄武区红山南路89号莱蒙都会广场1楼104、105号及2楼202、203号。,"118.795397,32.089408",118.795397,32.089408,南京市,江苏省,鼓楼区,小市街道,POINT (118.795397 32.089408)
940,恩平锦江大道店,恩平市锦江大道东6号购物广场A区昌大昌超市1F/33、34、35号铺,"112.344385,22.185539",112.344385,22.185539,江门市,广东省,恩平市,东成镇,POINT (112.344385 22.185539)
941,廊坊月色广场店,河北省廊坊市新华路57号月色广场一层汉堡王,"116.708974,39.521098",116.708974,39.521098,廊坊市,河北省,广阳区,解放道街道,POINT (116.708974 39.521098)
942,苏州百脑汇,苏州金阊区广济南路258号1层及2层【商铺号：1Y03、2Y01】,"120.600428,31.310880",120.600428,31.31088,苏州市,江苏省,姑苏区,金阊街道,POINT (120.600428 31.31088)
943,广州建滔大厦店,广州市天河区珠江新城花城大道18号建滔广场第 1 层第 03 号单元,"113.317442,23.118939",113.317442,23.118939,广州市,广东省,天河区,猎德街道,POINT (113.317442 23.118939)
944,西安兰岛广场餐厅,陕西省西安市高新区科技六路4号兰岛广场一层1F-013号汉堡王餐厅,"108.935682,34.229000",108.935682,34.229,西安市,陕西省,雁塔区,小寨路街道,POINT (108.935682 34.229)
945,南奉公路(奉贤苏宁),奉贤区南奉公路7500号奉贤苏宁广场10#1F121、123、124号商铺,"121.488532,30.918113",121.488532,30.918113,上海市,上海市,奉贤区,南桥镇,POINT (121.488532 30.918113)
946,天津奥城彩七汇,天津市南开区凌宾路奥城彩柒汇生活广场8号楼103号,"117.171832,39.075425",117.171832,39.075425,天津市,天津市,南开区,体育中心街道,POINT (117.171832 39.075425)
947,四海唐人街店,陕西省西安市未央区凤城三路东段2号 四海唐人街购物中心一层12-1-008,"108.962543,34.323118",108.962543,34.323118,西安市,陕西省,未央区,谭家街道,POINT (108.962543 34.323118)
948,江门美吉特店,江门市新会区启超大道9号美吉特广场旺角一层1005-1008 号商铺,"113.053312,22.498149",113.053312,22.498149,江门市,广东省,新会区,会城街道,POINT (113.053312 22.498149)
949,广州番禺喜悦天地,广州市番禺区市桥街光明北路223号喜悦天地首层127号铺,"113.361306,22.947872",113.361306,22.947872,广州市,广东省,番禺区,市桥街道,POINT (113.361306 22.947872)
950,北京远洋万和城店,北京市朝阳区北四环东路73号院1号楼一层F1-16,"116.432620,39.990796",116.43262,39.990796,北京市,北京市,朝阳区,大屯街道,POINT (116.43262 39.990796)
951,洪泽湖服务区,江苏省淮安市洪泽区高良涧街道洪泽湖服务区西区,"118.890595,33.266482",118.890595,33.266482,淮安市,江苏省,洪泽区,高良涧街道,POINT (118.890595 33.266482)
952,华远好天地,北京市通州区砖厂南里40号楼华远铭悦好天地1楼139号,"116.697226,39.870410",116.697226,39.87041,北京市,北京市,通州区,梨园镇,POINT (116.697226 39.87041)
953,西安凯德,陕西省西安市雁塔区二环南路西段64号凯德广场一层09B号,"108.936378,34.229258",108.936378,34.229258,西安市,陕西省,雁塔区,小寨路街道,POINT (108.936378 34.229258)
954,重庆国泰店,重庆市国泰临江门五四路国泰广场负一楼汉堡王,"106.576143,29.558403",106.576143,29.558403,重庆市,重庆市,渝中区,解放碑街道,POINT (106.576143 29.558403)
955,新城吾悦广场,义乌市江东东路2号义乌新城吾悦广场1楼1016号商铺,"120.104862,29.305018",120.104862,29.305018,金华市,浙江省,义乌市,江东街道,POINT (120.104862 29.305018)
956,北京外交部建外媒体中心,北京市朝阳区秀水街1号建外外交公寓14号楼东侧,"116.438552,39.910485",116.438552,39.910485,北京市,北京市,朝阳区,建外街道,POINT (116.438552 39.910485)
957,宁波北仑,浙江省宁波市北仑区富邦世纪广场C区62-1汉堡王餐厅,"121.843653,29.893653",121.843653,29.893653,宁波市,浙江省,北仑区,新碶街道,POINT (121.843653 29.893653)
958,济南汉峪金谷餐厅,山东省济南市高新区汉峪金融商务中心A1-LG-B号,"117.146544,36.657143",117.146544,36.657143,济南市,山东省,历城区,港沟街道,POINT (117.146544 36.657143)
959,徐州颐和汇临湾广场,徐州市泉山区三环南路南，永嘉太阳城北，泉山美墅东颐和汇临湾广场一楼1031号。,"117.179606,34.210357",117.179606,34.210357,徐州市,江苏省,泉山区,翟山街道,POINT (117.179606 34.210357)
960,吉林华业广场店,吉林省吉林市昌邑区嫩江街199号华业城市广场一楼1F—02号,"126.581030,43.860001",126.58103,43.860001,吉林市,吉林省,昌邑区,延安街道,POINT (126.58103 43.860001)
961,济南海尔绿城,济南市历下区海尔绿城全运村.中央广场5号楼2楼2051号商铺,"117.126972,36.643313",117.126972,36.643313,济南市,山东省,历下区,龙洞街道,POINT (117.126972 36.643313)
962,上海浦东国际机场S2,上海浦东国际机场S2 卫星厅餐饮项目13-2 号,"121.807559,31.140815",121.807559,31.140815,上海市,上海市,浦东新区,祝桥镇,POINT (121.807559 31.140815)
963,威海东方新天地,威海市环翠区文化西路173号东方新天地购物中心一层L1-005,"122.065341,37.526134",122.065341,37.526134,威海市,山东省,环翠区,怡园街道,POINT (122.065341 37.526134)
964,深圳星河盛世Coco City,深圳市龙华新区民治街道星河盛世同场B1-001星河coco city一楼L1C-032号,"114.046688,22.602673",114.046688,22.602673,深圳市,广东省,龙华区,民治街道,POINT (114.046688 22.602673)
965,湘潭城市盒子,湖南省湘潭市雨湖区雨湖路街道车站路 1 号城市盒子一层 101-1 号和二层 2-01 号,"112.907410,27.859460",112.90741,27.85946,湘潭市,湖南省,雨湖区,雨湖路街道,POINT (112.90741 27.85946)
966,吉林昌邑万达店,吉林省吉林市昌邑区吉林大街518号万达广场内1053—1055号商铺,"126.566360,43.882795",126.56636,43.882795,吉林市,吉林省,昌邑区,兴华街道,POINT (126.56636 43.882795)
967,虹桥高铁出发层,上海市闵行区虹桥高铁出发层3F-东2,"121.320609,31.193828",121.320609,31.193828,上海市,上海市,闵行区,新虹街道,POINT (121.320609 31.193828)
968,湖州万达广场店,吴兴区大升路899号万达广场1051号商铺。,"120.142122,30.860738",120.142122,30.860738,湖州市,浙江省,吴兴区,湖东街道,POINT (120.142122 30.860738)
969,武汉银泰创意城,武汉市洪山区珞瑜路35号珞珈创意城LG层LG010号,"114.355401,30.526361",114.355401,30.526361,武汉市,湖北省,洪山区,珞南街道,POINT (114.355401 30.526361)
970,宁海西子广场店,宁海县正学东路1号宁海西子国际购物中心1楼1F-07号商铺。,"121.440771,29.302902",121.440771,29.302902,宁波市,浙江省,宁海县,跃龙街道,POINT (121.440771 29.302902)
971,福州东二环二期,福州市晋安区岳峰镇化工路198路198号秦禾商务中心二区5号楼120铺汉堡王餐厅,"119.312865,26.067199",119.312865,26.067199,福州市,福建省,台江区,新港街道,POINT (119.312865 26.067199)
972,成都中粮鸿运店,成都市锦江区汇源北路鸿云悦街1F19号、1F21号商铺,"104.114606,30.636429",104.114606,30.636429,成都市,四川省,锦江区,双桂路街道,POINT (104.114606 30.636429)
973,苏州合景领汇,苏州市苏州大道东278号合景领汇3号楼101号商铺,"120.732636,31.324871",120.732636,31.324871,苏州市,江苏省,苏州工业园区,斜塘街道,POINT (120.732636 31.324871)
974,合肥瑶海万达广场,瑶海区临泉东路与和县路交叉口万达广场1001号商铺。,"117.301827,31.856007",117.301827,31.856007,合肥市,安徽省,包河区,包公街道,POINT (117.301827 31.856007)
975,北京大兴凯德,北京大兴生物医药基地12号凯德6-09C,"116.320500,39.686250",116.3205,39.68625,北京市,北京市,大兴区,北臧村镇,POINT (116.3205 39.68625)
976,珠海机场出发层B区店,广东省珠海市三灶镇海澄机场候机大楼主楼（东指廊）二楼出发指廊 2E-F-01 号商铺,"113.376646,22.008905",113.376646,22.008905,珠海市,广东省,金湾区,三灶镇,POINT (113.376646 22.008905)
977,西安金辉环球,西安市曲江新区雁塔南路885号金辉.环球广场H二期2-01--2-03,"108.966923,34.179845",108.966923,34.179845,西安市,陕西省,雁塔区,曲江街道,POINT (108.966923 34.179845)
978,上海维璟广场,闵行区七莘路1507号地上二层02-021b、021c号,"121.371119,31.119410",121.371119,31.11941,上海市,上海市,闵行区,莘庄镇,POINT (121.371119 31.11941)
979,德州万达店,山东省德州市德城区新华街道湖滨南路669号万达广场一层,"116.311677,37.429160",116.311677,37.42916,德州市,山东省,德城区,新华街道,POINT (116.311677 37.42916)
980,成都天祥广场餐厅,成都市高新区天府大道中段500号1F-32,"104.068001,30.553871",104.068001,30.553871,成都市,四川省,武侯区,桂溪街道,POINT (104.068001 30.553871)
981,静安大融城,上海市静安区沪太路1111弄9号大融城2号楼1FL123、L124号,"121.426421,31.277049",121.426421,31.277049,上海市,上海市,静安区,彭浦镇,POINT (121.426421 31.277049)
982,蚌埠银泰汉堡王,安徽省蚌埠市龙子湖区东海大道4000号蚌埠银泰城1-26商户,"117.367717,32.916263",117.367717,32.916263,蚌埠市,安徽省,蚌山区,淮河社区行政事务管理中心,POINT (117.367717 32.916263)
983,北京东升科技园,北京市海淀区西小口路66号中关村东升科技园B-6号楼B座B03,"116.357059,40.045892",116.357059,40.045892,北京市,北京市,海淀区,东升镇,POINT (116.357059 40.045892)
984,沈阳天空之城餐厅,辽宁省沈阳市铁西区建设中路52号天空之城一层1006号,"123.355368,41.801780",123.355368,41.80178,沈阳市,辽宁省,铁西区,兴顺街道,POINT (123.355368 41.80178)
985,无锡哥伦布店,无锡广南路315 - 18 号哥伦布广场一层1J - 04 号。,"120.335058,31.591784",120.335058,31.591784,无锡市,江苏省,梁溪区,广益街道,POINT (120.335058 31.591784)
986,天津冠德环球店,天津市西青区中北镇阜锦道与万卉路交口环球影城一层汉堡王,"117.091820,39.140603",117.09182,39.140603,天津市,天津市,西青区,中北镇,POINT (117.09182 39.140603)
987,沈阳碧桂园店,沈阳市于洪区汪河路99号碧桂园银河商业广场1楼108,"123.345567,41.750678",123.345567,41.750678,沈阳市,辽宁省,于洪区,城东湖街道,POINT (123.345567 41.750678)
988,沈阳环宇城店,沈阳市皇姑区塔湾街11号甲中海环宇城一楼汉堡王餐厅,"123.375982,41.827363",123.375982,41.827363,沈阳市,辽宁省,皇姑区,寿泉街道,POINT (123.375982 41.827363)
989,重庆龙湖源著天街,重庆市江北区福康路25号龙湖.源著天街A-LG-11号商铺,"106.489631,29.598944",106.489631,29.598944,重庆市,重庆市,江北区,石马河街道,POINT (106.489631 29.598944)
990,中山利和店,中山市东区中山三路16号之一利和广场购物中心首层123号铺,"113.383126,22.512333",113.383126,22.512333,中山市,广东省,[],东区街道,POINT (113.383126 22.512333)
991,深圳嘉汇新城店,广东省深圳市福田区福华路嘉汇新城1层L112/L124,"114.080496,22.538382",114.080496,22.538382,深圳市,广东省,福田区,福田街道,POINT (114.080496 22.538382)
992,成都银泰中心,四川省成都市高新区天府大道北段1199号,"104.070274,30.585219",104.070274,30.585219,成都市,四川省,武侯区,桂溪街道,POINT (104.070274 30.585219)
993,西安群光广场,西安市新城区南新街21号群光广场1F NO:1D01,"108.954624,34.260098",108.954624,34.260098,西安市,陕西省,新城区,西一路街道,POINT (108.954624 34.260098)
994,深圳东海花园店,深圳市福田区香轩路东海花园福禄居4号商店一层商场G18B号铺,"114.025528,22.538077",114.025528,22.538077,深圳市,广东省,福田区,香蜜湖街道,POINT (114.025528 22.538077)
995,上海共和新路,上海市静安区共和新路4766号宏慧.新汇园1号楼105号商铺,"121.446588,31.318676",121.446588,31.318676,上海市,上海市,静安区,彭浦新村街道,POINT (121.446588 31.318676)
996,成都天府三街,成都市高新区天府三街288号3栋附4号、5号、6号和云华路307号、309号、311号、313号商铺,"104.060736,30.545774",104.060736,30.545774,成都市,四川省,武侯区,桂溪街道,POINT (104.060736 30.545774)
997,宁波镇海吾悦店,宁波市镇海区永茂西路999号新城吾悦广场1022号商铺。,"121.596837,29.949578",121.596837,29.949578,宁波市,浙江省,镇海区,骆驼街道,POINT (121.596837 29.949578)
998,深圳机场GTC（二楼到达厅）,深圳市宝安区福永街道宝安国际机场GTC-214,"113.811929,22.627390",113.811929,22.62739,深圳市,广东省,宝安区,深圳市宝安国际机场,POINT (113.811929 22.62739)
999,天津聚源广场,天津市河北区鸿顺里街五马路300号全球购跨境购物中心一层W04号,"117.187465,39.155479",117.187465,39.155479,天津市,天津市,河北区,鸿顺里街道,POINT (117.187465 39.155479)
1000,欧亚新生活店,吉林省长春市朝阳区延安大街99号欧亚新生活购物中心一楼,"125.305876,43.863768",125.305876,43.863768,长春市,吉林省,朝阳区,红旗街道,POINT (125.305876 43.863768)
1001,上海罗店宝龙,上海市宝山区杨南路2211号罗店宝龙广场，店铺号M-1F-006-1/007/017,"121.358489,31.388640",121.358489,31.38864,上海市,上海市,宝山区,罗店镇,POINT (121.358489 31.38864)
1002,河源热水服务区北区店,广东省河源市东源县粤赣高速公路热水服务区（北区）汉堡王餐厅,"114.749068,23.822329",114.749068,23.822329,河源市,广东省,东源县,仙塘镇,POINT (114.749068 23.822329)
1003,龙岗天安数码城,深圳市龙岗区黄阁路龙岗天安数码新城天安活力广场一层2142、2143、2145、2146及二层2146号商铺,"114.216859,22.719675",114.216859,22.719675,深圳市,广东省,龙岗区,龙城街道,POINT (114.216859 22.719675)
1004,南京南方时代广场（润发路）,江宁区润发路与万福路交汇处南方时代购物中心1楼1001号。,"118.878932,31.997682",118.878932,31.997682,南京市,江苏省,江宁区,东山街道,POINT (118.878932 31.997682)
1005,南充江东大道店,南充市高坪区江东大道5 段309 号王府井购物中心1 楼1007 号,"106.105103,30.787639",106.105103,30.787639,南充市,四川省,高坪区,白塔街道,POINT (106.105103 30.787639)
1006,无锡百乐广场店,无锡盛岸西路331-158和331-159百乐广场3号楼一楼1041号,"120.242810,31.606550",120.24281,31.60655,无锡市,江苏省,惠山区,钱桥街道,POINT (120.24281 31.60655)
1007,苏州环球财富广场（苏惠路）,工业园区苏惠路88号环球财富广场3幢楼1楼109号商铺。,"120.670074,31.313776",120.670074,31.313776,苏州市,江苏省,苏州工业园区,娄葑街道,POINT (120.670074 31.313776)
1008,复兴路五棵松卓展,北京市复兴路69号卓展购物中心B1,"116.277664,39.913077",116.277664,39.913077,北京市,北京市,海淀区,万寿路街道,POINT (116.277664 39.913077)
1009,南山来福士广场,深圳市南山区创业路3023号公园一号广场裙楼2层20号,"113.925129,22.515508",113.925129,22.515508,深圳市,广东省,南山区,南山街道,POINT (113.925129 22.515508)
1010,天津小白楼,天津市和平区开封道44-45号,"117.215505,39.115795",117.215505,39.115795,天津市,天津市,和平区,小白楼街道,POINT (117.215505 39.115795)
1011,北京爱琴海,北京市朝阳区七圣中街12号院2号楼F1006号爱琴海商场西侧,"116.436181,39.970648",116.436181,39.970648,北京市,北京市,朝阳区,太阳宫镇,POINT (116.436181 39.970648)
1012,合肥包河万达广场,安徽省合肥市包河区马鞍山路130号包河万达广场C区4-1#的1117-1151号商铺,"117.302566,31.856266",117.302566,31.856266,合肥市,安徽省,包河区,包公街道,POINT (117.302566 31.856266)
1013,王府井购物中心,江西省南昌市青云谱区洪城路158号南昌王府井购物中心2F-011/012商铺,"115.905042,28.655042",115.905042,28.655042,南昌市,江西省,西湖区,十字街街道,POINT (115.905042 28.655042)
1014,刺桐关服务区汉堡王,云南省昆明市昆玉高速刺桐关服务区,"102.782820,25.002915",102.78282,25.002915,昆明市,云南省,官渡区,昆明经济技术开发区,POINT (102.78282 25.002915)
1015,常德万达餐厅,湖南省常德市武陵区皂果路1099号万达广场一楼一号门1003A铺位,"111.681369,29.055727",111.681369,29.055727,常德市,湖南省,武陵区,南坪街道,POINT (111.681369 29.055727)
1016,东航餐厅,四川省成都市双流区临港路一段32号成都东航中心5126、5127号,"103.975466,30.565003",103.975466,30.565003,成都市,四川省,双流区,西航港街道,POINT (103.975466 30.565003)
1017,三亚亚龙湾百花谷,海南省三亚市亚龙湾百花谷一层RT02位置B104/106区,"109.629181,18.242676",109.629181,18.242676,三亚市,海南省,吉阳区,吉阳镇,POINT (109.629181 18.242676)
1019,芜湖柏庄时代广场店,弋江区九华南路与大工山路交叉口4#1 - 15A，4#1 - 16A号。,"118.381944,31.292872",118.381944,31.292872,芜湖市,安徽省,弋江区,瀂港街道,POINT (118.381944 31.292872)
1020,龙湖锦艺城,河南省郑州市新郑市龙湖镇双湖大道152号龙湖锦艺城1层1F-08号,"113.726265,34.613733",113.726265,34.613733,郑州市,河南省,新郑市,龙湖镇,POINT (113.726265 34.613733)
1021,成都瑞安城中汇,成都金牛区解放路139号瑞安城中汇,"104.091843,30.693119",104.091843,30.693119,成都市,四川省,金牛区,驷马桥街道,POINT (104.091843 30.693119)
1022,广州花城汇北区,广东省广州市天河区黄埔大道西74号花城汇负一层,"113.324772,23.126301",113.324772,23.126301,广州市,广东省,天河区,冼村街道,POINT (113.324772 23.126301)
1023,天津泰达时尚广场,天津市经济技术开发区第五大街北海路泰达时尚汉堡王B座101,"117.726306,39.033967",117.726306,39.033967,天津市,天津市,滨海新区,开发区,POINT (117.726306 39.033967)
1024,宜昌万达,宜昌市伍家岗区沿江大道万达广场特168号,"111.307444,30.680193",111.307444,30.680193,宜昌市,湖北省,伍家岗区,万寿桥街道,POINT (111.307444 30.680193)
1025,上海宝安公路,上海市嘉定区宝安公路3386、3390、3456 号大融城1楼126号商铺,"121.278852,31.330166",121.278852,31.330166,上海市,上海市,嘉定区,马陆镇,POINT (121.278852 31.330166)
1026,苏州吴江财智中心,"苏州市吴江区松陵镇体育路508号金鹰商业中心2,3幢体育路518号","120.645015,31.143885",120.645015,31.143885,苏州市,江苏省,吴江区,太湖新城镇,POINT (120.645015 31.143885)
1027,北京优盛大厦餐厅,北京市海淀区成府路28号邦泰优盛大厦1层101室41号,"116.339300,39.992670",116.3393,39.99267,北京市,北京市,海淀区,学院路街道,POINT (116.3393 39.99267)
1028,大连软景中心,辽宁省大连软件园路1A-5号软景中心5号楼一楼,"121.540700,38.887401",121.5407,38.887401,大连市,辽宁省,沙河口区,[],POINT (121.5407 38.887401)
1029,泰州温莎小镇店,泰州药城大道北侧东方小镇欧洲街一层P-02号,"119.903004,32.397991",119.903004,32.397991,泰州市,江苏省,海陵区,医药城,POINT (119.903004 32.397991)
1030,重庆滨河大道（綦江万达广场）,重庆市綦江滨河大道27号万达广场一层1037-1038,"106.675925,29.033662",106.675925,29.033662,重庆市,重庆市,綦江区,文龙街道,POINT (106.675925 29.033662)
1031,深圳南山生态科技园店,深圳市南山区沙河西路1809号深圳湾科技生态园2栋C区01层06、07号,"113.953502,22.529271",113.953502,22.529271,深圳市,广东省,南山区,粤海街道,POINT (113.953502 22.529271)
1032,上海近铁城市广场,上海市普陀区真北路 726 弄3号B2-06商铺,"121.378243,31.231515",121.378243,31.231515,上海市,上海市,普陀区,长征镇,POINT (121.378243 31.231515)
1033,镇江苏宁,镇江市京口区中山东路301号镇江苏宁广场负一层B101+B101b号商铺。,"119.453226,32.204189",119.453226,32.204189,镇江市,江苏省,京口区,健康路街道,POINT (119.453226 32.204189)
1034,观澜湖,海南省海口市龙华区羊山大道39号东方汇15栋1楼,"110.329644,19.917183",110.329644,19.917183,海口市,海南省,龙华区,龙桥镇,POINT (110.329644 19.917183)
1035,深圳中英街一号,广东省深圳市盐田区杀神路与海涛路交汇处嘉信蓝海华,"114.234733,22.550113",114.234733,22.550113,深圳市,广东省,盐田区,海山街道,POINT (114.234733 22.550113)
1036,成都金堂县万达,四川省成都市金堂县万泰街6号万达广场一层1002-1003A号商铺,"104.416549,30.852971",104.416549,30.852971,成都市,四川省,金堂县,赵镇街道,POINT (104.416549 30.852971)
1037,西安文景广场,西安经济技术开发区凤城十一路文景商务广场商业裙房一层01,"108.937903,34.356046",108.937903,34.356046,西安市,陕西省,未央区,汉城街道,POINT (108.937903 34.356046)
1038,合肥银泰城,安徽省合肥市蜀山区东流路778号华邦银泰城B1层,"117.233585,31.818238",117.233585,31.818238,合肥市,安徽省,蜀山区,荷叶地街道,POINT (117.233585 31.818238)
1039,长春摩天活力城店,吉林省长春市南关区仙台大街与卫星路交汇摩天活力城负一层舞台旁汉堡王,"125.377296,43.833599",125.377296,43.833599,长春市,吉林省,二道区,[],POINT (125.377296 43.833599)
1040,北京怀柔万达,北京市怀柔区府前西街1号院1号楼万达广场2020号,"116.227770,39.905983",116.22777,39.905983,北京市,北京市,石景山区,鲁谷街道,POINT (116.22777 39.905983)
1041,郑州绿地千玺中心,河南省郑州市郑东新区CBD中心千玺广场汉堡王餐厅,"113.726724,34.770366",113.726724,34.770366,郑州市,河南省,金水区,如意湖街道,POINT (113.726724 34.770366)
1042,重庆金港店,重庆市渝北区双凤桥街道金港国际南门10，11-1-26及L379商铺,"106.632726,29.713945",106.632726,29.713945,重庆市,重庆市,渝北区,双龙湖街道,POINT (106.632726 29.713945)
1043,许昌亨源通,许昌市莲城大道与智慧大道交叉口西南角亨源通世纪广场一层,"113.851432,34.029896",113.851432,34.029896,许昌市,河南省,魏都区,半截河街道,POINT (113.851432 34.029896)
1044,上海虹口龙之梦,上海市虹口区西江湾路388号地下二层B2-68&B2-69,"121.477568,31.271559",121.477568,31.271559,上海市,上海市,虹口区,广中路街道,POINT (121.477568 31.271559)
1045,福州利嘉餐厅,福州市五一中路169号利嘉正门南侧,"119.313095,26.067583",119.313095,26.067583,福州市,福建省,台江区,新港街道,POINT (119.313095 26.067583)
1046,哈尔滨哈西万达店,哈尔滨市南岗区中兴大道168号一层1067A 1068号,"126.593698,45.700331",126.593698,45.700331,哈尔滨市,黑龙江省,南岗区,哈西街道,POINT (126.593698 45.700331)
1047,厦门国贸金融,福建省厦门市湖里区仙岳路美岁城负一楼B119-120号商铺,"118.178287,24.504828",118.178287,24.504828,厦门市,福建省,湖里区,金山街道,POINT (118.178287 24.504828)
1048,天津恒隆餐厅,天津市和平区和平路恒隆广场B1,"117.199914,39.128026",117.199914,39.128026,天津市,天津市,和平区,小白楼街道,POINT (117.199914 39.128026)
1049,上海悠方购物公园,上海市杨浦区新江湾城街道殷行路1388弄悠方购物公园【A21L1a、A2iL1b、A21-1】号商铺。,"121.507810,31.330479",121.50781,31.330479,上海市,上海市,杨浦区,新江湾城街道,POINT (121.50781 31.330479)
1050,西安粉巷广济街,西安市碑林区南广济街77号8号楼一层A6,"108.938130,34.257743",108.93813,34.257743,西安市,陕西省,碑林区,南院门街道,POINT (108.93813 34.257743)
1051,阜阳怡和城市广场,阜阳市颍州区清河路与阜南路交叉口怡和城市广场一楼汉堡王餐厅,"115.799109,32.891162",115.799109,32.891162,阜阳市,安徽省,颍州区,清河街道,POINT (115.799109 32.891162)
1052,桂林新梦店,广西桂林市象山区中山中路20号梦之岛百货二层,"110.293667,25.273323",110.293667,25.273323,桂林市,广西壮族自治区,象山区,象山街道,POINT (110.293667 25.273323)
1053,西安老城根餐厅,西安市莲湖区星火路22号老城根1F-04,"108.921769,34.283767",108.921769,34.283767,西安市,陕西省,莲湖区,红庙坡街道,POINT (108.921769 34.283767)
1054,广州番禺鸿福路,广州市番禺区钟村街家兴二街首层15、17、19号商铺；鸿福路首层91、93号铺,"113.329854,22.967912",113.329854,22.967912,广州市,广东省,番禺区,钟村街道,POINT (113.329854 22.967912)
1055,大连柏都荟,大连金州区光明街道胜利路180号柏都荟购物广场一楼,"121.709985,39.100215",121.709985,39.100215,大连市,辽宁省,金州区,光明街道,POINT (121.709985 39.100215)
1056,江门丰乐路（江门奥园广场）,江门市蓬江区丰乐路140号奥园广场,"113.092791,22.616397",113.092791,22.616397,江门市,广东省,蓬江区,环市街道,POINT (113.092791 22.616397)
1057,十里河餐厅,北京市朝阳区弘燕南一路北三楼玺承食荟A-105汉堡王餐厅,"116.462417,39.866195",116.462417,39.866195,北京市,北京市,朝阳区,十八里店镇,POINT (116.462417 39.866195)
1058,泉州海泰禾店,福建省泉州市丰泽区通港西街与东滨大道交汇处东海泰禾广场17号楼一层、二层、L123、L218号商铺,"118.639856,24.871951",118.639856,24.871951,泉州市,福建省,丰泽区,东海街道,POINT (118.639856 24.871951)
1059,呼和浩特维多利时代城店,呼和浩特回民区中山西路1号海亮广场A栋015号,"111.669445,40.815100",111.669445,40.8151,呼和浩特市,内蒙古自治区,回民区,中山西路街道,POINT (111.669445 40.8151)
1060,温州瑞安吾悦广场,瑞安市瑞祥大道1158号瑞安新城吾悦广场1幢1楼1027号,"120.663559,27.782421",120.663559,27.782421,温州市,浙江省,瑞安市,安阳街道,POINT (120.663559 27.782421)
1061,财富中心餐厅,北京市朝阳区东三环中路7号院财富购物中心一层1-15-8,"116.458546,39.918037",116.458546,39.918037,北京市,北京市,朝阳区,呼家楼街道,POINT (116.458546 39.918037)
1062,临沂颐高店,山东省临沂市兰山区沂蒙路与上海路交汇处颐高上海街二期1061号,"118.344445,35.111062",118.344445,35.111062,临沂市,山东省,兰山区,柳青街道,POINT (118.344445 35.111062)
1063,珠海中安广场,广东省珠海市香洲区港昌路258号101商铺2号铺,"113.531245,22.229504",113.531245,22.229504,珠海市,广东省,香洲区,拱北街道,POINT (113.531245 22.229504)
1064,济南丁豪广场,济南市高新区工业南路44号丁豪广场一层西侧,"117.123191,36.681031",117.123191,36.681031,济南市,山东省,历下区,舜华路街道,POINT (117.123191 36.681031)
1065,T4待用,台州市椒江区开发大道790号万达广场1楼汉堡王餐厅,"121.416000,28.637125",121.416,28.637125,台州市,浙江省,椒江区,白云街道,POINT (121.416 28.637125)
1066,太原北美新天地餐厅,山西省太原市长风街11号北美新天地1栋5层F535,"112.562649,37.816850",112.562649,37.81685,太原市,山西省,小店区,平阳路街道,POINT (112.562649 37.81685)
1067,天津爱琴海餐厅,天津市河东区琳科东路68号（爱琴海购物公园）1F143、2F251a号房,"117.254273,39.121803",117.254273,39.121803,天津市,天津市,河东区,上杭路街道,POINT (117.254273 39.121803)
1068,北京金台夕照店,北京市朝阳区东三环中路7号财富购物中心1F-11,"116.458546,39.918037",116.458546,39.918037,北京市,北京市,朝阳区,呼家楼街道,POINT (116.458546 39.918037)
1069,天津现代城伊势丹餐厅,天津市南京路108号伊势丹商场地下2层,"117.197268,39.117590",117.197268,39.11759,天津市,天津市,和平区,体育馆街道,POINT (117.197268 39.11759)
1070,沈阳机场,辽宁省沈阳市桃仙机场T3航站楼进站口,"123.493168,41.633430",123.493168,41.63343,沈阳市,辽宁省,浑南区,桃仙街道,POINT (123.493168 41.63343)
1071,天津远洋未来城,天津市河东区华捷道60号远洋未来广场一层,"117.220960,39.138893",117.22096,39.138893,天津市,天津市,河东区,春华街道,POINT (117.22096 39.138893)
1072,昆山弥敦城,昆山弥敦城昆山开发区衡山路58号琨华弥敦城1FA1005、A1006号,"120.974484,31.354667",120.974484,31.354667,苏州市,江苏省,昆山市,开发区,POINT (120.974484 31.354667)
1073,石家庄嘉和广场店,河北省石家庄市中山东路567号嘉和广场4号楼商业4-106商铺,"114.558311,38.044166",114.558311,38.044166,石家庄市,河北省,长安区,谈固街道,POINT (114.558311 38.044166)
1074,天津MSD,天津市经济技术开发区第二大街58号泰达MSD-A/B区26号,"117.706412,39.023866",117.706412,39.023866,天津市,天津市,滨海新区,开发区,POINT (117.706412 39.023866)
1075,重庆机场T3,"重庆江北国际机场T3航站楼三层中心商业区L3E25,L3C01号商铺","106.655311,29.709478",106.655311,29.709478,重庆市,重庆市,渝北区,两路街道,POINT (106.655311 29.709478)
1076,通化欧亚店,吉林省通化市江沿路888号欧亚购物中心负1层汉堡王,"125.936816,41.708024",125.936816,41.708024,通化市,吉林省,东昌区,民主街道,POINT (125.936816 41.708024)
1077,济南CCpark,山东省济南市历下区千佛山路1号CCPARK中心1层汉堡王餐厅,"117.030072,36.653313",117.030072,36.653313,济南市,山东省,历下区,千佛山街道,POINT (117.030072 36.653313)
1078,苏州火车站,江苏省苏州市姑苏区车站路27号苏州火车站到达层北广场负一层,"120.611172,31.330663",120.611172,31.330663,苏州市,江苏省,姑苏区,苏锦街道,POINT (120.611172 31.330663)
1079,深圳西荟城,深圳市宝安区沙井街道新沙路南侧西荟城购物广场一期B区G1层18和19号街铺,"113.817424,22.731913",113.817424,22.731913,深圳市,广东省,宝安区,沙井街道,POINT (113.817424 22.731913)
1080,郑州华强城市广场,河南省郑州市高新区电厂路与五龙口南路交汇处向北300米路西华强城市广场,"113.602916,34.791325",113.602916,34.791325,郑州市,河南省,中原区,石佛镇,POINT (113.602916 34.791325)
1081,长沙中信中海环宇城店,天心区中意二路111号中信城市广场二期1楼L-12-R号。,"112.986108,28.067944",112.986108,28.067944,长沙市,湖南省,天心区,先锋街道,POINT (112.986108 28.067944)
1082,葫芦岛飞天广场店,辽宁省葫芦岛市龙港区龙湾大街48号楼J一层,"120.851673,40.721481",120.851673,40.721481,葫芦岛市,辽宁省,龙港区,玉皇街道,POINT (120.851673 40.721481)
1083,武汉中南店,武汉市中南路地铁2号线ZN011号商铺。,"114.334556,30.541087",114.334556,30.541087,武汉市,湖北省,武昌区,中南路街街道,POINT (114.334556 30.541087)
1084,广州保利天悦餐厅,广州市海珠区宸悦路7号106房,"113.381476,23.101272",113.381476,23.101272,广州市,广东省,海珠区,琶洲街道,POINT (113.381476 23.101272)
1085,上海世博园,上海市浦东新区世博大道1368号B2层5B07室,"121.490010,31.182600",121.49001,31.1826,上海市,上海市,浦东新区,上钢新村街道,POINT (121.49001 31.1826)
1086,大连亿和城店,辽宁省大连市甘井子区中华西路21号亿合城购物中心地下一层,"121.587552,38.990811",121.587552,38.990811,大连市,辽宁省,甘井子区,中华路街道,POINT (121.587552 38.990811)
1087,重庆金辉广场店,中国重庆市南岸区风临路15号4-1-2A号商铺,"106.540271,29.527184",106.540271,29.527184,重庆市,重庆市,南岸区,铜元局街道,POINT (106.540271 29.527184)
1088,太原北美N1,山西省太原市晋阳街与体育路交汇处东北角N1购物中心1层F122、123、124,"112.571441,37.789042",112.571441,37.789042,太原市,山西省,小店区,坞城街道,POINT (112.571441 37.789042)
1089,成都锦江区华熙528,四川省成都市锦江区雨树巷25号L1层401/402/404A,"104.080989,30.657689",104.080989,30.657689,成都市,四川省,锦江区,春熙路街道,POINT (104.080989 30.657689)
1090,上海市华发路（东阔广场）,上海市徐汇区华发路254号和272号#108、109、119汉堡王商铺,"121.449977,31.127252",121.449977,31.127252,上海市,上海市,徐汇区,华泾镇,POINT (121.449977 31.127252)
1091,长春同志街店,长春市朝阳区同志街与隆礼路交汇。中东淘宝镇一层，汉堡王,"125.318257,43.868471",125.318257,43.868471,长春市,吉林省,朝阳区,桂林街道,POINT (125.318257 43.868471)
1092,西安新兴广场,西安市碑林区互助路66号新兴新庆坊二期5#商业楼一层1-011,"108.992219,34.261841",108.992219,34.261841,西安市,陕西省,碑林区,长乐坊街道,POINT (108.992219 34.261841)
1093,上海成山巴黎春天,上海市浦东新区成山路1993号巴黎春天成山店B1F层156#商铺,"121.536077,31.178862",121.536077,31.178862,上海市,上海市,浦东新区,北蔡镇,POINT (121.536077 31.178862)
1094,北京宝苑,北京市丰台区南苑路166号宝苑国际购物中心1FB-09号,"116.408569,39.809239",116.408569,39.809239,北京市,北京市,丰台区,南苑乡,POINT (116.408569 39.809239)
1095,嘉兴中关村店,嘉兴市秀洲区高照街道中山西路1911号嘉兴中关村广场购物中心1楼F1 - 101号。,"120.687948,30.757605",120.687948,30.757605,嘉兴市,浙江省,秀洲区,高照街道,POINT (120.687948 30.757605)
1096,上海徐汇日月光中心,上海市徐汇区漕宝路33号徐汇日月光中心商场B1层28号。,"121.432510,31.168551",121.43251,31.168551,上海市,上海市,徐汇区,田林街道,POINT (121.43251 31.168551)
1097,安阳文峰十二府,安阳市文峰区文峰大道汇商住小区一层A101,"114.351539,36.097450",114.351539,36.09745,安阳市,河南省,文峰区,西大街街道,POINT (114.351539 36.09745)
1098,镇江吾悦广场,江苏省镇江市，新区丁卯桥路223号吾悦广场1017/1018,"119.496896,32.177777",119.496896,32.177777,镇江市,江苏省,京口区,丁卯街道,POINT (119.496896 32.177777)
1099,驻马店乐山商场,驻马店市乐山路与金雀交叉路口乐山商场一楼,"114.028635,32.999530",114.028635,32.99953,驻马店市,河南省,驿城区,金河街道,POINT (114.028635 32.99953)
1100,上海三林店,上海市浦东新区上南路4397号一层111-2,"121.512697,31.141034",121.512697,31.141034,上海市,上海市,浦东新区,东明路街道,POINT (121.512697 31.141034)
1101,杭州瓶窑广场,余杭区瓶窑镇华兴路199号恒德瓶窑广场1楼1F - 2、1F - 3、1F - 30、1F - 31号商铺。,"119.978563,30.389097",119.978563,30.389097,杭州市,浙江省,余杭区,瓶窑镇,POINT (119.978563 30.389097)
1102,天津富力广场,天津市南开区北马路与城厢西路交口富力大厦一层,"117.175122,39.145106",117.175122,39.145106,天津市,天津市,南开区,鼓楼街道,POINT (117.175122 39.145106)
1103,西双版纳泼水广场店,云南省西双版纳景洪市泼水商业广场C区B栋一层1001号,"100.807036,22.004270",100.807036,22.00427,西双版纳傣族自治州,云南省,景洪市,允景洪街道,POINT (100.807036 22.00427)
1104,珠海华发商都,珠海市珠海大道8号华发商都2号楼1层B1001号商铺,"113.510896,22.224596",113.510896,22.224596,珠海市,广东省,香洲区,南屏镇,POINT (113.510896 22.224596)
1105,北京龙湖,北京市大兴区永兴路7号院1号楼龙湖天街BJSDTJSY-2F-19,"116.319745,39.687166",116.319745,39.687166,北京市,北京市,大兴区,黄村镇,POINT (116.319745 39.687166)
1106,北京回龙观首开餐厅,北京市昌平区回龙观东大街318号院1号楼1层汉堡王门店,"116.319364,40.074447",116.319364,40.074447,北京市,北京市,昌平区,龙泽园街道,POINT (116.319364 40.074447)
1107,句容中央广场店,句容市华阳东路中央广场一楼汉堡王餐厅,"119.167333,31.947629",119.167333,31.947629,镇江市,江苏省,句容市,华阳镇,POINT (119.167333 31.947629)
1108,廊坊新朝阳餐厅,廊坊市广阳区爱民东道109号新朝阳广场二期B1层B1021号,"116.725470,39.526428",116.72547,39.526428,廊坊市,河北省,广阳区,解放道街道,POINT (116.72547 39.526428)
1109,淄博华光路店,山东省淄博市华光路与世纪路交叉口乐都汇商城一楼汉堡王餐厅,"118.026815,36.822236",118.026815,36.822236,淄博市,山东省,张店区,科苑街道,POINT (118.026815 36.822236)
1110,台山昌大昌店,台山市台城舜德路133号金茂广场E座首层1035、1036、1037、1038、1042、1043、1044号商铺,"112.826685,22.245084",112.826685,22.245084,江门市,广东省,台山市,台城街道,POINT (112.826685 22.245084)
1111,置汇旭辉广场,上海市浦东新区张杨路2389弄1-2号置汇旭辉广场购物中心B1层03室。,"121.545101,31.236498",121.545101,31.236498,上海市,上海市,浦东新区,洋泾街道,POINT (121.545101 31.236498)
1112,北京光耀东方,北京市海淀区羊坊店路18号光耀东方地上1层077号汉堡王,"116.322078,39.899256",116.322078,39.899256,北京市,北京市,海淀区,羊坊店街道,POINT (116.322078 39.899256)
1113,上海丁香路,上海市浦东新区丁香路880弄丁香国际商业中心B203单元,"121.551070,31.225366",121.55107,31.225366,上海市,上海市,浦东新区,花木街道,POINT (121.55107 31.225366)
1114,沈阳家乐福金牛店,沈阳市铁西区沈辽中路5号金牛家乐福JN_114,"123.359263,41.780198",123.359263,41.780198,沈阳市,辽宁省,铁西区,艳粉街道,POINT (123.359263 41.780198)
1115,内江汉安大道店,四川省内江市东兴区汉安大道西段89号路/街内江华联购物中心一层F1-26a/F1-27单位,"105.064211,29.603674",105.064211,29.603674,内江市,四川省,东兴区,西林街道,POINT (105.064211 29.603674)
1116,佛山滘口路（佛山永旺）,广东省佛山市南海区大沥镇联滘滘口路13号永旺梦乐城1层177号商铺,"113.144609,23.113812",113.144609,23.113812,佛山市,广东省,南海区,大沥镇,POINT (113.144609 23.113812)
1117,成都大邑凯旋购物中心,四川省成都市大邑县大邑大道2号、4号、20号附201号,"103.525074,30.567369",103.525074,30.567369,成都市,四川省,大邑县,晋原街道,POINT (103.525074 30.567369)
1118,北京航天梅源商厦,北京市丰台区六营门航天梅源商厦1F,"116.419525,39.798095",116.419525,39.798095,北京市,北京市,丰台区,东高地街道,POINT (116.419525 39.798095)
1119,信阳南虹广场,信阳市浉河区申城大道与化工路交叉口南虹广场一层汉堡王,"114.099086,32.102079",114.099086,32.102079,信阳市,河南省,浉河区,车站街道,POINT (114.099086 32.102079)
1120,坂田彩生活,深圳市龙岗区坂田街道坂雪岗大道4033号彩生活时代广场B1层05号商铺,"114.070014,22.655899",114.070014,22.655899,深圳市,广东省,龙岗区,坂田街道,POINT (114.070014 22.655899)
1121,溧阳上河城店,溧阳平陵中路369号上和城购物中心A区1306、2306号商铺,"119.480164,31.426057",119.480164,31.426057,常州市,江苏省,溧阳市,溧城镇,POINT (119.480164 31.426057)
1122,福州世纪金源餐厅,福州市仓山区林浦路闽江世纪金源购物中心一层,"119.358808,26.023445",119.358808,26.023445,福州市,福建省,仓山区,城门镇,POINT (119.358808 26.023445)
1123,北京乐多港餐厅,北京市昌平区城南街道乐多港奥特莱斯购物中心区B-046,"116.190798,40.228713",116.190798,40.228713,北京市,北京市,昌平区,城南街道,POINT (116.190798 40.228713)
1124,太原茂业餐厅,山西省太原市亲贤北街79号茂业天地购物中心1楼1018号,"112.567011,37.824908",112.567011,37.824908,太原市,山西省,小店区,营盘街道,POINT (112.567011 37.824908)
1125,余之城,浙江省杭州市余杭区南苑街道迎宾路501号余之城125、127号商铺,"120.304864,30.393635",120.304864,30.393635,杭州市,浙江省,余杭区,南苑街道,POINT (120.304864 30.393635)
1126,广州中国大酒店,广州市越秀区流花路【中国大酒店】【一】楼,"113.259862,23.139842",113.259862,23.139842,广州市,广东省,越秀区,流花街道,POINT (113.259862 23.139842)
1127,郑州富田一站广场,郑州市航海路与中州大道交叉口西南角郑州一站广场商业有限公司一层B1026号商铺,"113.715739,34.723467",113.715739,34.723467,郑州市,河南省,管城回族区,航海东路街道,POINT (113.715739 34.723467)
1128,银川鼓楼新华百货店,宁夏省银川市兴庆区解放街与步行街交汇处新百ccmall一层汉堡王,"106.280560,38.464758",106.28056,38.464758,银川市,宁夏回族自治区,兴庆区,新华街街道,POINT (106.28056 38.464758)
1129,威海银座一店,山东省威海市环翠区世昌大道1号银座商城一楼,"122.126793,37.498852",122.126793,37.498852,威海市,山东省,环翠区,环翠楼街道,POINT (122.126793 37.498852)
1130,重庆石桥,重庆市九龙坡区渝州路59 号石桥STYLE 广场购物中心一楼31 号,"106.491285,29.534535",106.491285,29.534535,重庆市,重庆市,九龙坡区,渝州路街道,POINT (106.491285 29.534535)
1131,城开中庚漫游城,上海市闵行区闵虹路8号中庚漫游城一楼145 ，146商铺,"121.389810,31.128586",121.38981,31.128586,上海市,上海市,闵行区,古美街道,POINT (121.38981 31.128586)
1132,东营金尊广场,山东省东营市东城区东三路138号金尊广场一层,"118.663930,37.443069",118.66393,37.443069,东营市,山东省,东营区,东城街道,POINT (118.66393 37.443069)
1133,苏州吴中万达（石湖西路）,江苏省苏州市吴中区石湖西路188号万达广场1045号商铺,"120.608272,31.253170",120.608272,31.25317,苏州市,江苏省,吴中区,长桥街道,POINT (120.608272 31.25317)
1134,北京长阳绿地,北京市房山区长阳镇绿地缤纷城,"116.160577,39.756054",116.160577,39.756054,北京市,北京市,房山区,拱辰街道,POINT (116.160577 39.756054)
1135,重庆仁安N+,重庆市渝北区新溉大道885号附1.2-2,"106.540261,29.599167",106.540261,29.599167,重庆市,重庆市,渝北区,龙塔街道,POINT (106.540261 29.599167)
1136,北京方庄时代,北京市丰台区芳星园二区甲3号方庄生活时代广场1F,"116.435445,39.865506",116.435445,39.865506,北京市,北京市,丰台区,方庄镇,POINT (116.435445 39.865506)
1137,万荣大宁中心,上海市万荣路777号大宁中心广场2期,"121.441330,31.281857",121.44133,31.281857,上海市,上海市,静安区,彭浦镇,POINT (121.44133 31.281857)
1138,重庆来福士广场,重庆市渝中区接圣街8号重庆来福士广场2层115/116/117号,"106.588509,29.563428",106.588509,29.563428,重庆市,重庆市,渝中区,朝天门街道,POINT (106.588509 29.563428)
1139,银川机场,宁夏银川河东国际机场T3航站楼出发厅D-E-03,"106.387573,38.321324",106.387573,38.321324,银川市,宁夏回族自治区,灵武市,临河镇,POINT (106.387573 38.321324)
1140,无锡前卫路（金轮星光名座）,无锡市前吴区前卫路3号金轮星光名座生活广场1号楼一楼1114、1116、1118、1120、1122号铺位。,"120.346989,31.550458",120.346989,31.550458,无锡市,江苏省,新吴区,江溪街道,POINT (120.346989 31.550458)
1141,沈阳茂业店,辽宁省沈阳市沈河区青年大街185号茂业百货1楼,"123.436167,41.764669",123.436167,41.764669,沈阳市,辽宁省,沈河区,五里河街道,POINT (123.436167 41.764669)
1142,深圳梅林新世界百货,深圳市福田区上梅林梅华路与梅村路交汇处新世界上梅林家园1-2栋裙楼103#(A3#),"114.053670,22.564770",114.05367,22.56477,深圳市,广东省,福田区,梅林街道,POINT (114.05367 22.56477)
1143,武汉金银潭永旺梦乐城,武汉市东西湖区将军路街办事处金银潭大道1号永旺梦乐城武汉金银潭1F区域No.158,"114.237897,30.650301",114.237897,30.650301,武汉市,湖北省,东西湖区,将军路街道,POINT (114.237897 30.650301)
1144,苏州汽车西站（金山路）,江苏省苏州市高新区金山路78号狮山石路国际生活广场B1层WB104-2号商铺,"120.548369,31.295876",120.548369,31.295876,苏州市,江苏省,虎丘区,狮山街道,POINT (120.548369 31.295876)
1145,广州世贸店,广州市越秀区环市东路371-375号广州世界贸易中心大厦首层＃2、＃3、＃-4号铺,"113.287566,23.136810",113.287566,23.13681,广州市,广东省,越秀区,华乐街道,POINT (113.287566 23.13681)
1146,虹桥协信星光天地,上海市闵行区兴虹路173号协信星光天地1层173-1号,"121.310683,31.202981",121.310683,31.202981,上海市,上海市,闵行区,新虹街道,POINT (121.310683 31.202981)
1147,北京丰科万达,北京市丰台区科丰路与五圈路交叉口万达广场3021号商铺,"116.226850,39.905888",116.22685,39.905888,北京市,北京市,石景山区,鲁谷街道,POINT (116.22685 39.905888)
1148,济南绿地餐厅,济南市共青团路26号绿地普利中心6号楼006汉堡王餐厅,"117.007740,36.663480",117.00774,36.66348,济南市,山东省,市中区,泺源街道,POINT (117.00774 36.66348)
1149,南充江北路,四川省南充市顺庆区滨江北路二段1号【A-14、B-16】,"106.112039,30.829031",106.112039,30.829031,南充市,四川省,顺庆区,舞凤街道,POINT (106.112039 30.829031)
